{"type":"FeatureCollection","features":[
{"type":"Feature","properties":{},"geometry":{"type":"Polygon","coordinates":[[[-79.91946,40.491856],[-79.919353,40.491678],[-79.919246,40.4915],[-79.919108,40.491399],[-79.918801,40.491302],[-79.918614,40.491254],[-79.918357,40.49113],[-79.918452,40.490947],[-79.918754,40.490877],[-79.919243,40.490779],[-79.919834,40.49081],[-79.921477,40.491228],[-79.922354,40.491663],[-79.922155,40.491739],[-79.920981,40.491777],[-79.920589,40.491771],[-79.920084,40.491819],[-79.919797,40.491837],[-79.91946,40.491856]]]}},
{"type":"Feature","properties":{},"geometry":{"type":"MultiPolygon","coordinates":[[[[-79.988187,40.418518],[-79.986308,40.417564],[-79.98228,40.417676],[-79.982277,40.417609],[-79.982246,40.417089],[-79.98216,40.416121],[-79.981941,40.416128],[-79.981889,40.41613],[-79.981887,40.416061],[-79.981843,40.414751],[-79.981804,40.414195],[-79.981719,40.412781],[-79.981675,40.412051],[-79.981627,40.411327],[-79.981574,40.410422],[-79.980818,40.409507],[-79.980879,40.409004],[-79.981175,40.40743],[-79.981261,40.406956],[-79.981412,40.406136],[-79.981445,40.405928],[-79.981456,40.405863],[-79.983558,40.405948],[-79.984471,40.405985],[-79.986574,40.406027],[-79.987144,40.406042],[-79.987704,40.406049],[-79.989039,40.406417],[-79.991059,40.406988],[-79.991336,40.407041],[-79.991379,40.40705],[-79.99181,40.407125],[-79.991933,40.407133],[-79.991641,40.407607],[-79.991262,40.408395],[-79.990912,40.409182],[-79.990563,40.409924],[-79.990209,40.410717],[-79.989613,40.412055],[-79.989514,40.412267],[-79.989455,40.412379],[-79.989256,40.412656],[-79.98833,40.413964],[-79.988042,40.414384],[-79.988042,40.414442],[-79.988043,40.414469],[-79.988044,40.414497],[-79.988044,40.414509],[-79.988045,40.414524],[-79.988046,40.414552],[-79.988046,40.414567],[-79.988047,40.414594],[-79.988048,40.414622],[-79.988049,40.414649],[-79.98805,40.414677],[-79.988051,40.414704],[-79.988053,40.414741],[-79.988053,40.414759],[-79.988055,40.414786],[-79.988056,40.414814],[-79.988057,40.414841],[-79.988059,40.414869],[-79.98806,40.414896],[-79.988061,40.414924],[-79.988063,40.414951],[-79.988064,40.414979],[-79.988065,40.415006],[-79.988067,40.415033],[-79.988067,40.415037],[-79.988068,40.415064],[-79.98807,40.415092],[-79.988071,40.415119],[-79.988072,40.415147],[-79.988074,40.415184],[-79.988075,40.415212],[-79.988077,40.415239],[-79.988078,40.415266],[-79.988079,40.415294],[-79.988081,40.415321],[-79.988082,40.415349],[-79.988083,40.415376],[-79.988085,40.415404],[-79.988086,40.415431],[-79.988087,40.415458],[-79.988089,40.415486],[-79.98809,40.415513],[-79.988091,40.415541],[-79.988093,40.415568],[-79.988094,40.415596],[-79.988095,40.415623],[-79.988097,40.415652],[-79.988098,40.415678],[-79.988099,40.415705],[-79.988101,40.415733],[-79.988102,40.41577],[-79.988103,40.415788],[-79.988105,40.415815],[-79.988106,40.415842],[-79.988107,40.41587],[-79.988109,40.415897],[-79.98811,40.415921],[-79.988111,40.415952],[-79.988113,40.41598],[-79.988114,40.416007],[-79.988116,40.416034],[-79.988117,40.416062],[-79.988118,40.416089],[-79.98812,40.416117],[-79.988121,40.416144],[-79.988122,40.416172],[-79.988124,40.416203],[-79.988125,40.416226],[-79.988126,40.416254],[-79.988128,40.416281],[-79.988129,40.416309],[-79.988131,40.416336],[-79.988132,40.416364],[-79.988133,40.416391],[-79.988135,40.416419],[-79.988136,40.416446],[-79.988137,40.416473],[-79.988139,40.416501],[-79.98814,40.416528],[-79.988142,40.416556],[-79.988143,40.416583],[-79.988144,40.416611],[-79.988146,40.416638],[-79.988147,40.416656],[-79.988148,40.416693],[-79.98815,40.41672],[-79.988151,40.416748],[-79.988153,40.416775],[-79.988154,40.416803],[-79.988155,40.41683],[-79.988156,40.416853],[-79.988158,40.416881],[-79.988159,40.416908],[-79.988161,40.416935],[-79.988162,40.416963],[-79.988163,40.41699],[-79.988165,40.417018],[-79.988166,40.417038],[-79.988167,40.417073],[-79.988169,40.4171],[-79.988169,40.417111],[-79.98817,40.417127],[-79.988172,40.417155],[-79.988173,40.417182],[-79.988174,40.417205],[-79.988176,40.417237],[-79.988177,40.417265],[-79.988179,40.417292],[-79.98818,40.417319],[-79.98818,40.417326],[-79.988181,40.417347],[-79.988183,40.417374],[-79.988184,40.417408],[-79.988186,40.417436],[-79.988187,40.417463],[-79.988188,40.417474],[-79.988189,40.417491],[-79.98819,40.417518],[-79.988191,40.417545],[-79.988193,40.417573],[-79.988194,40.4176],[-79.988195,40.417609],[-79.988196,40.417628],[-79.988197,40.417655],[-79.988198,40.417683],[-79.988199,40.417689],[-79.9882,40.41771],[-79.988201,40.417737],[-79.988203,40.417765],[-79.988204,40.417792],[-79.988205,40.41782],[-79.988207,40.417854],[-79.988207,40.417855],[-79.988207,40.417857],[-79.988208,40.417875],[-79.988209,40.417895],[-79.98821,40.417902],[-79.988211,40.417924],[-79.988211,40.417929],[-79.988213,40.417957],[-79.988214,40.417984],[-79.988215,40.418011],[-79.988217,40.418039],[-79.988218,40.418066],[-79.98822,40.418093],[-79.988221,40.418121],[-79.988222,40.418146],[-79.988232,40.418359],[-79.988234,40.418394],[-79.988236,40.418447],[-79.988237,40.418477],[-79.988187,40.418518]]],[[[-79.762921,42.270824],[-79.759263,42.002918],[-75.391188,42.01153],[-75.309412,41.97101],[-75.249444,41.877718],[-75.140411,41.837113],[-75.085894,41.776158],[-75.058636,41.727352],[-75.042281,41.55216],[-74.889634,41.458258],[-74.74789,41.425564],[-74.709728,41.364219],[-74.829665,41.290528],[-74.922344,41.142897],[-75.113152,40.999047],[-75.107701,40.941419],[-75.053184,40.863129],[-75.129507,40.805382],[-75.211282,40.702138],[-75.085894,40.569752],[-74.982312,40.4039],[-74.791504,40.266764],[-74.726083,40.154354],[-75.140411,39.862055],[-75.778256,39.719629],[-80.51576,39.715436],[-80.532115,41.966957],[-80.240545,42.082312],[-79.762921,42.270824]]],[[[-80.011729,40.500135],[-80.011831,40.499972],[-80.011936,40.499786],[-80.012212,40.499179],[-80.012227,40.499125],[-80.012244,40.499067],[-80.012261,40.498887],[-80.012376,40.498764],[-80.012842,40.498746],[-80.012914,40.498743],[-80.013036,40.498739],[-80.013235,40.498731],[-80.013339,40.498727],[-80.015678,40.49987],[-80.015762,40.499917],[-80.016554,40.499781],[-80.016987,40.499842],[-80.017001,40.499793],[-80.017005,40.499778],[-80.017165,40.499215],[-80.017184,40.499151],[-80.017248,40.498944],[-80.017306,40.498792],[-80.017484,40.498336],[-80.017518,40.49825],[-80.017544,40.498185],[-80.017571,40.498106],[-80.017656,40.497872],[-80.017684,40.497794],[-80.017721,40.497685],[-80.017833,40.497361],[-80.018422,40.497442],[-80.019006,40.497533],[-80.019261,40.497571],[-80.019622,40.497635],[-80.020082,40.497717],[-80.020077,40.497701],[-80.020028,40.497544],[-80.020009,40.49747],[-80.020004,40.497442],[-80.01999,40.497361],[-80.019969,40.497238],[-80.019958,40.497105],[-80.019946,40.496953],[-80.019947,40.496789],[-80.019954,40.496708],[-80.019968,40.496576],[-80.019973,40.496521],[-80.020021,40.496339],[-80.02005,40.496235],[-80.020094,40.496098],[-80.020143,40.495948],[-80.020253,40.49571],[-80.020365,40.495509],[-80.020598,40.495121],[-80.020721,40.494958],[-80.02083,40.494816],[-80.02098,40.494623],[-80.021156,40.494444],[-80.021276,40.494347],[-80.021311,40.49432],[-80.021652,40.49408],[-80.021779,40.493992],[-80.021854,40.493939],[-80.021986,40.493847],[-80.022049,40.493944],[-80.022449,40.494572],[-80.0228,40.495127],[-80.022909,40.4953],[-80.023311,40.49522],[-80.024167,40.495053],[-80.024598,40.495492],[-80.024997,40.495408],[-80.025429,40.49534],[-80.025684,40.496132],[-80.025901,40.496808],[-80.026565,40.496696],[-80.026685,40.496677],[-80.027797,40.4965],[-80.027798,40.496132],[-80.027799,40.495846],[-80.027811,40.495808],[-80.027804,40.49542],[-80.027803,40.495331],[-80.027806,40.494899],[-80.027805,40.493503],[-80.027805,40.493341],[-80.027766,40.493112],[-80.027774,40.49303],[-80.027784,40.492754],[-80.027784,40.492675],[-80.027784,40.492625],[-80.02776,40.492494],[-80.027744,40.492373],[-80.027741,40.492215],[-80.027758,40.491978],[-80.027766,40.491867],[-80.027787,40.491267],[-80.027791,40.491158],[-80.027791,40.491127],[-80.027787,40.491108],[-80.027867,40.491098],[-80.027915,40.491097],[-80.027955,40.491096],[-80.02821,40.49109],[-80.030899,40.491017],[-80.032503,40.490989],[-80.033622,40.49097],[-80.03436,40.490958],[-80.034513,40.490955],[-80.03545,40.490939],[-80.035478,40.490939],[-80.035551,40.490939],[-80.035671,40.490938],[-80.035762,40.490937],[-80.035862,40.490887],[-80.036011,40.490814],[-80.03662,40.490516],[-80.037048,40.490307],[-80.037493,40.490073],[-80.038124,40.490355],[-80.038709,40.490617],[-80.038776,40.490646],[-80.039662,40.491043],[-80.040715,40.491463],[-80.042581,40.490076],[-80.042753,40.489959],[-80.043254,40.489577],[-80.043267,40.489567],[-80.0451,40.488187],[-80.045597,40.487812],[-80.046106,40.48743],[-80.046447,40.487171],[-80.04655,40.487112],[-80.046672,40.487046],[-80.046687,40.487037],[-80.04678,40.487123],[-80.046834,40.487173],[-80.047023,40.487023],[-80.047387,40.486738],[-80.047629,40.486545],[-80.047875,40.486345],[-80.04793,40.486307],[-80.048171,40.486383],[-80.048595,40.486428],[-80.048696,40.486372],[-80.048822,40.486291],[-80.049237,40.486025],[-80.04978,40.485667],[-80.049831,40.485632],[-80.049874,40.485589],[-80.049906,40.485531],[-80.049935,40.485395],[-80.049982,40.485133],[-80.049977,40.484933],[-80.049974,40.484887],[-80.04998,40.484851],[-80.050006,40.484791],[-80.050101,40.484686],[-80.050307,40.484493],[-80.050598,40.484275],[-80.05073,40.484184],[-80.050661,40.48414],[-80.050718,40.484093],[-80.050831,40.484005],[-80.051103,40.48379],[-80.051114,40.483783],[-80.051231,40.483691],[-80.051344,40.483603],[-80.051459,40.483512],[-80.051641,40.48337],[-80.05301,40.48231],[-80.053182,40.482178],[-80.052176,40.481568],[-80.051725,40.481295],[-80.051207,40.480733],[-80.049744,40.479151],[-80.048959,40.477995],[-80.048479,40.477308],[-80.048397,40.477114],[-80.048076,40.47634],[-80.047911,40.475944],[-80.047879,40.475876],[-80.047865,40.475822],[-80.047856,40.475788],[-80.047772,40.475537],[-80.047569,40.474928],[-80.047329,40.474442],[-80.047245,40.474273],[-80.047129,40.474039],[-80.046945,40.473163],[-80.046844,40.472403],[-80.0471,40.471695],[-80.047639,40.471263],[-80.047774,40.471155],[-80.048091,40.470961],[-80.049111,40.470328],[-80.049653,40.469984],[-80.050268,40.469289],[-80.050645,40.468305],[-80.050966,40.467262],[-80.051118,40.466353],[-80.051181,40.465607],[-80.05129,40.465572],[-80.051404,40.465537],[-80.052597,40.465198],[-80.053362,40.464972],[-80.053543,40.464919],[-80.053638,40.464891],[-80.054182,40.464809],[-80.05502,40.464558],[-80.055042,40.464556],[-80.055343,40.464445],[-80.055564,40.464364],[-80.055961,40.464198],[-80.056166,40.464113],[-80.056357,40.464051],[-80.056639,40.463959],[-80.056963,40.463834],[-80.057142,40.463761],[-80.057252,40.463722],[-80.057798,40.463512],[-80.058037,40.463459],[-80.058137,40.463437],[-80.058249,40.463443],[-80.058488,40.463455],[-80.058974,40.46367],[-80.059185,40.463786],[-80.059436,40.463931],[-80.059832,40.464072],[-80.060111,40.464154],[-80.060749,40.464207],[-80.060838,40.464192],[-80.061938,40.463522],[-80.062917,40.463054],[-80.063401,40.462824],[-80.064006,40.462675],[-80.064096,40.462636],[-80.064499,40.462462],[-80.065214,40.462121],[-80.06542,40.462022],[-80.065576,40.461947],[-80.066206,40.461643],[-80.066907,40.461306],[-80.067267,40.46118],[-80.067759,40.461008],[-80.068169,40.460898],[-80.068554,40.460795],[-80.068711,40.460792],[-80.068863,40.4608],[-80.069244,40.46082],[-80.069533,40.460835],[-80.071078,40.461113],[-80.071893,40.46126],[-80.072224,40.46135],[-80.072337,40.461382],[-80.072453,40.461489],[-80.074237,40.463135],[-80.074347,40.463237],[-80.074762,40.46362],[-80.074894,40.463693],[-80.075367,40.463989],[-80.076078,40.464436],[-80.076268,40.464566],[-80.076501,40.464665],[-80.07671,40.464703],[-80.077034,40.464738],[-80.077346,40.464757],[-80.077597,40.464748],[-80.0777,40.464744],[-80.078062,40.464692],[-80.0794,40.463862],[-80.079675,40.463621],[-80.07972,40.463582],[-80.079937,40.463374],[-80.080107,40.462938],[-80.080169,40.462745],[-80.080175,40.462728],[-80.080252,40.462498],[-80.080263,40.462474],[-80.080306,40.46239],[-80.080357,40.462287],[-80.080486,40.462018],[-80.080527,40.461933],[-80.080548,40.461898],[-80.080589,40.461813],[-80.080622,40.46175],[-80.080684,40.461632],[-80.080841,40.461342],[-80.080893,40.461245],[-80.080976,40.461146],[-80.081191,40.460892],[-80.081401,40.460685],[-80.081456,40.460627],[-80.081918,40.460289],[-80.082169,40.46009],[-80.082276,40.460007],[-80.082627,40.459849],[-80.082781,40.459781],[-80.08316,40.459613],[-80.083448,40.459525],[-80.083705,40.459447],[-80.083826,40.459461],[-80.083916,40.459474],[-80.085158,40.459663],[-80.086121,40.459817],[-80.086301,40.459826],[-80.086438,40.459833],[-80.086649,40.45985],[-80.086669,40.459852],[-80.086785,40.459864],[-80.087064,40.459844],[-80.087111,40.459841],[-80.087286,40.459822],[-80.087538,40.459797],[-80.087744,40.459777],[-80.087874,40.459762],[-80.088027,40.459745],[-80.088384,40.459756],[-80.088588,40.459764],[-80.088774,40.45977],[-80.089726,40.459804],[-80.09048,40.459828],[-80.09069,40.459832],[-80.091867,40.459861],[-80.093133,40.459834],[-80.09346,40.459831],[-80.094177,40.459759],[-80.094614,40.459724],[-80.094687,40.459678],[-80.094757,40.459627],[-80.094893,40.459522],[-80.095036,40.459428],[-80.095142,40.459277],[-80.095233,40.459111],[-80.095258,40.458812],[-80.095287,40.45832],[-80.095297,40.458142],[-80.095313,40.457807],[-80.095322,40.457613],[-80.095331,40.457503],[-80.095304,40.457348],[-80.095273,40.457173],[-80.095265,40.457115],[-80.094675,40.454005],[-80.094555,40.453363],[-80.094588,40.453144],[-80.094605,40.45303],[-80.094607,40.453018],[-80.094627,40.452656],[-80.094657,40.451938],[-80.094639,40.451868],[-80.094503,40.451339],[-80.094183,40.451031],[-80.094044,40.450942],[-80.093808,40.45084],[-80.093638,40.450769],[-80.093602,40.450755],[-80.093567,40.450755],[-80.093378,40.450762],[-80.093259,40.450753],[-80.092897,40.450775],[-80.092703,40.450798],[-80.092575,40.450839],[-80.092413,40.450926],[-80.091838,40.451225],[-80.091722,40.451284],[-80.091516,40.45135],[-80.091123,40.451432],[-80.090716,40.451429],[-80.090511,40.451352],[-80.090241,40.451248],[-80.089943,40.451026],[-80.089776,40.450793],[-80.089719,40.450732],[-80.08969,40.450673],[-80.08952,40.450435],[-80.089537,40.449844],[-80.089604,40.44979],[-80.089646,40.449758],[-80.090421,40.449365],[-80.090638,40.449255],[-80.090805,40.449171],[-80.091027,40.449058],[-80.090747,40.448494],[-80.090546,40.448093],[-80.090417,40.447824],[-80.090392,40.447772],[-80.090297,40.44758],[-80.090276,40.44753],[-80.090158,40.446855],[-80.090111,40.446587],[-80.090138,40.446359],[-80.090197,40.446167],[-80.090368,40.44561],[-80.090402,40.445418],[-80.090168,40.44417],[-80.08924,40.443341],[-80.088106,40.442959],[-80.087481,40.442811],[-80.085577,40.442332],[-80.085052,40.442147],[-80.084917,40.4421],[-80.084869,40.442089],[-80.084704,40.442057],[-80.084071,40.441937],[-80.08397,40.441802],[-80.083913,40.441725],[-80.083578,40.441371],[-80.083329,40.440967],[-80.083244,40.440833],[-80.082886,40.440445],[-80.082558,40.440308],[-80.082399,40.440252],[-80.081812,40.440053],[-80.081463,40.43997],[-80.080887,40.439788],[-80.080752,40.439746],[-80.080733,40.439798],[-80.080615,40.440126],[-80.080514,40.440503],[-80.080237,40.440649],[-80.080139,40.44069],[-80.079775,40.440823],[-80.078787,40.441152],[-80.078121,40.441357],[-80.077662,40.441488],[-80.077052,40.44165],[-80.076625,40.441752],[-80.076453,40.441792],[-80.076355,40.441816],[-80.076378,40.441871],[-80.076574,40.442298],[-80.076609,40.442374],[-80.076708,40.442592],[-80.076991,40.443212],[-80.077311,40.443914],[-80.07744,40.444196],[-80.078272,40.446017],[-80.078508,40.446535],[-80.078102,40.446704],[-80.077953,40.446767],[-80.077632,40.446913],[-80.077298,40.447016],[-80.076951,40.447148],[-80.076753,40.447178],[-80.076732,40.447181],[-80.076405,40.447247],[-80.076355,40.447254],[-80.076537,40.448015],[-80.076463,40.448032],[-80.076353,40.44805],[-80.075462,40.44822],[-80.073152,40.448661],[-80.072948,40.448333],[-80.07272,40.448383],[-80.07159,40.448629],[-80.070873,40.448441],[-80.070059,40.448229],[-80.068619,40.447853],[-80.068362,40.447786],[-80.068139,40.448004],[-80.068127,40.448014],[-80.068044,40.448087],[-80.067966,40.448155],[-80.067953,40.448167],[-80.067732,40.448361],[-80.067655,40.44843],[-80.067611,40.448467],[-80.067481,40.448582],[-80.067438,40.44862],[-80.067415,40.448639],[-80.067348,40.448699],[-80.067326,40.448719],[-80.067294,40.44875],[-80.067252,40.448792],[-80.067224,40.44884],[-80.067143,40.448898],[-80.067107,40.448898],[-80.067045,40.448898],[-80.066734,40.448839],[-80.066721,40.448836],[-80.066685,40.448828],[-80.06626,40.449317],[-80.066197,40.449389],[-80.06535,40.448832],[-80.06535,40.448552],[-80.065323,40.448547],[-80.065245,40.448525],[-80.065116,40.448478],[-80.064291,40.448182],[-80.064326,40.447713],[-80.064265,40.447691],[-80.064204,40.44767],[-80.064176,40.447667],[-80.064078,40.447647],[-80.06401,40.447633],[-80.063633,40.447931],[-80.063546,40.447883],[-80.06345,40.447812],[-80.063397,40.447774],[-80.062823,40.447392],[-80.062614,40.447241],[-80.062465,40.447348],[-80.06242,40.447381],[-80.061904,40.447815],[-80.061892,40.447803],[-80.061872,40.44778],[-80.061686,40.447566],[-80.06149,40.44734],[-80.061125,40.446927],[-80.060938,40.446715],[-80.060735,40.446486],[-80.060182,40.445862],[-80.060124,40.445805],[-80.05996,40.445644],[-80.059901,40.445598],[-80.059795,40.445517],[-80.05976,40.445491],[-80.059332,40.44518],[-80.05919,40.445077],[-80.059122,40.445027],[-80.058767,40.444769],[-80.0585,40.444596],[-80.058242,40.444489],[-80.058047,40.444427],[-80.057797,40.444404],[-80.056802,40.444338],[-80.056745,40.444323],[-80.056631,40.444294],[-80.056599,40.444285],[-80.056185,40.444167],[-80.056142,40.444155],[-80.055845,40.444072],[-80.055374,40.443944],[-80.055473,40.443913],[-80.055772,40.443822],[-80.055872,40.443792],[-80.056214,40.443681],[-80.056277,40.443661],[-80.057496,40.443277],[-80.057903,40.443149],[-80.058467,40.44296],[-80.06013,40.442406],[-80.06016,40.442392],[-80.060335,40.442317],[-80.060514,40.442217],[-80.060667,40.442089],[-80.060841,40.441908],[-80.060871,40.44185],[-80.060924,40.44175],[-80.061004,40.441502],[-80.061132,40.440962],[-80.061136,40.440944],[-80.061219,40.44064],[-80.061176,40.440605],[-80.060855,40.440344],[-80.059765,40.439456],[-80.059402,40.43916],[-80.059206,40.438963],[-80.058049,40.437948],[-80.057892,40.437806],[-80.057599,40.437542],[-80.057748,40.437505],[-80.058237,40.437362],[-80.058372,40.437329],[-80.059126,40.437143],[-80.05905,40.437065],[-80.058817,40.436944],[-80.058728,40.436888],[-80.058524,40.43676],[-80.058457,40.436731],[-80.058361,40.436691],[-80.058266,40.43664],[-80.057983,40.43649],[-80.057966,40.436481],[-80.057921,40.436407],[-80.057991,40.436361],[-80.057993,40.436301],[-80.058005,40.436072],[-80.058029,40.435871],[-80.058047,40.435729],[-80.058052,40.435681],[-80.058069,40.43554],[-80.058076,40.435493],[-80.058083,40.435425],[-80.058106,40.435223],[-80.0581,40.435156],[-80.058085,40.435028],[-80.058042,40.434644],[-80.058028,40.434516],[-80.057934,40.434523],[-80.05766,40.434523],[-80.057568,40.434523],[-80.057545,40.434292],[-80.057531,40.434149],[-80.057459,40.43337],[-80.057288,40.43158],[-80.057339,40.431521],[-80.057523,40.43129],[-80.057864,40.431446],[-80.05791,40.431467],[-80.058122,40.431091],[-80.058495,40.430535],[-80.058631,40.430298],[-80.058945,40.429754],[-80.059033,40.429582],[-80.059092,40.429469],[-80.059157,40.429339],[-80.059278,40.429149],[-80.059372,40.429005],[-80.059456,40.428866],[-80.059532,40.428725],[-80.059609,40.428561],[-80.059681,40.42841],[-80.059709,40.428359],[-80.059748,40.428318],[-80.05979,40.428291],[-80.059822,40.428281],[-80.059851,40.428278],[-80.059948,40.42829],[-80.060011,40.428307],[-80.060189,40.428374],[-80.060223,40.428388],[-80.060352,40.428443],[-80.060424,40.428474],[-80.06048,40.428491],[-80.060793,40.428591],[-80.060873,40.428618],[-80.061004,40.428662],[-80.061116,40.428696],[-80.061147,40.428706],[-80.061453,40.428807],[-80.061566,40.428845],[-80.061682,40.428883],[-80.06203,40.428999],[-80.062082,40.429016],[-80.062143,40.429047],[-80.062169,40.429057],[-80.062889,40.428218],[-80.063144,40.427922],[-80.063176,40.427874],[-80.063276,40.427956],[-80.063681,40.428255],[-80.063809,40.42835],[-80.064171,40.428606],[-80.064367,40.428766],[-80.0647,40.4292],[-80.065135,40.42978],[-80.065382,40.430109],[-80.065549,40.430357],[-80.065762,40.430403],[-80.065958,40.430446],[-80.066402,40.430542],[-80.066447,40.430552],[-80.066609,40.430613],[-80.066766,40.430672],[-80.066917,40.430737],[-80.067705,40.431077],[-80.067835,40.431126],[-80.068025,40.431199],[-80.06815,40.431236],[-80.068205,40.431252],[-80.06837,40.431302],[-80.068426,40.431319],[-80.068523,40.431348],[-80.068583,40.431366],[-80.068982,40.43076],[-80.069311,40.430249],[-80.069507,40.429938],[-80.07057,40.428637],[-80.070982,40.428238],[-80.072684,40.426598],[-80.072789,40.426487],[-80.073104,40.426157],[-80.07321,40.426047],[-80.073462,40.425773],[-80.073513,40.425722],[-80.073592,40.425644],[-80.07372,40.425554],[-80.073885,40.425471],[-80.074316,40.425334],[-80.074641,40.425235],[-80.074726,40.42521],[-80.075153,40.425087],[-80.075506,40.42499],[-80.07552,40.424987],[-80.076048,40.424852],[-80.076571,40.424717],[-80.076927,40.424626],[-80.077229,40.424548],[-80.078135,40.424317],[-80.078251,40.424288],[-80.078437,40.424237],[-80.078678,40.424173],[-80.078854,40.424135],[-80.079077,40.424088],[-80.079454,40.424012],[-80.079655,40.423966],[-80.079877,40.423904],[-80.080104,40.423831],[-80.080152,40.423817],[-80.080522,40.423731],[-80.080768,40.42374],[-80.081039,40.42375],[-80.081441,40.423758],[-80.081509,40.423757],[-80.081756,40.423755],[-80.081785,40.423753],[-80.081874,40.423748],[-80.081904,40.423747],[-80.082039,40.423739],[-80.08214,40.423734],[-80.082445,40.423731],[-80.082567,40.423731],[-80.082581,40.423731],[-80.082698,40.423731],[-80.083049,40.423733],[-80.083167,40.423734],[-80.083293,40.423734],[-80.083349,40.423734],[-80.083447,40.423746],[-80.083553,40.423775],[-80.083601,40.423799],[-80.083728,40.423802],[-80.085545,40.42385],[-80.085712,40.422978],[-80.085745,40.4228],[-80.085415,40.421251],[-80.084603,40.420604],[-80.08451,40.42053],[-80.082687,40.420109],[-80.081572,40.420221],[-80.080891,40.420189],[-80.080781,40.420173],[-80.079597,40.420046],[-80.076896,40.420527],[-80.076662,40.420567],[-80.076118,40.420705],[-80.075651,40.420835],[-80.075476,40.420842],[-80.075162,40.420766],[-80.075006,40.420712],[-80.074862,40.42061],[-80.074809,40.420491],[-80.074786,40.420416],[-80.074806,40.420132],[-80.07513,40.419484],[-80.076033,40.417955],[-80.07636,40.417611],[-80.076403,40.417589],[-80.076678,40.417387],[-80.077159,40.417098],[-80.077507,40.416947],[-80.078607,40.416493],[-80.078662,40.41647],[-80.078625,40.416439],[-80.078585,40.416403],[-80.077619,40.41552],[-80.077583,40.415477],[-80.077448,40.415352],[-80.077356,40.41527],[-80.077314,40.415316],[-80.0773,40.415329],[-80.077261,40.415367],[-80.077248,40.415381],[-80.077229,40.4154],[-80.077202,40.415421],[-80.077181,40.415424],[-80.077153,40.415449],[-80.0768,40.415193],[-80.076768,40.415173],[-80.076751,40.415183],[-80.076675,40.415241],[-80.076282,40.414936],[-80.075924,40.414659],[-80.075857,40.41471],[-80.075834,40.414728],[-80.075492,40.414472],[-80.075437,40.414431],[-80.075136,40.414198],[-80.075042,40.414264],[-80.074675,40.413992],[-80.074525,40.413881],[-80.074323,40.413729],[-80.0743,40.413747],[-80.074213,40.413679],[-80.073952,40.413475],[-80.073865,40.413407],[-80.07377,40.413471],[-80.073511,40.413661],[-80.073292,40.413832],[-80.073125,40.413966],[-80.072951,40.414113],[-80.072911,40.414152],[-80.072811,40.41425],[-80.072768,40.414299],[-80.072634,40.414456],[-80.072464,40.414681],[-80.072394,40.414784],[-80.072318,40.414898],[-80.072286,40.414958],[-80.072243,40.415037],[-80.072167,40.415177],[-80.072116,40.415274],[-80.072074,40.415354],[-80.072036,40.415426],[-80.071999,40.415484],[-80.071911,40.415625],[-80.071844,40.415688],[-80.071778,40.415732],[-80.071671,40.415774],[-80.071529,40.415822],[-80.071379,40.415829],[-80.071254,40.415836],[-80.07093,40.415835],[-80.070781,40.415835],[-80.070751,40.415835],[-80.070662,40.415836],[-80.070633,40.415837],[-80.070621,40.415837],[-80.070205,40.415859],[-80.069956,40.415874],[-80.06874,40.415949],[-80.068416,40.415973],[-80.068049,40.416011],[-80.067932,40.416036],[-80.067666,40.416095],[-80.067387,40.416189],[-80.067285,40.416229],[-80.067126,40.416321],[-80.066959,40.416419],[-80.066821,40.4165],[-80.066657,40.416606],[-80.066555,40.416673],[-80.06651,40.416714],[-80.066433,40.416784],[-80.066383,40.416873],[-80.066171,40.417154],[-80.066126,40.417236],[-80.066116,40.417265],[-80.066103,40.417309],[-80.066094,40.417374],[-80.066099,40.417507],[-80.066151,40.417738],[-80.066344,40.418423],[-80.066419,40.4187],[-80.066503,40.418987],[-80.066572,40.419245],[-80.066611,40.419392],[-80.066728,40.41991],[-80.066752,40.420023],[-80.066824,40.420364],[-80.066837,40.420423],[-80.066849,40.420478],[-80.066856,40.420508],[-80.066877,40.420598],[-80.066885,40.420629],[-80.066934,40.420934],[-80.066968,40.421122],[-80.067198,40.422379],[-80.067214,40.422466],[-80.067224,40.422556],[-80.067224,40.422601],[-80.067226,40.422673],[-80.067205,40.422784],[-80.067167,40.422892],[-80.067061,40.423064],[-80.067002,40.423142],[-80.066827,40.423379],[-80.066783,40.423439],[-80.066767,40.423457],[-80.066561,40.423737],[-80.065943,40.424579],[-80.065738,40.42486],[-80.065669,40.424955],[-80.065517,40.425125],[-80.06545,40.425173],[-80.065353,40.425246],[-80.065032,40.425468],[-80.064805,40.425625],[-80.064668,40.425722],[-80.064412,40.425926],[-80.064051,40.426234],[-80.063955,40.426299],[-80.06379,40.426371],[-80.063729,40.426383],[-80.063608,40.42639],[-80.063278,40.426396],[-80.063206,40.426395],[-80.062512,40.426391],[-80.062266,40.42639],[-80.061907,40.426382],[-80.061573,40.42638],[-80.061097,40.426391],[-80.060646,40.426393],[-80.059911,40.426398],[-80.058849,40.42642],[-80.057868,40.426424],[-80.057779,40.426425],[-80.05742,40.426436],[-80.057238,40.426447],[-80.056954,40.426527],[-80.056739,40.426595],[-80.056414,40.426713],[-80.056293,40.426761],[-80.05449,40.427485],[-80.054343,40.427548],[-80.054193,40.427613],[-80.054102,40.427659],[-80.054005,40.427727],[-80.053776,40.427946],[-80.053477,40.427838],[-80.052596,40.427521],[-80.05258,40.427514],[-80.052285,40.427398],[-80.052228,40.427419],[-80.05214,40.427393],[-80.051995,40.427327],[-80.051676,40.427202],[-80.051463,40.427146],[-80.051309,40.427118],[-80.051114,40.427105],[-80.050954,40.427114],[-80.050799,40.427111],[-80.050571,40.427079],[-80.049781,40.426913],[-80.049632,40.426872],[-80.049463,40.42682],[-80.049209,40.426685],[-80.049045,40.426602],[-80.048904,40.426522],[-80.048824,40.426477],[-80.048614,40.426346],[-80.048462,40.426236],[-80.04808,40.425949],[-80.047806,40.425743],[-80.047517,40.425893],[-80.047384,40.425965],[-80.047399,40.427018],[-80.047205,40.427031],[-80.047138,40.427035],[-80.04694,40.427047],[-80.046874,40.427052],[-80.046696,40.427043],[-80.046595,40.427039],[-80.046641,40.427109],[-80.046753,40.427277],[-80.046812,40.42738],[-80.046801,40.42745],[-80.046795,40.427487],[-80.046781,40.427586],[-80.046776,40.427631],[-80.046754,40.427887],[-80.046746,40.427988],[-80.046742,40.428024],[-80.046741,40.428042],[-80.046749,40.428133],[-80.046753,40.42817],[-80.046727,40.428271],[-80.046715,40.428437],[-80.046658,40.429249],[-80.046646,40.429428],[-80.044631,40.42907],[-80.044277,40.42884],[-80.043945,40.428625],[-80.043712,40.428471],[-80.043434,40.428292],[-80.043371,40.428251],[-80.043306,40.428209],[-80.043292,40.428201],[-80.042708,40.428682],[-80.042816,40.428512],[-80.043153,40.428052],[-80.042986,40.428197],[-80.042494,40.428626],[-80.041992,40.428881],[-80.041693,40.428995],[-80.041377,40.428898],[-80.040701,40.428691],[-80.040625,40.428643],[-80.039659,40.428306],[-80.03934,40.42818],[-80.039188,40.428129],[-80.038374,40.427854],[-80.038281,40.427894],[-80.038178,40.427972],[-80.037716,40.428324],[-80.037637,40.428401],[-80.03752,40.428518],[-80.037466,40.428553],[-80.037392,40.428543],[-80.036931,40.428508],[-80.036897,40.428505],[-80.036837,40.428501],[-80.035188,40.42839],[-80.03483,40.428366],[-80.035549,40.427209],[-80.03716,40.424617],[-80.037397,40.424275],[-80.037621,40.423891],[-80.038295,40.422742],[-80.03852,40.422359],[-80.03862,40.422214],[-80.038924,40.421782],[-80.038954,40.421741],[-80.039026,40.421639],[-80.039066,40.421574],[-80.03915,40.421436],[-80.039525,40.42083],[-80.03962,40.420678],[-80.039663,40.420604],[-80.039755,40.420438],[-80.040567,40.419151],[-80.040795,40.41877],[-80.041591,40.417499],[-80.042997,40.415236],[-80.043728,40.41406],[-80.044219,40.41327],[-80.044332,40.413066],[-80.04442,40.412913],[-80.044425,40.412904],[-80.044543,40.41274],[-80.0447,40.412491],[-80.044718,40.412458],[-80.04481,40.412302],[-80.044885,40.412185],[-80.04497,40.412055],[-80.045104,40.411834],[-80.045122,40.411806],[-80.045173,40.411714],[-80.045186,40.411682],[-80.045227,40.411589],[-80.045242,40.411558],[-80.045351,40.41139],[-80.045677,40.410888],[-80.045787,40.410721],[-80.045885,40.410561],[-80.046182,40.410081],[-80.046281,40.409922],[-80.046359,40.409795],[-80.046596,40.409415],[-80.046675,40.409289],[-80.046756,40.409155],[-80.046914,40.408897],[-80.047002,40.408753],[-80.047085,40.40862],[-80.047188,40.408453],[-80.047336,40.408213],[-80.047498,40.407954],[-80.047602,40.407788],[-80.047912,40.407286],[-80.048028,40.407104],[-80.048306,40.406645],[-80.048541,40.406264],[-80.048646,40.406097],[-80.048724,40.405969],[-80.049857,40.404135],[-80.049854,40.404072],[-80.049865,40.404026],[-80.049942,40.403921],[-80.050229,40.403533],[-80.050489,40.40311],[-80.05084,40.40254],[-80.051205,40.401951],[-80.051094,40.401909],[-80.051068,40.401897],[-80.050968,40.401852],[-80.050166,40.401449],[-80.050145,40.401439],[-80.04988,40.401315],[-80.049831,40.401302],[-80.049596,40.401192],[-80.048891,40.400863],[-80.048657,40.400754],[-80.048547,40.400696],[-80.04575,40.399375],[-80.045054,40.399049],[-80.044885,40.399068],[-80.044746,40.399083],[-80.044628,40.399096],[-80.04194,40.399394],[-80.041856,40.399441],[-80.041878,40.399471],[-80.041944,40.399564],[-80.041967,40.399595],[-80.042031,40.399684],[-80.042081,40.399754],[-80.042025,40.399786],[-80.041154,40.400376],[-80.040818,40.400602],[-80.040449,40.400852],[-80.039903,40.401222],[-80.039821,40.401287],[-80.039767,40.401327],[-80.039172,40.401853],[-80.038669,40.402285],[-80.038008,40.402882],[-80.036419,40.404285],[-80.036346,40.404269],[-80.036313,40.404271],[-80.036173,40.404253],[-80.036138,40.404251],[-80.035994,40.404261],[-80.035968,40.404263],[-80.035586,40.404298],[-80.035474,40.404294],[-80.03546,40.404171],[-80.035456,40.404145],[-80.035447,40.404071],[-80.035445,40.404046],[-80.035468,40.40383],[-80.035582,40.402278],[-80.035625,40.401706],[-80.035696,40.40163],[-80.035791,40.401547],[-80.0367,40.400793],[-80.036582,40.400817],[-80.035878,40.400951],[-80.034816,40.401154],[-80.034251,40.401254],[-80.034159,40.401271],[-80.032756,40.401531],[-80.032706,40.401541],[-80.032669,40.401543],[-80.032485,40.401737],[-80.032427,40.401627],[-80.032368,40.401529],[-80.032247,40.401363],[-80.032095,40.401189],[-80.032028,40.401112],[-80.031979,40.401051],[-80.031854,40.400891],[-80.031787,40.400806],[-80.031726,40.400723],[-80.03167,40.400648],[-80.031535,40.400484],[-80.031471,40.400405],[-80.031591,40.400276],[-80.03176,40.400097],[-80.031656,40.399971],[-80.031565,40.399869],[-80.031103,40.3993],[-80.029816,40.397734],[-80.029393,40.397213],[-80.029438,40.397197],[-80.029592,40.397145],[-80.029634,40.39713],[-80.029759,40.397088],[-80.029802,40.397075],[-80.029911,40.397038],[-80.030011,40.397005],[-80.030235,40.396913],[-80.030343,40.39687],[-80.030496,40.396817],[-80.030667,40.39676],[-80.03096,40.396667],[-80.030997,40.396656],[-80.031119,40.396632],[-80.031147,40.396621],[-80.031014,40.396225],[-80.030947,40.396029],[-80.030808,40.395617],[-80.030726,40.395376],[-80.030721,40.395363],[-80.030701,40.395359],[-80.030723,40.395285],[-80.03077,40.395015],[-80.030704,40.394887],[-80.030434,40.394408],[-80.030413,40.394372],[-80.03035,40.394264],[-80.03033,40.394228],[-80.030207,40.393998],[-80.030139,40.393877],[-80.029783,40.393241],[-80.029554,40.392833],[-80.029359,40.392485],[-80.02922,40.392237],[-80.028806,40.391494],[-80.028699,40.391304],[-80.028681,40.391271],[-80.028294,40.391423],[-80.02783,40.391606],[-80.027781,40.391558],[-80.027569,40.391444],[-80.026987,40.391132],[-80.026752,40.391005],[-80.026481,40.390858],[-80.026029,40.390618],[-80.025587,40.390397],[-80.025497,40.390349],[-80.02523,40.390205],[-80.025141,40.390157],[-80.024842,40.390007],[-80.024706,40.389939],[-80.023952,40.38955],[-80.023656,40.389398],[-80.023188,40.389143],[-80.022793,40.388928],[-80.022009,40.388499],[-80.021924,40.388453],[-80.021785,40.388377],[-80.021423,40.388182],[-80.021316,40.388126],[-80.020834,40.387865],[-80.019391,40.387084],[-80.018999,40.386872],[-80.01891,40.386824],[-80.01881,40.386801],[-80.018162,40.386458],[-80.017793,40.38641],[-80.017111,40.386322],[-80.017098,40.386286],[-80.016979,40.386072],[-80.016958,40.386033],[-80.016877,40.385977],[-80.016806,40.385798],[-80.016775,40.385718],[-80.01652,40.3853],[-80.016421,40.385137],[-80.016333,40.385207],[-80.016253,40.385256],[-80.015838,40.385515],[-80.015726,40.385581],[-80.015549,40.385687],[-80.015471,40.385739],[-80.015256,40.38587],[-80.014916,40.386078],[-80.014627,40.386211],[-80.014336,40.38634],[-80.014021,40.386481],[-80.013985,40.386496],[-80.013878,40.386545],[-80.013843,40.386561],[-80.013822,40.38657],[-80.01357,40.386098],[-80.01359,40.385925],[-80.013596,40.385864],[-80.013613,40.385714],[-80.013889,40.385743],[-80.014161,40.385773],[-80.014122,40.385647],[-80.014111,40.385621],[-80.013985,40.385305],[-80.01393,40.385137],[-80.013812,40.384771],[-80.013765,40.384637],[-80.013708,40.384472],[-80.013627,40.384241],[-80.013594,40.384036],[-80.013597,40.383991],[-80.013393,40.383489],[-80.013328,40.383492],[-80.013078,40.383474],[-80.012985,40.383468],[-80.01263,40.383427],[-80.012507,40.383409],[-80.012495,40.383407],[-80.01258,40.383075],[-80.01255,40.383071],[-80.012439,40.383055],[-80.012319,40.383037],[-80.012333,40.382982],[-80.013177,40.382843],[-80.013142,40.382715],[-80.012582,40.380897],[-80.011166,40.380609],[-80.010385,40.38045],[-80.010031,40.380929],[-80.00992,40.380941],[-80.009099,40.38103],[-80.00903,40.381024],[-80.009031,40.38107],[-80.009011,40.381105],[-80.008992,40.381121],[-80.008978,40.381133],[-80.008951,40.381145],[-80.008894,40.381153],[-80.008845,40.381146],[-80.008649,40.381062],[-80.008303,40.380915],[-80.00827,40.3809],[-80.008206,40.380886],[-80.008138,40.380882],[-80.008072,40.38089],[-80.008004,40.38091],[-80.007887,40.380967],[-80.007698,40.38113],[-80.007688,40.381138],[-80.007635,40.38113],[-80.007607,40.381107],[-80.007525,40.381041],[-80.007498,40.381019],[-80.007464,40.380991],[-80.007359,40.380906],[-80.007313,40.38105],[-80.007193,40.38144],[-80.00717,40.381509],[-80.007161,40.381539],[-80.007215,40.381674],[-80.007226,40.381698],[-80.007408,40.382137],[-80.0076,40.382765],[-80.007661,40.382962],[-80.007679,40.38302],[-80.007625,40.383038],[-80.007191,40.383186],[-80.006422,40.383448],[-80.006329,40.38348],[-80.005651,40.383711],[-80.005247,40.383848],[-80.005124,40.383891],[-80.004997,40.383733],[-80.004932,40.383651],[-80.004416,40.383006],[-80.003656,40.382049],[-80.003338,40.381178],[-80.00217,40.380102],[-80.001827,40.379787],[-80.001787,40.379749],[-80.001731,40.379707],[-80.001795,40.379654],[-80.002223,40.379295],[-80.003179,40.378848],[-80.003597,40.378569],[-80.004184,40.378178],[-80.004625,40.377831],[-80.004872,40.377635],[-80.005364,40.377141],[-80.005692,40.376621],[-80.005878,40.375997],[-80.006139,40.375498],[-80.006194,40.375407],[-80.006253,40.375314],[-80.006676,40.374897],[-80.006711,40.374869],[-80.006635,40.374856],[-80.005982,40.374747],[-80.005609,40.374686],[-80.005557,40.374668],[-80.005375,40.374605],[-80.005018,40.374482],[-80.00498,40.374469],[-80.004916,40.374432],[-80.004681,40.374297],[-80.004573,40.374226],[-80.004548,40.374221],[-80.004482,40.374183],[-80.004147,40.37399],[-80.004128,40.373989],[-80.004021,40.374116],[-80.003775,40.374401],[-80.003195,40.374496],[-80.00302,40.374524],[-80.002881,40.374543],[-80.00283,40.374554],[-80.002719,40.374577],[-80.002387,40.37465],[-80.002277,40.374674],[-80.002134,40.374704],[-80.001975,40.374739],[-80.001749,40.374798],[-80.001711,40.374809],[-80.001589,40.374849],[-80.001573,40.374854],[-80.001442,40.374895],[-80.001279,40.375019],[-80.000792,40.375392],[-80.00063,40.375517],[-80.00056,40.375618],[-80.000354,40.375923],[-80.000285,40.376025],[-80.000262,40.376044],[-79.99965,40.376754],[-79.999436,40.377004],[-79.999207,40.377268],[-79.999126,40.377352],[-79.998282,40.376666],[-79.998054,40.37648],[-79.997946,40.37645],[-79.997219,40.376241],[-79.99718,40.37623],[-79.996922,40.376156],[-79.996666,40.376094],[-79.994948,40.375674],[-79.994517,40.375715],[-79.994404,40.375726],[-79.994067,40.375827],[-79.994002,40.375847],[-79.994005,40.375881],[-79.994005,40.375894],[-79.994006,40.375911],[-79.994009,40.375925],[-79.99401,40.375939],[-79.994013,40.375981],[-79.994015,40.375996],[-79.994019,40.37605],[-79.994037,40.376144],[-79.994095,40.37644],[-79.994114,40.376587],[-79.994135,40.376736],[-79.994113,40.376934],[-79.994098,40.377011],[-79.994082,40.37707],[-79.994061,40.377154],[-79.993961,40.377417],[-79.99372,40.378019],[-79.99371,40.378047],[-79.993583,40.378329],[-79.993511,40.378351],[-79.993438,40.378381],[-79.993197,40.378485],[-79.99315,40.378509],[-79.992904,40.378612],[-79.992799,40.378617],[-79.992509,40.378642],[-79.992392,40.378666],[-79.99113,40.378932],[-79.990229,40.378797],[-79.99012,40.378771],[-79.98967,40.378663],[-79.989587,40.378643],[-79.987251,40.378109],[-79.986996,40.378051],[-79.986359,40.377905],[-79.986231,40.377876],[-79.986035,40.37783],[-79.985823,40.378249],[-79.985728,40.378294],[-79.98567,40.378369],[-79.985629,40.378421],[-79.985508,40.378576],[-79.985468,40.378629],[-79.985437,40.378668],[-79.985344,40.378786],[-79.985332,40.378802],[-79.985309,40.378821],[-79.985221,40.37897],[-79.984994,40.379346],[-79.98492,40.379442],[-79.984878,40.379497],[-79.984831,40.379558],[-79.984733,40.379684],[-79.984509,40.379983],[-79.983345,40.381524],[-79.982757,40.381495],[-79.982256,40.380996],[-79.98195,40.38065],[-79.981922,40.380659],[-79.981766,40.38071],[-79.981581,40.380771],[-79.980478,40.381143],[-79.980111,40.381267],[-79.979859,40.381352],[-79.979265,40.381553],[-79.979103,40.381603],[-79.978931,40.381657],[-79.978848,40.381676],[-79.978823,40.381681],[-79.97875,40.381699],[-79.978726,40.381705],[-79.978412,40.381778],[-79.978381,40.381786],[-79.978031,40.381855],[-79.977857,40.381841],[-79.977775,40.381817],[-79.977648,40.381751],[-79.97753,40.381625],[-79.97751,40.381583],[-79.977368,40.381348],[-79.977348,40.381315],[-79.97726,40.381286],[-79.977096,40.381234],[-79.976884,40.38118],[-79.976758,40.381149],[-79.976635,40.381179],[-79.976428,40.381231],[-79.976267,40.381275],[-79.976145,40.381309],[-79.976156,40.381333],[-79.97622,40.381475],[-79.976444,40.381976],[-79.976519,40.382144],[-79.976582,40.382286],[-79.976614,40.382357],[-79.976725,40.382602],[-79.976779,40.382711],[-79.976848,40.382852],[-79.976937,40.383007],[-79.977012,40.383138],[-79.977217,40.383466],[-79.977313,40.383619],[-79.977488,40.383904],[-79.977653,40.384151],[-79.977498,40.384243],[-79.977454,40.384291],[-79.97736,40.384401],[-79.97728,40.384497],[-79.97707,40.384725],[-79.976973,40.384832],[-79.976927,40.384887],[-79.976873,40.384944],[-79.976705,40.385129],[-79.976573,40.38528],[-79.976475,40.385394],[-79.976341,40.38536],[-79.97616,40.385316],[-79.97594,40.385263],[-79.975807,40.385232],[-79.975461,40.385147],[-79.974426,40.384894],[-79.974184,40.384835],[-79.974084,40.3848],[-79.974131,40.384866],[-79.974263,40.385054],[-79.974433,40.3853],[-79.975349,40.386626],[-79.975759,40.38722],[-79.975662,40.387508],[-79.975598,40.387692],[-79.975416,40.388288],[-79.975265,40.388333],[-79.975178,40.38835],[-79.974919,40.388403],[-79.974833,40.388421],[-79.974577,40.388465],[-79.973812,40.388598],[-79.973557,40.388643],[-79.973163,40.388712],[-79.973086,40.388725],[-79.97312,40.389221],[-79.973125,40.389281],[-79.973144,40.389471],[-79.973201,40.390083],[-79.973169,40.390093],[-79.973185,40.390243],[-79.973233,40.390696],[-79.973249,40.390848],[-79.973301,40.391047],[-79.973459,40.391647],[-79.973512,40.391847],[-79.973526,40.391941],[-79.973568,40.392207],[-79.973038,40.392471],[-79.973051,40.392492],[-79.973075,40.392531],[-79.973229,40.392786],[-79.973324,40.39278],[-79.973641,40.39276],[-79.973734,40.393003],[-79.973882,40.393383],[-79.973906,40.393441],[-79.974131,40.393404],[-79.974145,40.393401],[-79.974189,40.393394],[-79.974204,40.393392],[-79.974559,40.393332],[-79.975125,40.393237],[-79.975626,40.393156],[-79.975791,40.39313],[-79.976258,40.393905],[-79.97666,40.394573],[-79.977408,40.395813],[-79.977624,40.396172],[-79.977991,40.396769],[-79.978112,40.396978],[-79.979032,40.398463],[-79.979398,40.399052],[-79.979518,40.399209],[-79.979742,40.39947],[-79.979779,40.399546],[-79.979787,40.399563],[-79.97987,40.399749],[-79.979905,40.399852],[-79.979939,40.399951],[-79.979998,40.400222],[-79.98,40.400269],[-79.980009,40.400445],[-79.979997,40.400703],[-79.979966,40.400857],[-79.979915,40.401022],[-79.979842,40.401219],[-79.979813,40.401302],[-79.979703,40.401482],[-79.979687,40.401503],[-79.97958,40.401645],[-79.979492,40.401742],[-79.979453,40.401786],[-79.979308,40.401948],[-79.979079,40.402132],[-79.97882,40.402323],[-79.978397,40.402623],[-79.977891,40.402981],[-79.977414,40.40332],[-79.977242,40.403441],[-79.976768,40.403778],[-79.976728,40.403805],[-79.976558,40.403928],[-79.976299,40.403958],[-79.9761,40.404011],[-79.975949,40.404042],[-79.975875,40.404204],[-79.975692,40.404299],[-79.975569,40.404357],[-79.975311,40.404504],[-79.97485,40.404641],[-79.974501,40.404694],[-79.973966,40.404763],[-79.973721,40.404803],[-79.973305,40.40485],[-79.973138,40.404877],[-79.972951,40.404862],[-79.972819,40.40482],[-79.972609,40.404819],[-79.972228,40.405025],[-79.969315,40.405487],[-79.969212,40.405529],[-79.969018,40.405608],[-79.968937,40.405637],[-79.968893,40.405653],[-79.967728,40.406308],[-79.966458,40.407023],[-79.965215,40.407981],[-79.965223,40.408048],[-79.965231,40.40809],[-79.965217,40.408101],[-79.965262,40.408336],[-79.964422,40.409184],[-79.964402,40.409195],[-79.96422,40.40929],[-79.964154,40.409325],[-79.963773,40.40951],[-79.963587,40.409488],[-79.96357,40.409493],[-79.962833,40.409679],[-79.962817,40.40968],[-79.962615,40.409687],[-79.962546,40.409687],[-79.962174,40.409686],[-79.962004,40.409684],[-79.961542,40.409739],[-79.961497,40.409746],[-79.9613,40.40978],[-79.961235,40.40979],[-79.960823,40.409814],[-79.960552,40.40983],[-79.960145,40.409923],[-79.959926,40.409925],[-79.959871,40.409926],[-79.959696,40.409914],[-79.959577,40.409833],[-79.959493,40.409759],[-79.959441,40.409762],[-79.9594,40.409764],[-79.959058,40.409786],[-79.958776,40.409856],[-79.958526,40.409919],[-79.958295,40.409977],[-79.958165,40.410076],[-79.957897,40.410281],[-79.957814,40.410345],[-79.957267,40.410564],[-79.956785,40.410638],[-79.956731,40.410639],[-79.956663,40.41064],[-79.956369,40.410639],[-79.956274,40.410604],[-79.956178,40.410565],[-79.956079,40.410519],[-79.955979,40.410475],[-79.95594,40.410479],[-79.95588,40.410485],[-79.955861,40.410487],[-79.955709,40.41052],[-79.955671,40.410529],[-79.955393,40.41054],[-79.955331,40.410543],[-79.955101,40.410554],[-79.954669,40.410577],[-79.954529,40.410584],[-79.954043,40.410611],[-79.952958,40.410667],[-79.952839,40.410041],[-79.952616,40.408862],[-79.952204,40.407253],[-79.951624,40.405375],[-79.950852,40.403759],[-79.950028,40.402568],[-79.949918,40.402409],[-79.949024,40.401314],[-79.948138,40.40043],[-79.947699,40.400076],[-79.947461,40.399886],[-79.947377,40.399815],[-79.947237,40.399703],[-79.946808,40.39936],[-79.946681,40.399273],[-79.945503,40.39847],[-79.943944,40.397783],[-79.94375,40.397719],[-79.942593,40.397336],[-79.9419,40.397242],[-79.941112,40.397135],[-79.940475,40.397098],[-79.9393,40.397029],[-79.938639,40.396998],[-79.938343,40.396986],[-79.937761,40.396958],[-79.937732,40.396794],[-79.937634,40.396248],[-79.937561,40.395835],[-79.937499,40.39567],[-79.937387,40.395512],[-79.937262,40.395403],[-79.937115,40.395275],[-79.93699,40.395225],[-79.93694,40.395211],[-79.936716,40.395169],[-79.937029,40.395149],[-79.938796,40.395034],[-79.938725,40.394821],[-79.938659,40.394626],[-79.938597,40.394464],[-79.938589,40.394414],[-79.938536,40.39421],[-79.938508,40.394145],[-79.938188,40.393087],[-79.938159,40.392988],[-79.94001,40.393373],[-79.943873,40.394176],[-79.943925,40.3942],[-79.944393,40.394412],[-79.944929,40.394719],[-79.945311,40.394937],[-79.945081,40.395237],[-79.944936,40.395425],[-79.946081,40.395913],[-79.947361,40.396939],[-79.947382,40.396922],[-79.94763,40.397125],[-79.947616,40.397137],[-79.9484,40.397748],[-79.948382,40.397766],[-79.948888,40.398188],[-79.948988,40.398269],[-79.950611,40.399626],[-79.950584,40.399639],[-79.951014,40.400192],[-79.951056,40.400246],[-79.951151,40.400203],[-79.95152,40.400037],[-79.951696,40.400259],[-79.952843,40.401713],[-79.952558,40.402192],[-79.952625,40.402281],[-79.952924,40.402678],[-79.953204,40.402526],[-79.953291,40.402731],[-79.953495,40.403213],[-79.953291,40.403266],[-79.953737,40.40425],[-79.953855,40.404509],[-79.954923,40.406853],[-79.956035,40.406625],[-79.955974,40.406895],[-79.956286,40.407196],[-79.956628,40.407782],[-79.956647,40.408237],[-79.956115,40.409124],[-79.956206,40.40944],[-79.956138,40.41029],[-79.956134,40.410317],[-79.956585,40.410354],[-79.958059,40.409995],[-79.958723,40.409832],[-79.959051,40.409748],[-79.95907,40.409146],[-79.959073,40.409069],[-79.959107,40.409068],[-79.959295,40.409065],[-79.959316,40.408763],[-79.959314,40.408735],[-79.959954,40.408758],[-79.960101,40.408763],[-79.960139,40.408636],[-79.960275,40.40818],[-79.960396,40.407769],[-79.960492,40.407779],[-79.960552,40.407754],[-79.960912,40.407569],[-79.961357,40.408087],[-79.96223,40.408163],[-79.962922,40.407926],[-79.963033,40.407889],[-79.963566,40.408803],[-79.963887,40.408745],[-79.964443,40.408327],[-79.96505,40.407868],[-79.96589,40.407238],[-79.967178,40.406483],[-79.969064,40.405378],[-79.969506,40.40507],[-79.970109,40.404764],[-79.970739,40.403473],[-79.970964,40.403431],[-79.970929,40.403365],[-79.970874,40.403262],[-79.970837,40.402874],[-79.970868,40.402819],[-79.969907,40.40157],[-79.969506,40.401057],[-79.969187,40.400642],[-79.969057,40.400476],[-79.967346,40.400163],[-79.96624,40.39996],[-79.964798,40.399695],[-79.964642,40.3997],[-79.963907,40.399723],[-79.963588,40.398679],[-79.963479,40.398333],[-79.963454,40.398322],[-79.963397,40.398304],[-79.963218,40.398224],[-79.962992,40.398076],[-79.962882,40.398028],[-79.962781,40.397996],[-79.962676,40.397972],[-79.962568,40.397954],[-79.961878,40.397878],[-79.9618,40.397874],[-79.961517,40.39786],[-79.961288,40.397855],[-79.96106,40.397836],[-79.960758,40.397782],[-79.960415,40.397733],[-79.960137,40.397684],[-79.959825,40.397624],[-79.959515,40.397564],[-79.959799,40.396213],[-79.959927,40.395606],[-79.958049,40.395398],[-79.957956,40.393762],[-79.95792,40.393164],[-79.957742,40.389986],[-79.95774,40.389954],[-79.957738,40.389922],[-79.957643,40.389917],[-79.957198,40.389903],[-79.956012,40.389866],[-79.954923,40.389829],[-79.954705,40.389897],[-79.954494,40.389961],[-79.954356,40.389987],[-79.954278,40.390052],[-79.95421,40.390111],[-79.954104,40.390152],[-79.954026,40.390168],[-79.953898,40.390175],[-79.953546,40.390174],[-79.953494,40.390172],[-79.953223,40.390166],[-79.952995,40.390161],[-79.952805,40.390165],[-79.952676,40.390169],[-79.952439,40.390191],[-79.952192,40.390233],[-79.951873,40.390301],[-79.951643,40.390362],[-79.951573,40.390382],[-79.951172,40.390498],[-79.950916,40.390573],[-79.950611,40.390664],[-79.95015,40.390795],[-79.950102,40.390809],[-79.949963,40.390832],[-79.949902,40.390835],[-79.949888,40.390834],[-79.949777,40.390824],[-79.949696,40.390804],[-79.949525,40.390734],[-79.949522,40.390787],[-79.949515,40.390956],[-79.949515,40.390975],[-79.949506,40.391226],[-79.949505,40.391248],[-79.949157,40.391237],[-79.949166,40.390814],[-79.94917,40.390685],[-79.949205,40.390599],[-79.949191,40.390594],[-79.947285,40.390057],[-79.947076,40.390179],[-79.946947,40.390185],[-79.946343,40.390276],[-79.945627,40.390242],[-79.945174,40.390262],[-79.944398,40.390185],[-79.944388,40.390165],[-79.943844,40.389039],[-79.94365,40.389109],[-79.943394,40.388963],[-79.942096,40.388222],[-79.940525,40.388376],[-79.936534,40.388772],[-79.936127,40.388808],[-79.936032,40.388156],[-79.935788,40.386477],[-79.935516,40.384582],[-79.935479,40.384309],[-79.935416,40.383839],[-79.935401,40.383728],[-79.935387,40.383621],[-79.935406,40.383481],[-79.935533,40.382509],[-79.935509,40.382157],[-79.935474,40.381645],[-79.935474,40.381576],[-79.935476,40.380958],[-79.935724,40.380877],[-79.935768,40.380863],[-79.936451,40.38067],[-79.938281,40.380168],[-79.938715,40.380115],[-79.939331,40.380041],[-79.941324,40.379807],[-79.941405,40.379798],[-79.941431,40.379795],[-79.941503,40.379787],[-79.942478,40.379685],[-79.942538,40.379678],[-79.94284,40.379384],[-79.942892,40.379333],[-79.943155,40.379492],[-79.944001,40.378643],[-79.944063,40.378582],[-79.943335,40.378165],[-79.945503,40.376087],[-79.9452,40.375901],[-79.94516,40.375878],[-79.943669,40.374973],[-79.943633,40.375022],[-79.942737,40.375973],[-79.941923,40.375471],[-79.941716,40.375344],[-79.941435,40.375171],[-79.941403,40.375152],[-79.941314,40.375096],[-79.941045,40.37493],[-79.940924,40.374861],[-79.940875,40.374825],[-79.940724,40.374733],[-79.940654,40.37469],[-79.940628,40.374674],[-79.940455,40.374568],[-79.939442,40.373949],[-79.938103,40.374077],[-79.932104,40.374544],[-79.931558,40.374589],[-79.931182,40.374621],[-79.929054,40.374798],[-79.928959,40.374806],[-79.928869,40.374814],[-79.927215,40.374952],[-79.926864,40.374982],[-79.92658,40.375007],[-79.926522,40.375009],[-79.924985,40.375099],[-79.924685,40.37307],[-79.924397,40.372486],[-79.924206,40.372097],[-79.923762,40.371192],[-79.923441,40.37054],[-79.923321,40.37056],[-79.923299,40.370564],[-79.922363,40.37072],[-79.92238,40.370221],[-79.922355,40.369763],[-79.922353,40.369715],[-79.922352,40.369691],[-79.922311,40.369001],[-79.922305,40.368928],[-79.922288,40.368641],[-79.922113,40.368299],[-79.922077,40.368225],[-79.922046,40.368164],[-79.921865,40.367808],[-79.92171,40.367495],[-79.921694,40.367461],[-79.921663,40.367396],[-79.92149,40.367061],[-79.921477,40.367032],[-79.921466,40.367009],[-79.921456,40.366991],[-79.921308,40.366697],[-79.921269,40.366617],[-79.921257,40.366591],[-79.921092,40.366263],[-79.921066,40.366204],[-79.920873,40.365821],[-79.920835,40.365755],[-79.920692,40.36546],[-79.920679,40.365428],[-79.920668,40.365369],[-79.920298,40.365388],[-79.919774,40.365416],[-79.919189,40.365429],[-79.919037,40.365433],[-79.91882,40.365448],[-79.918557,40.365461],[-79.918455,40.365467],[-79.917769,40.365478],[-79.917702,40.36548],[-79.917507,40.365482],[-79.917361,40.365482],[-79.917106,40.365484],[-79.915903,40.365494],[-79.915679,40.365496],[-79.915503,40.365502],[-79.915392,40.365502],[-79.915061,40.365503],[-79.914951,40.365504],[-79.914827,40.365505],[-79.914458,40.365509],[-79.914335,40.365511],[-79.914214,40.365512],[-79.913853,40.365515],[-79.913834,40.365516],[-79.913733,40.365522],[-79.913667,40.365367],[-79.913448,40.364915],[-79.913375,40.364765],[-79.913316,40.364644],[-79.91285,40.364759],[-79.912832,40.364766],[-79.912805,40.364771],[-79.912788,40.364776],[-79.912759,40.364782],[-79.91222,40.36493],[-79.912057,40.364973],[-79.911901,40.365016],[-79.911844,40.364951],[-79.911763,40.364834],[-79.911345,40.364177],[-79.911295,40.36408],[-79.911219,40.363905],[-79.911182,40.363819],[-79.911054,40.363475],[-79.911006,40.363351],[-79.910921,40.363129],[-79.910868,40.362981],[-79.910824,40.362857],[-79.91059,40.362925],[-79.909889,40.363131],[-79.909783,40.363163],[-79.909656,40.363199],[-79.909456,40.363256],[-79.908856,40.363429],[-79.908715,40.363471],[-79.908672,40.363513],[-79.908632,40.363466],[-79.908211,40.36358],[-79.907617,40.362389],[-79.907441,40.362036],[-79.907184,40.361522],[-79.907011,40.361595],[-79.905991,40.362021],[-79.905961,40.362042],[-79.905911,40.362076],[-79.905645,40.362104],[-79.90524,40.362147],[-79.904947,40.362173],[-79.904967,40.362219],[-79.90502,40.362338],[-79.905255,40.362869],[-79.905122,40.36293],[-79.905029,40.362974],[-79.904743,40.363107],[-79.904281,40.363331],[-79.903526,40.363698],[-79.901935,40.36447],[-79.901754,40.364557],[-79.901119,40.364865],[-79.900833,40.365004],[-79.900298,40.365263],[-79.90035,40.365378],[-79.900814,40.366411],[-79.90132,40.367521],[-79.903441,40.371897],[-79.903945,40.37176],[-79.906732,40.37097],[-79.908543,40.37046],[-79.908607,40.370531],[-79.908811,40.370677],[-79.908833,40.370689],[-79.908897,40.370734],[-79.909509,40.371164],[-79.910935,40.372165],[-79.911737,40.372767],[-79.911806,40.372803],[-79.911821,40.372813],[-79.911453,40.373251],[-79.910908,40.373987],[-79.91078,40.374154],[-79.910384,40.374676],[-79.909849,40.375378],[-79.909234,40.37619],[-79.908847,40.3767],[-79.908919,40.37673],[-79.909234,40.376859],[-79.909339,40.376903],[-79.909165,40.377128],[-79.908672,40.377772],[-79.908644,40.377803],[-79.908458,40.378018],[-79.908389,40.37811],[-79.90835,40.378161],[-79.908488,40.37819],[-79.908916,40.37827],[-79.909195,40.378317],[-79.909547,40.378379],[-79.909622,40.378393],[-79.910272,40.37855],[-79.910296,40.378554],[-79.910401,40.378447],[-79.91048,40.378383],[-79.910537,40.378596],[-79.910661,40.378707],[-79.910682,40.378723],[-79.910693,40.378736],[-79.910941,40.378992],[-79.911133,40.379186],[-79.911237,40.379314],[-79.911348,40.379467],[-79.911397,40.37955],[-79.911475,40.379579],[-79.911487,40.379584],[-79.911692,40.380549],[-79.912043,40.380629],[-79.912936,40.380868],[-79.913107,40.380902],[-79.913308,40.380942],[-79.913456,40.380947],[-79.913531,40.38095],[-79.913756,40.380932],[-79.913982,40.380886],[-79.914311,40.380777],[-79.914481,40.380714],[-79.914813,40.380592],[-79.914985,40.380534],[-79.915125,40.380488],[-79.915463,40.380365],[-79.9155,40.38035],[-79.915671,40.380285],[-79.915774,40.380249],[-79.916086,40.38014],[-79.916191,40.380105],[-79.916244,40.380087],[-79.916634,40.380639],[-79.916715,40.380754],[-79.917317,40.381605],[-79.916843,40.381804],[-79.916087,40.382121],[-79.91639,40.382663],[-79.916973,40.383732],[-79.917098,40.38396],[-79.917403,40.384518],[-79.917294,40.384609],[-79.917166,40.384717],[-79.917196,40.384882],[-79.917284,40.385334],[-79.917314,40.385524],[-79.917347,40.38573],[-79.917389,40.385977],[-79.917396,40.386015],[-79.917479,40.386407],[-79.917504,40.386537],[-79.917543,40.386737],[-79.917654,40.387349],[-79.917668,40.387409],[-79.917869,40.388041],[-79.91793,40.388078],[-79.918469,40.388483],[-79.91769,40.389551],[-79.917452,40.389876],[-79.916788,40.390786],[-79.916953,40.390858],[-79.917094,40.390921],[-79.916725,40.391461],[-79.916691,40.39151],[-79.916373,40.391371],[-79.915923,40.392001],[-79.91568,40.392342],[-79.915464,40.392644],[-79.915406,40.392723],[-79.915394,40.392739],[-79.914903,40.393398],[-79.916777,40.393893],[-79.916915,40.393929],[-79.916523,40.39427],[-79.91613,40.394604],[-79.915145,40.395434],[-79.913704,40.396648],[-79.913309,40.39698],[-79.915004,40.397975],[-79.915656,40.39836],[-79.915853,40.398476],[-79.915962,40.39854],[-79.916183,40.398668],[-79.916255,40.398708],[-79.916403,40.398792],[-79.916601,40.398615],[-79.917452,40.398979],[-79.918152,40.399274],[-79.918247,40.399314],[-79.920631,40.397278],[-79.921561,40.39649],[-79.922145,40.396005],[-79.922575,40.395656],[-79.92329,40.395071],[-79.923489,40.39491],[-79.9236,40.394816],[-79.924551,40.394009],[-79.924633,40.393938],[-79.925015,40.393614],[-79.925961,40.392811],[-79.926127,40.392671],[-79.926316,40.392521],[-79.92656,40.392309],[-79.926737,40.392171],[-79.927858,40.391223],[-79.928011,40.391093],[-79.929307,40.390007],[-79.929339,40.389981],[-79.929542,40.389801],[-79.929622,40.389739],[-79.929704,40.389753],[-79.931233,40.39076],[-79.931483,40.390925],[-79.931659,40.391048],[-79.931875,40.391177],[-79.93236,40.391507],[-79.9324,40.391886],[-79.932423,40.39214],[-79.932491,40.392878],[-79.932498,40.392949],[-79.932557,40.39356],[-79.932564,40.393636],[-79.932622,40.394221],[-79.932681,40.39482],[-79.932686,40.394867],[-79.932701,40.394999],[-79.932811,40.39593],[-79.932814,40.395949],[-79.93282,40.395995],[-79.932885,40.396543],[-79.932905,40.396732],[-79.932911,40.396785],[-79.932974,40.397325],[-79.932982,40.397396],[-79.932994,40.397499],[-79.933011,40.397639],[-79.932789,40.397719],[-79.932203,40.397933],[-79.931568,40.398168],[-79.931385,40.398254],[-79.931053,40.398402],[-79.930857,40.39849],[-79.92916,40.399264],[-79.928262,40.400041],[-79.927228,40.400934],[-79.926246,40.40207],[-79.925535,40.402892],[-79.924718,40.40378],[-79.92406,40.404495],[-79.923567,40.405127],[-79.922447,40.406567],[-79.922106,40.407019],[-79.921201,40.408224],[-79.921115,40.408306],[-79.920311,40.409084],[-79.919603,40.409774],[-79.918758,40.410604],[-79.918575,40.410765],[-79.917273,40.411916],[-79.916933,40.412156],[-79.915406,40.413234],[-79.914974,40.413449],[-79.914325,40.41377],[-79.914313,40.413777],[-79.913889,40.413987],[-79.913317,40.414248],[-79.912866,40.414394],[-79.911753,40.414754],[-79.911467,40.414846],[-79.910957,40.41501],[-79.907994,40.415474],[-79.907299,40.41556],[-79.90705,40.415593],[-79.905975,40.415715],[-79.90312,40.415915],[-79.901947,40.415894],[-79.901515,40.415887],[-79.900302,40.415626],[-79.899939,40.415548],[-79.899626,40.415458],[-79.899275,40.417064],[-79.89912,40.417748],[-79.898875,40.418858],[-79.89878,40.419285],[-79.898739,40.419504],[-79.898618,40.42016],[-79.898578,40.42038],[-79.898424,40.42137],[-79.898409,40.421444],[-79.898229,40.422338],[-79.898215,40.422398],[-79.898174,40.422595],[-79.898161,40.422669],[-79.898048,40.423219],[-79.897956,40.42367],[-79.897931,40.423785],[-79.897892,40.423985],[-79.897821,40.424342],[-79.897743,40.424735],[-79.897701,40.42496],[-79.897494,40.42594],[-79.897341,40.425996],[-79.897339,40.426007],[-79.897206,40.426068],[-79.896752,40.426269],[-79.896715,40.426468],[-79.896484,40.426379],[-79.896296,40.426315],[-79.896124,40.426264],[-79.895712,40.426162],[-79.895461,40.4261],[-79.895249,40.426048],[-79.895073,40.425928],[-79.894934,40.425834],[-79.894697,40.425672],[-79.894197,40.425562],[-79.893477,40.42564],[-79.893333,40.425682],[-79.89213,40.426278],[-79.892088,40.426299],[-79.891883,40.42647],[-79.891009,40.427205],[-79.891013,40.427231],[-79.891015,40.427249],[-79.891021,40.427259],[-79.891058,40.427321],[-79.891102,40.427359],[-79.891146,40.427397],[-79.891465,40.427563],[-79.891774,40.427706],[-79.892029,40.427824],[-79.892183,40.427896],[-79.892273,40.427934],[-79.892331,40.42798],[-79.892295,40.428041],[-79.892309,40.428057],[-79.892316,40.428065],[-79.892881,40.428273],[-79.893045,40.428026],[-79.893094,40.42795],[-79.893733,40.426987],[-79.893765,40.42693],[-79.89383,40.426939],[-79.894254,40.427023],[-79.894717,40.427653],[-79.894849,40.427834],[-79.895099,40.428174],[-79.896632,40.427519],[-79.897114,40.427617],[-79.897086,40.427793],[-79.897066,40.427921],[-79.897032,40.42814],[-79.897015,40.428247],[-79.896931,40.428678],[-79.896905,40.428807],[-79.896901,40.428831],[-79.89688,40.428941],[-79.896799,40.429356],[-79.896765,40.429529],[-79.89674,40.429661],[-79.896646,40.430143],[-79.896631,40.430213],[-79.8966,40.430353],[-79.896482,40.430881],[-79.896331,40.431556],[-79.896247,40.431933],[-79.896181,40.432227],[-79.896033,40.432896],[-79.895882,40.433574],[-79.895811,40.433866],[-79.895734,40.434233],[-79.895571,40.43497],[-79.895398,40.435896],[-79.89538,40.435988],[-79.895227,40.436811],[-79.895214,40.436883],[-79.895145,40.4372],[-79.895071,40.437548],[-79.895041,40.437676],[-79.895042,40.437693],[-79.89503,40.437754],[-79.894867,40.438542],[-79.894845,40.438655],[-79.894882,40.438727],[-79.894889,40.438751],[-79.89491,40.438825],[-79.894918,40.43885],[-79.894895,40.438943],[-79.89483,40.439223],[-79.894809,40.439317],[-79.894783,40.439421],[-79.894709,40.439734],[-79.894685,40.439839],[-79.894652,40.439973],[-79.894557,40.440378],[-79.894525,40.440513],[-79.894493,40.440646],[-79.894397,40.441049],[-79.894366,40.441183],[-79.894347,40.441261],[-79.894339,40.441298],[-79.894282,40.441492],[-79.89426,40.44157],[-79.894245,40.441618],[-79.894234,40.441646],[-79.894175,40.441924],[-79.894172,40.441937],[-79.894088,40.442324],[-79.894008,40.442697],[-79.894002,40.442726],[-79.893926,40.443074],[-79.893844,40.443453],[-79.893785,40.443731],[-79.893754,40.443845],[-79.893587,40.444597],[-79.893581,40.444667],[-79.893431,40.445499],[-79.893341,40.445999],[-79.893245,40.446412],[-79.893228,40.446502],[-79.893166,40.446858],[-79.893151,40.446925],[-79.893024,40.447484],[-79.893018,40.447512],[-79.892999,40.447597],[-79.892805,40.448526],[-79.892791,40.448596],[-79.892692,40.449096],[-79.892648,40.449302],[-79.892516,40.449873],[-79.892498,40.44998],[-79.892462,40.450127],[-79.892426,40.450274],[-79.892375,40.45026],[-79.892041,40.450185],[-79.891771,40.450106],[-79.891157,40.449829],[-79.891076,40.449787],[-79.890447,40.449467],[-79.889819,40.449059],[-79.889245,40.448549],[-79.889008,40.448338],[-79.888732,40.448069],[-79.88855,40.447852],[-79.888409,40.447781],[-79.888369,40.447743],[-79.888321,40.447723],[-79.888187,40.447667],[-79.887736,40.447517],[-79.886383,40.447067],[-79.886146,40.446989],[-79.885933,40.446915],[-79.885904,40.446966],[-79.885887,40.446995],[-79.885748,40.447236],[-79.885703,40.447317],[-79.885658,40.447395],[-79.885583,40.447527],[-79.885516,40.447627],[-79.885467,40.447703],[-79.885425,40.447784],[-79.885371,40.447894],[-79.885325,40.447985],[-79.8853,40.448028],[-79.885255,40.448108],[-79.88521,40.448186],[-79.885077,40.44842],[-79.885033,40.448499],[-79.884942,40.448661],[-79.884831,40.448857],[-79.884669,40.449148],[-79.884579,40.449311],[-79.884481,40.449279],[-79.884187,40.449183],[-79.88409,40.449152],[-79.884078,40.449106],[-79.884043,40.448971],[-79.884032,40.448926],[-79.883904,40.448948],[-79.883571,40.449007],[-79.883521,40.449017],[-79.883395,40.449046],[-79.88331,40.449059],[-79.883164,40.449083],[-79.88306,40.449113],[-79.882978,40.449137],[-79.882902,40.449159],[-79.882862,40.449161],[-79.882744,40.449167],[-79.882705,40.44917],[-79.882601,40.449175],[-79.882291,40.449191],[-79.882188,40.449197],[-79.882073,40.449234],[-79.881731,40.449348],[-79.881617,40.449387],[-79.881595,40.44936],[-79.881551,40.449335],[-79.881537,40.449327],[-79.881475,40.449318],[-79.881302,40.449346],[-79.881219,40.44936],[-79.881044,40.449393],[-79.880684,40.449466],[-79.88048,40.449516],[-79.880417,40.449531],[-79.880312,40.449556],[-79.880135,40.4496],[-79.879996,40.449626],[-79.87989,40.449646],[-79.879808,40.449661],[-79.879565,40.449705],[-79.879484,40.449721],[-79.879438,40.449729],[-79.879303,40.449755],[-79.879258,40.449764],[-79.879032,40.449806],[-79.87858,40.449891],[-79.878315,40.44993],[-79.877955,40.449892],[-79.877695,40.449866],[-79.877131,40.449811],[-79.876577,40.449756],[-79.876486,40.449748],[-79.874502,40.449546],[-79.87423,40.449519],[-79.874146,40.44951],[-79.873951,40.449493],[-79.873155,40.449421],[-79.872688,40.449375],[-79.872616,40.449383],[-79.871684,40.449395],[-79.87124,40.449396],[-79.870938,40.449396],[-79.870891,40.449396],[-79.870091,40.449396],[-79.869836,40.449397],[-79.869043,40.449397],[-79.868284,40.449406],[-79.867564,40.449397],[-79.867143,40.4494],[-79.866954,40.450306],[-79.866898,40.450576],[-79.866854,40.450784],[-79.866737,40.451349],[-79.866633,40.452085],[-79.86648,40.452774],[-79.866264,40.453713],[-79.865979,40.455105],[-79.865846,40.455753],[-79.868281,40.456359],[-79.871469,40.457151],[-79.87193,40.457269],[-79.872358,40.457369],[-79.872566,40.457436],[-79.872647,40.457463],[-79.872611,40.457538],[-79.872559,40.457651],[-79.872265,40.457886],[-79.87201,40.458091],[-79.871998,40.458098],[-79.871623,40.458397],[-79.87163,40.458715],[-79.871668,40.460134],[-79.871698,40.460573],[-79.870635,40.46076],[-79.870259,40.4607],[-79.870152,40.460683],[-79.869225,40.460534],[-79.869197,40.46064],[-79.869105,40.460981],[-79.869131,40.460986],[-79.869509,40.461054],[-79.869658,40.461081],[-79.869913,40.461127],[-79.870108,40.461155],[-79.870259,40.461178],[-79.870557,40.461196],[-79.870576,40.461198],[-79.870889,40.461181],[-79.871096,40.461162],[-79.871381,40.461116],[-79.871449,40.461102],[-79.871541,40.461085],[-79.871742,40.461038],[-79.871952,40.460989],[-79.87204,40.460963],[-79.872287,40.460892],[-79.872437,40.460843],[-79.872663,40.460744],[-79.872881,40.460626],[-79.872893,40.460616],[-79.873143,40.460435],[-79.873291,40.460311],[-79.873529,40.460115],[-79.873743,40.459947],[-79.873781,40.459918],[-79.873889,40.459821],[-79.874151,40.459587],[-79.874482,40.459293],[-79.874507,40.459271],[-79.875347,40.459799],[-79.875213,40.459913],[-79.875275,40.459953],[-79.875354,40.459956],[-79.875556,40.459961],[-79.875647,40.459963],[-79.875626,40.460339],[-79.875616,40.460535],[-79.875614,40.460566],[-79.875611,40.460662],[-79.87561,40.460694],[-79.875604,40.460849],[-79.875601,40.460876],[-79.875555,40.461367],[-79.875548,40.461423],[-79.875534,40.461557],[-79.876905,40.461615],[-79.876585,40.460662],[-79.876502,40.46044],[-79.87648,40.460322],[-79.876298,40.459709],[-79.877402,40.459838],[-79.877418,40.459793],[-79.877481,40.459453],[-79.877496,40.459416],[-79.877284,40.459392],[-79.877342,40.459034],[-79.877369,40.458968],[-79.877778,40.459016],[-79.878087,40.459053],[-79.878283,40.459076],[-79.878872,40.459145],[-79.878974,40.459158],[-79.879069,40.459159],[-79.879103,40.459159],[-79.879209,40.459159],[-79.879244,40.45916],[-79.879317,40.45912],[-79.879685,40.459215],[-79.880657,40.459469],[-79.881381,40.459656],[-79.88155,40.4597],[-79.881944,40.459803],[-79.882952,40.46007],[-79.88302,40.460087],[-79.883588,40.46023],[-79.884128,40.460366],[-79.884232,40.460391],[-79.884784,40.460525],[-79.884864,40.460551],[-79.885192,40.460628],[-79.885723,40.460754],[-79.886206,40.460867],[-79.88658,40.460955],[-79.887342,40.461135],[-79.888074,40.461325],[-79.888126,40.461339],[-79.888505,40.461438],[-79.888588,40.46146],[-79.889693,40.461759],[-79.889995,40.461837],[-79.89,40.461877],[-79.889971,40.462049],[-79.889977,40.462116],[-79.88959,40.463894],[-79.889518,40.464227],[-79.889339,40.465117],[-79.88934,40.465136],[-79.889289,40.465381],[-79.88913,40.46612],[-79.889107,40.466227],[-79.889047,40.466502],[-79.889005,40.466703],[-79.888836,40.467531],[-79.888752,40.4679],[-79.888615,40.468514],[-79.888467,40.469202],[-79.888453,40.469268],[-79.888303,40.469968],[-79.888286,40.470045],[-79.88814,40.470851],[-79.888008,40.471581],[-79.887938,40.47197],[-79.887873,40.47233],[-79.887789,40.472792],[-79.887738,40.473075],[-79.887725,40.47315],[-79.887589,40.473745],[-79.887492,40.474164],[-79.887115,40.475801],[-79.887084,40.475928],[-79.886924,40.47663],[-79.886905,40.476763],[-79.886879,40.476826],[-79.886862,40.476899],[-79.886564,40.478192],[-79.885364,40.4786],[-79.884986,40.478821],[-79.884668,40.47932],[-79.884495,40.480078],[-79.884363,40.480501],[-79.884226,40.481131],[-79.884168,40.481405],[-79.88416,40.481443],[-79.884119,40.481637],[-79.884036,40.482033],[-79.883971,40.482338],[-79.88381,40.48322],[-79.883854,40.483217],[-79.883918,40.483222],[-79.884475,40.483282],[-79.888216,40.48369],[-79.888203,40.483956],[-79.88814,40.48501],[-79.888114,40.485184],[-79.888114,40.485205],[-79.888165,40.486201],[-79.888178,40.486448],[-79.888042,40.486455],[-79.887783,40.486469],[-79.887109,40.486509],[-79.886333,40.486571],[-79.885363,40.486686],[-79.884559,40.486782],[-79.884566,40.486893],[-79.884587,40.487226],[-79.884595,40.487337],[-79.884592,40.487492],[-79.884611,40.487758],[-79.884621,40.488383],[-79.884569,40.488659],[-79.884487,40.488957],[-79.884522,40.489218],[-79.88455,40.489345],[-79.884571,40.489623],[-79.884577,40.489827],[-79.884643,40.490004],[-79.884693,40.490183],[-79.884707,40.490302],[-79.884697,40.490402],[-79.884669,40.490469],[-79.884598,40.490559],[-79.884602,40.490752],[-79.884603,40.49079],[-79.884607,40.49093],[-79.884666,40.490932],[-79.884808,40.49094],[-79.884845,40.490942],[-79.884905,40.490947],[-79.885353,40.490978],[-79.886436,40.491069],[-79.886975,40.491123],[-79.887243,40.491159],[-79.887511,40.4912],[-79.888854,40.491391],[-79.889835,40.491535],[-79.890338,40.491609],[-79.89126,40.491744],[-79.893802,40.492113],[-79.894244,40.49218],[-79.894843,40.492272],[-79.895431,40.49237],[-79.895885,40.49244],[-79.896089,40.492475],[-79.896858,40.492611],[-79.896915,40.492622],[-79.89692,40.492562],[-79.896927,40.492498],[-79.896878,40.492488],[-79.896936,40.492411],[-79.896945,40.492335],[-79.896947,40.492309],[-79.896953,40.49225],[-79.89696,40.491978],[-79.896962,40.491916],[-79.896967,40.491834],[-79.896967,40.491822],[-79.896967,40.491786],[-79.896968,40.491775],[-79.896964,40.491743],[-79.897002,40.491494],[-79.897134,40.490654],[-79.897178,40.490375],[-79.897186,40.49033],[-79.897213,40.490198],[-79.897222,40.490154],[-79.897232,40.490096],[-79.897262,40.489923],[-79.897273,40.489866],[-79.897339,40.48947],[-79.897539,40.488283],[-79.897563,40.488142],[-79.897607,40.487887],[-79.897658,40.487902],[-79.897824,40.487945],[-79.897985,40.487988],[-79.898321,40.488081],[-79.898487,40.488127],[-79.898523,40.488146],[-79.898656,40.488181],[-79.899176,40.488319],[-79.89935,40.488366],[-79.899522,40.488413],[-79.90004,40.488557],[-79.900213,40.488605],[-79.900384,40.488652],[-79.900752,40.488754],[-79.900899,40.488796],[-79.901071,40.488846],[-79.901133,40.488862],[-79.901322,40.488912],[-79.901385,40.488929],[-79.901416,40.488937],[-79.901509,40.488961],[-79.901541,40.48897],[-79.901558,40.488974],[-79.901611,40.488988],[-79.901629,40.488993],[-79.901626,40.488951],[-79.901618,40.488825],[-79.901616,40.488783],[-79.901613,40.488747],[-79.90161,40.488639],[-79.90161,40.488604],[-79.901604,40.488375],[-79.901504,40.487746],[-79.901491,40.487485],[-79.901427,40.486197],[-79.901407,40.485798],[-79.901682,40.485863],[-79.904626,40.486562],[-79.905357,40.486734],[-79.9055,40.486768],[-79.906577,40.487024],[-79.906926,40.487106],[-79.907355,40.487208],[-79.907477,40.487237],[-79.907514,40.487245],[-79.910697,40.487908],[-79.912315,40.488245],[-79.912486,40.488281],[-79.912588,40.488302],[-79.915018,40.488808],[-79.915185,40.488843],[-79.917252,40.489266],[-79.91773,40.489365],[-79.91798,40.489416],[-79.918467,40.489516],[-79.918752,40.489574],[-79.919244,40.489676],[-79.921039,40.490044],[-79.92159,40.490203],[-79.922193,40.490376],[-79.922546,40.490477],[-79.92357,40.490725],[-79.924943,40.490989],[-79.925047,40.491007],[-79.926588,40.491273],[-79.927925,40.491546],[-79.929443,40.491635],[-79.932183,40.491697],[-79.932964,40.491655],[-79.93399,40.491601],[-79.934341,40.491578],[-79.935575,40.491499],[-79.937116,40.491263],[-79.937759,40.491122],[-79.938015,40.491075],[-79.938083,40.491051],[-79.938358,40.490991],[-79.938382,40.490985],[-79.939383,40.490805],[-79.939557,40.490774],[-79.940914,40.490494],[-79.942203,40.490129],[-79.942869,40.489946],[-79.943478,40.489779],[-79.944672,40.489428],[-79.945969,40.489151],[-79.946343,40.48907],[-79.946661,40.488995],[-79.94762,40.488766],[-79.94784,40.488714],[-79.948963,40.488374],[-79.949333,40.488262],[-79.949783,40.488103],[-79.950093,40.487995],[-79.950824,40.487737],[-79.951057,40.487663],[-79.951273,40.487594],[-79.951796,40.487428],[-79.951932,40.487385],[-79.952827,40.487087],[-79.953198,40.486963],[-79.954322,40.486408],[-79.954768,40.486195],[-79.955354,40.485915],[-79.956172,40.485425],[-79.956397,40.48529],[-79.957469,40.48458],[-79.957754,40.48438],[-79.95777,40.484369],[-79.958571,40.483807],[-79.959514,40.483049],[-79.960658,40.482094],[-79.960693,40.482063],[-79.960812,40.481959],[-79.960881,40.481899],[-79.961812,40.481079],[-79.961924,40.48098],[-79.962537,40.480402],[-79.963,40.479966],[-79.963178,40.479774],[-79.963843,40.479054],[-79.964638,40.478106],[-79.964759,40.477925],[-79.964841,40.477805],[-79.964941,40.477647],[-79.965096,40.477419],[-79.965563,40.476737],[-79.965719,40.47651],[-79.965904,40.47626],[-79.966416,40.475573],[-79.966622,40.475326],[-79.966665,40.475281],[-79.966771,40.475172],[-79.967374,40.474561],[-79.968059,40.473676],[-79.968642,40.472826],[-79.968688,40.472758],[-79.968816,40.47257],[-79.969113,40.472132],[-79.969315,40.471834],[-79.970039,40.471116],[-79.97077,40.470666],[-79.971748,40.470478],[-79.971907,40.470461],[-79.972649,40.470373],[-79.972855,40.470349],[-79.973401,40.470095],[-79.973748,40.469861],[-79.974112,40.469571],[-79.974578,40.469466],[-79.974681,40.469444],[-79.974981,40.469611],[-79.975096,40.469675],[-79.97527,40.469772],[-79.975297,40.469787],[-79.975615,40.469964],[-79.975685,40.470003],[-79.975719,40.470022],[-79.97672,40.47058],[-79.976802,40.470627],[-79.977018,40.470752],[-79.977122,40.470814],[-79.977142,40.470827],[-79.977196,40.470856],[-79.977264,40.470892],[-79.977391,40.470953],[-79.977411,40.470939],[-79.977444,40.470979],[-79.977719,40.471106],[-79.978125,40.471294],[-79.978156,40.471308],[-79.978291,40.471378],[-79.978466,40.471469],[-79.978723,40.471602],[-79.978774,40.471607],[-79.978795,40.471618],[-79.97881,40.471562],[-79.978818,40.471535],[-79.97886,40.471495],[-79.979048,40.471334],[-79.97937,40.471061],[-79.979606,40.470853],[-79.979698,40.470779],[-79.979814,40.470699],[-79.979844,40.470678],[-79.979976,40.470599],[-79.980136,40.470505],[-79.980316,40.470398],[-79.980367,40.470368],[-79.980637,40.470209],[-79.980812,40.470107],[-79.980873,40.470072],[-79.981055,40.469961],[-79.981149,40.469902],[-79.981558,40.469573],[-79.981816,40.469351],[-79.981832,40.469324],[-79.982345,40.468488],[-79.982375,40.46844],[-79.983022,40.46732],[-79.982981,40.467284],[-79.982963,40.467271],[-79.983079,40.467149],[-79.983428,40.466784],[-79.983545,40.466663],[-79.983816,40.466382],[-79.983852,40.466346],[-79.983871,40.46633],[-79.984065,40.466849],[-79.984156,40.467101],[-79.984329,40.467569],[-79.984486,40.468018],[-79.984588,40.46826],[-79.984685,40.468512],[-79.984996,40.469468],[-79.985456,40.470708],[-79.985544,40.470944],[-79.985554,40.470973],[-79.985802,40.471643],[-79.985884,40.471909],[-79.985957,40.47204],[-79.986781,40.47396],[-79.986948,40.474341],[-79.987016,40.4745],[-79.9871,40.474695],[-79.987499,40.475498],[-79.987522,40.475551],[-79.987704,40.475926],[-79.987882,40.476311],[-79.988095,40.476771],[-79.988458,40.476921],[-79.988934,40.477048],[-79.989889,40.477129],[-79.990073,40.477144],[-79.991425,40.477274],[-79.992691,40.477395],[-79.9928,40.477401],[-79.99313,40.477417],[-79.993331,40.477428],[-79.993612,40.477416],[-79.993861,40.477407],[-79.993906,40.477409],[-79.994221,40.477398],[-79.995026,40.477369],[-79.993841,40.476854],[-79.993417,40.476669],[-79.993396,40.476491],[-79.993384,40.476366],[-79.993359,40.47617],[-79.993343,40.475819],[-79.993289,40.4746],[-79.993084,40.47439],[-79.992277,40.473564],[-79.991863,40.473142],[-79.993656,40.473085],[-79.995136,40.473039],[-79.997548,40.47299],[-79.997571,40.473552],[-79.997614,40.474599],[-79.997594,40.474598],[-79.997352,40.474588],[-79.997285,40.474581],[-79.996812,40.474491],[-79.996686,40.474464],[-79.996563,40.474447],[-79.996434,40.474437],[-79.996377,40.474436],[-79.996309,40.474435],[-79.996087,40.474464],[-79.996073,40.474468],[-79.99598,40.474492],[-79.995836,40.474544],[-79.995841,40.474594],[-79.995982,40.47719],[-79.99599,40.47734],[-79.995875,40.477346],[-79.995349,40.477369],[-79.996476,40.479103],[-79.996503,40.479157],[-79.99652,40.479194],[-79.996669,40.479173],[-79.998513,40.478922],[-79.998542,40.478914],[-79.99861,40.479173],[-79.998655,40.479344],[-79.998781,40.479822],[-79.998904,40.479816],[-80.000966,40.480024],[-80.001686,40.48009],[-80.00171,40.480674],[-80.00172,40.480981],[-80.001725,40.481158],[-80.001756,40.482064],[-80.00177,40.482436],[-80.002982,40.482387],[-80.003191,40.482384],[-80.003195,40.482447],[-80.003209,40.482556],[-80.003209,40.482667],[-80.00321,40.482729],[-80.003223,40.482947],[-80.00324,40.483255],[-80.003257,40.483551],[-80.003343,40.485038],[-80.003343,40.485089],[-80.003343,40.485101],[-80.003384,40.485689],[-80.003455,40.486671],[-80.003458,40.486706],[-80.003465,40.486785],[-80.003515,40.487369],[-80.003549,40.48777],[-80.003583,40.488427],[-80.003585,40.488459],[-80.003601,40.488741],[-80.00362,40.489099],[-80.003645,40.489571],[-80.003684,40.490236],[-80.003685,40.490334],[-80.003706,40.490633],[-80.003722,40.490949],[-80.003798,40.492367],[-80.003805,40.492509],[-80.003852,40.493433],[-80.003854,40.493476],[-80.00386,40.493589],[-80.003995,40.496296],[-80.003935,40.496293],[-80.003936,40.496443],[-80.003954,40.497463],[-80.003958,40.497533],[-80.004024,40.497775],[-80.004025,40.497796],[-80.004037,40.497788],[-80.004992,40.497171],[-80.005012,40.497158],[-80.00537,40.497211],[-80.005448,40.497225],[-80.005563,40.497248],[-80.006339,40.497398],[-80.006447,40.49745],[-80.0065,40.497476],[-80.006988,40.497723],[-80.007463,40.497965],[-80.007718,40.497985],[-80.007763,40.497986],[-80.007771,40.497892],[-80.007782,40.497777],[-80.007792,40.497527],[-80.008608,40.497534],[-80.009092,40.497539],[-80.009127,40.497549],[-80.009145,40.497718],[-80.009147,40.497735],[-80.009161,40.497844],[-80.009205,40.498173],[-80.009214,40.498232],[-80.00922,40.498283],[-80.009229,40.49846],[-80.009231,40.498483],[-80.00912,40.498758],[-80.009021,40.498947],[-80.008916,40.49915],[-80.009156,40.499144],[-80.009768,40.499128],[-80.010128,40.499119],[-80.010684,40.499104],[-80.010799,40.500758],[-80.010814,40.50096],[-80.01082,40.501045],[-80.010883,40.501004],[-80.010918,40.500982],[-80.011023,40.500898],[-80.011169,40.500762],[-80.011405,40.500528],[-80.011676,40.500222],[-80.011729,40.500135]]]]}}
]}
