{"type":"FeatureCollection","features":[
{"type":"Feature","properties":{"historic_name":"Schenley Farms","type":"CHD"},"geometry":{"type":"Polygon","coordinates":[[[-79.95484,40.450844],[-79.955422,40.449408],[-79.955438,40.449362],[-79.955453,40.449328],[-79.955462,40.449299],[-79.955462,40.449267],[-79.95546,40.449236],[-79.955454,40.449205],[-79.955444,40.449174],[-79.955432,40.44914],[-79.955414,40.449114],[-79.955393,40.449088],[-79.955365,40.449059],[-79.954976,40.449351],[-79.954835,40.449238],[-79.954599,40.44905],[-79.954372,40.44887],[-79.954227,40.448753],[-79.954071,40.448629],[-79.953934,40.44852],[-79.953786,40.448402],[-79.953665,40.448305],[-79.953328,40.448038],[-79.953504,40.44791],[-79.953732,40.447745],[-79.953899,40.447631],[-79.954149,40.447449],[-79.954336,40.447313],[-79.95457,40.447143],[-79.954779,40.44699],[-79.954913,40.446895],[-79.95533,40.446592],[-79.955532,40.446445],[-79.955672,40.446344],[-79.955936,40.446153],[-79.956119,40.446022],[-79.956372,40.445839],[-79.956917,40.446273],[-79.957027,40.44636],[-79.957155,40.446462],[-79.957267,40.446552],[-79.957388,40.446648],[-79.957619,40.446832],[-79.957854,40.447018],[-79.958005,40.447139],[-79.958252,40.447323],[-79.958784,40.447734],[-79.958778,40.447784],[-79.958763,40.447848],[-79.958738,40.447948],[-79.958696,40.448031],[-79.958627,40.448136],[-79.958559,40.448223],[-79.958485,40.448289],[-79.958395,40.448362],[-79.958415,40.448378],[-79.958381,40.448391],[-79.95832,40.448423],[-79.958272,40.448458],[-79.958141,40.448549],[-79.958004,40.448645],[-79.957867,40.448741],[-79.957763,40.448813],[-79.957743,40.448827],[-79.957534,40.449204],[-79.957226,40.44976],[-79.95702,40.450131],[-79.956966,40.45023],[-79.956894,40.450298],[-79.956768,40.450416],[-79.956667,40.45051],[-79.956566,40.450605],[-79.956474,40.450692],[-79.956379,40.450781],[-79.956283,40.450871],[-79.956184,40.450964],[-79.956096,40.451047],[-79.955991,40.451145],[-79.95588,40.451249],[-79.955772,40.45135],[-79.955766,40.451357],[-79.955656,40.451473],[-79.955562,40.451571],[-79.955467,40.451671],[-79.955376,40.451768],[-79.955248,40.451902],[-79.95523,40.451921],[-79.955113,40.452045],[-79.955097,40.452038],[-79.955044,40.452096],[-79.955051,40.45211],[-79.954958,40.452209],[-79.954861,40.452312],[-79.954764,40.452416],[-79.954737,40.452444],[-79.954669,40.452527],[-79.954605,40.452605],[-79.954554,40.452667],[-79.954509,40.452721],[-79.954494,40.452745],[-79.954483,40.452764],[-79.954377,40.452734],[-79.954284,40.452713],[-79.954529,40.452159],[-79.95463,40.451907],[-79.954681,40.451781],[-79.954742,40.45163],[-79.954784,40.451523],[-79.954828,40.451415],[-79.954873,40.451303],[-79.954915,40.451197],[-79.954963,40.451079],[-79.95484,40.450844]]]}},
{"type":"Feature","properties":{"historic_name":"Roslyn Place","type":"CHD"},"geometry":{"type":"Polygon","coordinates":[[[-79.935928,40.453896],[-79.935898,40.453844],[-79.935883,40.453818],[-79.935868,40.453792],[-79.935852,40.453764],[-79.935834,40.453733],[-79.935744,40.453576],[-79.935684,40.453471],[-79.935619,40.453358],[-79.935872,40.453243],[-79.935951,40.453382],[-79.93601,40.453486],[-79.936099,40.453642],[-79.936134,40.453705],[-79.936165,40.453759],[-79.93619,40.453804],[-79.936188,40.453815],[-79.936189,40.453826],[-79.936191,40.453837],[-79.936197,40.453848],[-79.936204,40.453857],[-79.936213,40.453866],[-79.936225,40.453873],[-79.936236,40.453879],[-79.936248,40.453883],[-79.93626,40.453885],[-79.936273,40.453886],[-79.936286,40.453886],[-79.9363,40.453884],[-79.936314,40.45388],[-79.936327,40.453874],[-79.936338,40.453867],[-79.936347,40.453859],[-79.936355,40.453849],[-79.936361,40.453839],[-79.936364,40.453828],[-79.936365,40.453817],[-79.936363,40.453806],[-79.93636,40.453795],[-79.936353,40.453785],[-79.936345,40.453776],[-79.936335,40.453768],[-79.936323,40.453761],[-79.93631,40.453756],[-79.936296,40.453753],[-79.936281,40.453751],[-79.936272,40.453735],[-79.936223,40.45365],[-79.936176,40.453568],[-79.936131,40.45349],[-79.936087,40.453413],[-79.93604,40.453333],[-79.935963,40.453197],[-79.936209,40.453072],[-79.936314,40.453246],[-79.93635,40.453305],[-79.936363,40.453326],[-79.936409,40.453401],[-79.936457,40.453481],[-79.9365,40.453551],[-79.936505,40.453559],[-79.936556,40.453639],[-79.936571,40.453663],[-79.936615,40.453736],[-79.936693,40.453866],[-79.936721,40.453909],[-79.936524,40.453976],[-79.936378,40.454029],[-79.936274,40.454068],[-79.936271,40.454069],[-79.93627,40.45407],[-79.936269,40.45407],[-79.936081,40.454154],[-79.936053,40.454109],[-79.936035,40.454079],[-79.935974,40.453975],[-79.935928,40.453896]]]}},
{"type":"Feature","properties":{"historic_name":"Lemmon Row & Mexican War Street","type":"CHD"},"geometry":{"type":"Polygon","coordinates":[[[-80.014733,40.456389],[-80.014749,40.456441],[-80.014763,40.456486],[-80.014766,40.456496],[-80.014778,40.456536],[-80.014781,40.456547],[-80.014793,40.456586],[-80.014798,40.4566],[-80.014812,40.456646],[-80.014814,40.456653],[-80.014827,40.456696],[-80.01483,40.456705],[-80.014842,40.456745],[-80.014844,40.456753],[-80.014859,40.4568],[-80.014861,40.456807],[-80.014876,40.456857],[-80.014898,40.456925],[-80.014549,40.456983],[-80.014385,40.456437],[-80.014723,40.456365],[-80.014733,40.456389]]]}},
{"type":"Feature","properties":{"historic_name":"Penn-Liberty","type":"CHD"},"geometry":{"type":"Polygon","coordinates":[[[-79.99771,40.444545],[-79.997671,40.444455],[-79.997593,40.444488],[-79.997535,40.444357],[-79.99752,40.444321],[-79.997279,40.444385],[-79.997195,40.444407],[-79.997114,40.444428],[-79.997129,40.444461],[-79.997189,40.444593],[-79.996983,40.444647],[-79.996887,40.444672],[-79.996784,40.444698],[-79.996682,40.444725],[-79.996492,40.444774],[-79.996369,40.444806],[-79.996178,40.444394],[-79.995777,40.444498],[-79.995702,40.44434],[-79.995573,40.444049],[-79.995717,40.444012],[-79.996027,40.443933],[-79.996234,40.443879],[-79.99621,40.443826],[-79.996092,40.443542],[-79.996163,40.443523],[-79.996237,40.443504],[-79.996299,40.443488],[-79.996367,40.443471],[-79.996434,40.443453],[-79.996524,40.44343],[-79.9966,40.44341],[-79.996724,40.443378],[-79.996852,40.443345],[-79.996916,40.443328],[-79.996978,40.443312],[-79.99705,40.443294],[-79.997124,40.443276],[-79.997344,40.443219],[-79.997414,40.4432],[-79.997492,40.44318],[-79.997585,40.443156],[-79.99768,40.443132],[-79.997768,40.443109],[-79.997859,40.443085],[-79.997944,40.443063],[-79.998141,40.443007],[-79.998252,40.442979],[-79.998315,40.442964],[-79.998437,40.442933],[-79.998527,40.44291],[-79.998602,40.442892],[-79.998966,40.442803],[-79.999024,40.442782],[-79.99921,40.442736],[-79.99946,40.442671],[-79.999838,40.442572],[-80.000048,40.442514],[-80.000261,40.442459],[-80.00037,40.442712],[-80.000159,40.442763],[-79.999954,40.442834],[-80.000027,40.442999],[-80.000115,40.443188],[-79.999487,40.443359],[-79.999302,40.443406],[-79.999231,40.44341],[-79.999078,40.443452],[-79.999012,40.44347],[-79.998937,40.443491],[-79.998869,40.44351],[-79.998684,40.443561],[-79.99863,40.443575],[-79.998707,40.44374],[-79.998788,40.443907],[-79.998816,40.443959],[-79.998734,40.443982],[-79.998669,40.444001],[-79.998613,40.444017],[-79.998402,40.444067],[-79.998419,40.444106],[-79.998216,40.444158],[-79.998277,40.444302],[-79.998144,40.444336],[-79.997816,40.444419],[-79.997856,40.444506],[-79.997894,40.444589],[-79.998234,40.445338],[-79.998092,40.445393],[-79.997744,40.44462],[-79.99771,40.444545]]]}},
{"type":"Feature","properties":{"historic_name":"Oakland Square","type":"CHD"},"geometry":{"type":"Polygon","coordinates":[[[-79.951017,40.437757],[-79.950642,40.437662],[-79.950674,40.437589],[-79.950693,40.437542],[-79.950714,40.437493],[-79.950732,40.43745],[-79.950752,40.437403],[-79.950679,40.437391],[-79.950549,40.437358],[-79.950544,40.43743],[-79.950368,40.437416],[-79.95041,40.437],[-79.950585,40.437019],[-79.95062,40.43668],[-79.950652,40.436356],[-79.951093,40.436373],[-79.951122,40.436344],[-79.951161,40.436305],[-79.951208,40.436258],[-79.951231,40.436235],[-79.951168,40.436222],[-79.95117,40.436195],[-79.951175,40.436145],[-79.95118,40.436091],[-79.951186,40.436041],[-79.951393,40.436074],[-79.95139,40.436004],[-79.950911,40.435994],[-79.950893,40.435623],[-79.950889,40.435545],[-79.950885,40.435452],[-79.950881,40.435372],[-79.950877,40.435282],[-79.950868,40.4351],[-79.950884,40.435036],[-79.951354,40.435099],[-79.951389,40.434963],[-79.951462,40.434976],[-79.951485,40.43487],[-79.950948,40.434782],[-79.951022,40.43449],[-79.951047,40.43439],[-79.951076,40.434306],[-79.951333,40.434278],[-79.951689,40.434241],[-79.95187,40.43423],[-79.952216,40.434253],[-79.952473,40.43429],[-79.952724,40.434325],[-79.952698,40.434438],[-79.952664,40.434589],[-79.952654,40.434632],[-79.952642,40.434684],[-79.952635,40.434716],[-79.952622,40.434773],[-79.952618,40.434791],[-79.9526,40.434871],[-79.952584,40.434938],[-79.952575,40.434979],[-79.952572,40.434995],[-79.952554,40.435071],[-79.952534,40.435161],[-79.95252,40.435224],[-79.952512,40.435255],[-79.952504,40.435295],[-79.952489,40.435358],[-79.952473,40.435431],[-79.952457,40.4355],[-79.952441,40.435568],[-79.952427,40.435632],[-79.95241,40.435708],[-79.952394,40.435778],[-79.952377,40.435852],[-79.952309,40.436109],[-79.95231,40.436109],[-79.952296,40.436136],[-79.952353,40.436144],[-79.952698,40.436192],[-79.952766,40.436228],[-79.952665,40.436499],[-79.952558,40.43676],[-79.952476,40.436961],[-79.952388,40.437174],[-79.952299,40.43739],[-79.952277,40.437445],[-79.952377,40.437488],[-79.952756,40.437713],[-79.952791,40.437734],[-79.952736,40.43779],[-79.952688,40.437837],[-79.952622,40.437904],[-79.952286,40.437709],[-79.952192,40.437655],[-79.952163,40.437728],[-79.952147,40.437766],[-79.952052,40.437995],[-79.951987,40.43815],[-79.951908,40.438132],[-79.951544,40.438039],[-79.951466,40.438021],[-79.951086,40.437923],[-79.950962,40.437892],[-79.951017,40.437757]]]}},
{"type":"Feature","properties":{"historic_name":"Murray Hill Avenue","type":"CHD"},"geometry":{"type":"Polygon","coordinates":[[[-79.928082,40.449707],[-79.928067,40.449686],[-79.927534,40.449851],[-79.92745,40.449694],[-79.927418,40.449704],[-79.927354,40.449725],[-79.927265,40.449754],[-79.92707,40.449383],[-79.927073,40.449318],[-79.926246,40.447689],[-79.925796,40.447813],[-79.925784,40.447789],[-79.925753,40.447726],[-79.925713,40.447645],[-79.925628,40.447491],[-79.925388,40.44756],[-79.925143,40.447104],[-79.925057,40.446943],[-79.924942,40.446729],[-79.924946,40.446664],[-79.924909,40.446343],[-79.925617,40.446289],[-79.925587,40.446105],[-79.925798,40.446006],[-79.926441,40.445949],[-79.92651,40.44621],[-79.925862,40.446401],[-79.92591,40.446535],[-79.926383,40.446397],[-79.926427,40.446384],[-79.926445,40.446379],[-79.92646,40.446374],[-79.926679,40.446769],[-79.926659,40.446776],[-79.926623,40.446789],[-79.92665,40.446838],[-79.926722,40.446968],[-79.926797,40.447104],[-79.926815,40.447136],[-79.926852,40.447205],[-79.926892,40.447276],[-79.926947,40.447376],[-79.926966,40.447411],[-79.926986,40.447446],[-79.927033,40.447532],[-79.927084,40.447625],[-79.927126,40.447701],[-79.927154,40.447752],[-79.927251,40.447929],[-79.927318,40.44805],[-79.927376,40.448155],[-79.927432,40.448256],[-79.927489,40.44836],[-79.927512,40.448402],[-79.927602,40.448566],[-79.92761,40.448579],[-79.927656,40.448663],[-79.927698,40.448739],[-79.927745,40.448825],[-79.927752,40.448836],[-79.927797,40.448919],[-79.92784,40.448996],[-79.927889,40.449086],[-79.927927,40.449154],[-79.927944,40.449185],[-79.928,40.449286],[-79.928179,40.44925],[-79.928219,40.449242],[-79.928479,40.449189],[-79.928559,40.449321],[-79.928632,40.449444],[-79.928688,40.449537],[-79.928749,40.449639],[-79.928791,40.449709],[-79.928315,40.449851],[-79.928454,40.450121],[-79.928329,40.450168],[-79.928148,40.449818],[-79.928126,40.449763],[-79.928082,40.449707]]]}},
{"type":"Feature","properties":{"historic_name":"Oakland Civic Center","type":"CHD"},"geometry":{"type":"Polygon","coordinates":[[[-79.953328,40.448038],[-79.953665,40.448305],[-79.953786,40.448402],[-79.953934,40.44852],[-79.954071,40.448629],[-79.954227,40.448753],[-79.954372,40.44887],[-79.954599,40.44905],[-79.954835,40.449238],[-79.954976,40.449351],[-79.955365,40.449059],[-79.955393,40.449088],[-79.955414,40.449114],[-79.955432,40.44914],[-79.955444,40.449174],[-79.955454,40.449205],[-79.95546,40.449236],[-79.955462,40.449267],[-79.955462,40.449299],[-79.955453,40.449328],[-79.955438,40.449362],[-79.955422,40.449408],[-79.95484,40.450844],[-79.954552,40.451046],[-79.954105,40.451178],[-79.953607,40.450085],[-79.952836,40.448394],[-79.952694,40.448096],[-79.952484,40.447632],[-79.952465,40.44759],[-79.952255,40.447647],[-79.95186,40.447753],[-79.951818,40.447673],[-79.951603,40.447747],[-79.951503,40.447576],[-79.951375,40.44762],[-79.951139,40.447701],[-79.951051,40.447554],[-79.950887,40.44761],[-79.950306,40.447811],[-79.949721,40.448013],[-79.949472,40.447611],[-79.949168,40.447109],[-79.949157,40.447082],[-79.949166,40.447067],[-79.949181,40.447055],[-79.94919,40.447036],[-79.949214,40.447025],[-79.949472,40.447012],[-79.950438,40.446926],[-79.950664,40.446905],[-79.950633,40.446656],[-79.95051,40.445655],[-79.950457,40.445224],[-79.950438,40.445106],[-79.950368,40.44457],[-79.95018,40.444584],[-79.949682,40.444637],[-79.949652,40.444412],[-79.949639,40.444324],[-79.949855,40.444267],[-79.949946,40.444244],[-79.949862,40.444066],[-79.949467,40.443273],[-79.949328,40.442958],[-79.949378,40.442943],[-79.949249,40.442659],[-79.949135,40.442438],[-79.950243,40.44212],[-79.950546,40.440546],[-79.952609,40.440541],[-79.952935,40.44129],[-79.953352,40.442252],[-79.953391,40.442242],[-79.953728,40.443028],[-79.953822,40.443248],[-79.953843,40.443233],[-79.95389,40.443207],[-79.953928,40.443196],[-79.954721,40.443],[-79.954818,40.44297],[-79.955285,40.442854],[-79.955404,40.442824],[-79.955738,40.442581],[-79.955899,40.442719],[-79.956401,40.44314],[-79.95664,40.443333],[-79.957092,40.443696],[-79.957442,40.443977],[-79.957738,40.444216],[-79.957994,40.444422],[-79.958187,40.444577],[-79.95834,40.444466],[-79.958357,40.444479],[-79.958495,40.444379],[-79.95865,40.444503],[-79.958161,40.444856],[-79.957799,40.444562],[-79.957625,40.444688],[-79.957509,40.444771],[-79.957896,40.445084],[-79.957651,40.445261],[-79.957686,40.445289],[-79.957543,40.445393],[-79.957498,40.445356],[-79.957384,40.445259],[-79.957121,40.445046],[-79.957118,40.445049],[-79.956398,40.445578],[-79.956188,40.445738],[-79.95552,40.446217],[-79.955382,40.446311],[-79.954753,40.446769],[-79.954617,40.446865],[-79.954002,40.447308],[-79.953861,40.447416],[-79.953169,40.447911],[-79.953328,40.448038]]]}},
{"type":"Feature","properties":{"historic_name":"Mexican War Streets Expansion","type":"CHD"},"geometry":{"type":"Polygon","coordinates":[[[-80.009618,40.455023],[-80.010335,40.457195],[-80.014341,40.456431],[-80.01425,40.456107],[-80.014727,40.456021],[-80.014748,40.456083],[-80.014942,40.456046],[-80.015021,40.456283],[-80.015027,40.456305],[-80.014737,40.456361],[-80.014385,40.456437],[-80.014549,40.456983],[-80.015046,40.4569],[-80.01507,40.456957],[-80.015219,40.457389],[-80.015223,40.457432],[-80.01539,40.457904],[-80.015584,40.457976],[-80.015676,40.458262],[-80.015691,40.45827],[-80.015753,40.458462],[-80.015534,40.458505],[-80.015775,40.459222],[-80.015388,40.459297],[-80.015201,40.459286],[-80.01523,40.459378],[-80.015296,40.459575],[-80.014875,40.459655],[-80.014806,40.459459],[-80.014884,40.459444],[-80.014861,40.459352],[-80.014667,40.458767],[-80.014603,40.45869],[-80.014111,40.458783],[-80.014049,40.458596],[-80.014027,40.45854],[-80.013941,40.458285],[-80.013953,40.45818],[-80.013778,40.458221],[-80.013425,40.458286],[-80.013392,40.458295],[-80.012968,40.458373],[-80.012942,40.458373],[-80.012595,40.458441],[-80.012494,40.458462],[-80.012536,40.458548],[-80.012621,40.458801],[-80.012011,40.458919],[-80.011924,40.458666],[-80.011902,40.458573],[-80.011832,40.45836],[-80.011746,40.458394],[-80.010295,40.45867],[-80.010206,40.458413],[-80.010142,40.458344],[-80.009805,40.458407],[-80.009603,40.458449],[-80.009621,40.458515],[-80.009707,40.458776],[-80.009365,40.458842],[-80.009316,40.458853],[-80.008621,40.458986],[-80.008537,40.458725],[-80.008537,40.458724],[-80.008887,40.458659],[-80.008858,40.458578],[-80.008798,40.458415],[-80.008773,40.458338],[-80.008766,40.458314],[-80.008724,40.458322],[-80.008167,40.458428],[-80.008099,40.458208],[-80.008083,40.458116],[-80.008008,40.4579],[-80.007994,40.457855],[-80.007921,40.457643],[-80.007999,40.457628],[-80.008064,40.457616],[-80.008148,40.4576],[-80.008204,40.457589],[-80.008282,40.457575],[-80.008405,40.457551],[-80.008412,40.45755],[-80.008436,40.457545],[-80.008399,40.457435],[-80.00835,40.457285],[-80.00833,40.457226],[-80.008302,40.457142],[-80.008289,40.457101],[-80.008273,40.457053],[-80.008259,40.457012],[-80.008214,40.45698],[-80.008189,40.456892],[-80.008175,40.456846],[-80.008152,40.456764],[-80.008139,40.456717],[-80.008127,40.456677],[-80.008103,40.456601],[-80.008091,40.456563],[-80.008081,40.456529],[-80.008073,40.456499],[-80.007964,40.456164],[-80.007966,40.456122],[-80.007941,40.456051],[-80.007896,40.455918],[-80.007883,40.455849],[-80.007714,40.455382],[-80.008051,40.45532],[-80.008562,40.455225],[-80.008787,40.455185],[-80.008923,40.455158],[-80.009061,40.455131],[-80.009202,40.455103],[-80.00933,40.455078],[-80.00957,40.455031],[-80.009618,40.455023]]]}},
{"type":"Feature","properties":{"historic_name":"Market Square","type":"CHD"},"geometry":{"type":"Polygon","coordinates":[[[-80.00119,40.440231],[-80.001569,40.440371],[-80.00161,40.440307],[-80.001653,40.440244],[-80.001739,40.440111],[-80.001754,40.44009],[-80.001703,40.440069],[-80.001752,40.439992],[-80.001954,40.4397],[-80.001993,40.439643],[-80.002734,40.439919],[-80.002695,40.43998],[-80.002598,40.440123],[-80.002559,40.440183],[-80.002581,40.440191],[-80.002554,40.44023],[-80.00277,40.44031],[-80.002738,40.440358],[-80.002687,40.440423],[-80.003102,40.440587],[-80.002961,40.440799],[-80.003985,40.44117],[-80.003901,40.44138],[-80.002826,40.441665],[-80.000767,40.440888],[-80.00119,40.440231]]]}},
{"type":"Feature","properties":{"historic_name":"Shrine of the Blessed Mother","type":"CHD"},"geometry":{"type":"MultiPolygon","coordinates":[[[[-79.957465,40.431394],[-79.957412,40.431356],[-79.957277,40.431467],[-79.957063,40.431308],[-79.957194,40.431205],[-79.95731,40.431113],[-79.957359,40.431149],[-79.957405,40.431184],[-79.957466,40.431229],[-79.957519,40.431269],[-79.957571,40.431308],[-79.957624,40.431347],[-79.957707,40.431356],[-79.957564,40.431466],[-79.957516,40.431431],[-79.957465,40.431394]]],[[[-79.957615,40.431503],[-79.957779,40.431363],[-79.957832,40.431369],[-79.957858,40.431407],[-79.957896,40.431462],[-79.957921,40.431497],[-79.957771,40.431615],[-79.957735,40.43159],[-79.95768,40.431549],[-79.957615,40.431503]]]]}},
{"type":"Feature","properties":{"historic_name":"Mellon Park","type":"CHD"},"geometry":{"type":"MultiPolygon","coordinates":[[[[-79.916138,40.452179],[-79.917179,40.451113],[-79.917881,40.451512],[-79.918109,40.45128],[-79.918275,40.451371],[-79.918799,40.451302],[-79.919246,40.451243],[-79.919344,40.45123],[-79.919355,40.451276],[-79.919499,40.451257],[-79.919563,40.451249],[-79.920085,40.451182],[-79.920572,40.452745],[-79.920596,40.452829],[-79.917654,40.453219],[-79.916657,40.453358],[-79.916138,40.45343],[-79.915986,40.453451],[-79.916075,40.453235],[-79.916138,40.453084],[-79.916278,40.452745],[-79.916354,40.452561],[-79.916138,40.452445],[-79.915968,40.452353],[-79.916138,40.452179]]],[[[-79.916138,40.453599],[-79.91769,40.45338],[-79.917784,40.453773],[-79.916859,40.454688],[-79.916615,40.454932],[-79.916275,40.45527],[-79.915467,40.456024],[-79.912643,40.45406],[-79.916138,40.453599]]]]}},
{"type":"Feature","properties":{"historic_name":"Manchester","type":"CHD"},"geometry":{"type":"MultiPolygon","coordinates":[[[[-80.028804,40.459093],[-80.028761,40.458951],[-80.028749,40.458923],[-80.028208,40.459014],[-80.02822,40.459047],[-80.028234,40.459087],[-80.028248,40.459126],[-80.028257,40.459154],[-80.028273,40.459199],[-80.028286,40.459238],[-80.028213,40.459251],[-80.028132,40.459265],[-80.028039,40.459284],[-80.027964,40.459056],[-80.027727,40.4591],[-80.027716,40.459066],[-80.027701,40.459018],[-80.027684,40.458969],[-80.027669,40.458921],[-80.027652,40.45887],[-80.027636,40.458819],[-80.027621,40.458775],[-80.027604,40.458723],[-80.027582,40.458643],[-80.026549,40.458832],[-80.026527,40.458755],[-80.026474,40.458586],[-80.026447,40.458501],[-80.026426,40.458505],[-80.026414,40.458465],[-80.026402,40.458426],[-80.026389,40.458381],[-80.026097,40.458435],[-80.025991,40.458118],[-80.02595,40.457994],[-80.025804,40.457554],[-80.025669,40.457152],[-80.025667,40.457111],[-80.025705,40.4571],[-80.027233,40.456815],[-80.02708,40.456336],[-80.026934,40.455887],[-80.025369,40.456185],[-80.025287,40.456206],[-80.02479,40.456285],[-80.024024,40.456427],[-80.024053,40.456512],[-80.024117,40.456715],[-80.02416,40.456853],[-80.024183,40.456923],[-80.024229,40.45707],[-80.024192,40.457076],[-80.024266,40.457271],[-80.024296,40.457365],[-80.023341,40.457545],[-80.02319,40.457073],[-80.023042,40.456608],[-80.02188,40.456823],[-80.021168,40.456977],[-80.020596,40.456692],[-80.020555,40.456584],[-80.020406,40.45613],[-80.020253,40.455648],[-80.021438,40.455429],[-80.022595,40.455215],[-80.024908,40.454787],[-80.02476,40.454338],[-80.024608,40.453879],[-80.023339,40.454116],[-80.023319,40.454079],[-80.023199,40.45372],[-80.023172,40.453633],[-80.024449,40.453396],[-80.024303,40.452953],[-80.022432,40.453302],[-80.022577,40.453744],[-80.022735,40.454228],[-80.021136,40.454521],[-80.02099,40.454039],[-80.020927,40.453847],[-80.019746,40.454065],[-80.019664,40.453812],[-80.019637,40.453732],[-80.019548,40.45346],[-80.019433,40.45311],[-80.019315,40.452752],[-80.019289,40.452674],[-80.019203,40.452413],[-80.019181,40.452344],[-80.019512,40.452289],[-80.019523,40.45232],[-80.019543,40.452384],[-80.01956,40.452439],[-80.019575,40.452486],[-80.019592,40.452542],[-80.019606,40.452586],[-80.019615,40.452615],[-80.019937,40.452557],[-80.019823,40.452257],[-80.019868,40.452244],[-80.019955,40.452226],[-80.019974,40.452222],[-80.019982,40.452221],[-80.020288,40.452162],[-80.020366,40.452148],[-80.02047,40.45246],[-80.020541,40.452674],[-80.02213,40.452379],[-80.024004,40.452043],[-80.02386,40.451605],[-80.024645,40.451459],[-80.024634,40.451403],[-80.024545,40.451134],[-80.024542,40.451122],[-80.025322,40.45098],[-80.026748,40.450736],[-80.026903,40.450709],[-80.027035,40.450685],[-80.027138,40.450793],[-80.027277,40.450969],[-80.027428,40.451218],[-80.027503,40.451407],[-80.027659,40.451861],[-80.027811,40.452304],[-80.02796,40.452754],[-80.028119,40.453225],[-80.028271,40.453687],[-80.028571,40.454624],[-80.028866,40.45553],[-80.027882,40.45571],[-80.027912,40.455792],[-80.028022,40.456138],[-80.02803,40.456163],[-80.029019,40.455982],[-80.029151,40.456456],[-80.029253,40.456753],[-80.028978,40.456807],[-80.028959,40.456765],[-80.028811,40.45679],[-80.028777,40.456799],[-80.028694,40.456539],[-80.02801,40.456669],[-80.028033,40.456743],[-80.028144,40.45709],[-80.028182,40.457158],[-80.028206,40.457225],[-80.028623,40.457143],[-80.028731,40.457493],[-80.029459,40.45736],[-80.0296,40.457799],[-80.029726,40.458249],[-80.029864,40.458719],[-80.030019,40.459179],[-80.030151,40.459584],[-80.029529,40.459699],[-80.028757,40.459841],[-80.028642,40.459499],[-80.02862,40.459443],[-80.028894,40.459392],[-80.028873,40.459324],[-80.028804,40.459093]]],[[[-80.020587,40.454782],[-80.020113,40.454869],[-80.019995,40.454499],[-80.020465,40.454408],[-80.020587,40.454782]]]]}},
{"type":"Feature","properties":{"historic_name":"East Carson Street","type":"CHD"},"geometry":{"type":"Polygon","coordinates":[[[-79.985916,40.42977],[-79.985906,40.429511],[-79.985902,40.429437],[-79.98342,40.429475],[-79.983428,40.429218],[-79.98334,40.429218],[-79.983189,40.42922],[-79.983054,40.42922],[-79.982766,40.429218],[-79.982614,40.429214],[-79.982414,40.429207],[-79.982343,40.429204],[-79.982329,40.429204],[-79.982097,40.429197],[-79.982029,40.429194],[-79.982013,40.429335],[-79.980505,40.429244],[-79.979097,40.429152],[-79.977573,40.429055],[-79.976227,40.428974],[-79.974551,40.428888],[-79.972972,40.428805],[-79.971032,40.428686],[-79.969586,40.428287],[-79.968056,40.427876],[-79.967181,40.427635],[-79.966948,40.427574],[-79.967103,40.427224],[-79.967186,40.427011],[-79.967332,40.426704],[-79.967981,40.426882],[-79.968088,40.426912],[-79.968268,40.42654],[-79.968305,40.426458],[-79.968786,40.426597],[-79.968588,40.427015],[-79.969993,40.427402],[-79.970917,40.427651],[-79.970934,40.427616],[-79.971081,40.427302],[-79.971107,40.427251],[-79.971377,40.427329],[-79.971262,40.427751],[-79.973085,40.427873],[-79.974658,40.427958],[-79.976279,40.428039],[-79.977655,40.428139],[-79.979182,40.428229],[-79.980186,40.428282],[-79.98019,40.428245],[-79.98021,40.428079],[-79.980348,40.42809],[-79.980517,40.428103],[-79.980504,40.428264],[-79.9805,40.428312],[-79.982087,40.428386],[-79.982096,40.428546],[-79.983442,40.428578],[-79.983442,40.428485],[-79.98351,40.428486],[-79.983734,40.428484],[-79.983792,40.428484],[-79.983792,40.428522],[-79.983853,40.428522],[-79.98407,40.428521],[-79.98422,40.428509],[-79.984569,40.428508],[-79.984568,40.428493],[-79.98463,40.428489],[-79.984706,40.428485],[-79.984783,40.428487],[-79.984842,40.428489],[-79.984905,40.428484],[-79.984981,40.428481],[-79.985053,40.428478],[-79.985213,40.428472],[-79.985329,40.428479],[-79.986407,40.428453],[-79.986398,40.428253],[-79.987522,40.428279],[-79.987522,40.42833],[-79.987589,40.428329],[-79.987809,40.428326],[-79.987946,40.428324],[-79.988027,40.428322],[-79.988245,40.428318],[-79.988557,40.428312],[-79.988554,40.427956],[-79.989766,40.42794],[-79.989808,40.428677],[-79.993619,40.428608],[-79.993624,40.428986],[-79.991032,40.429037],[-79.991045,40.429402],[-79.989834,40.42942],[-79.988583,40.429452],[-79.988608,40.43002],[-79.98758,40.430045],[-79.987551,40.429671],[-79.98743,40.429671],[-79.987321,40.429674],[-79.987262,40.429676],[-79.987266,40.429735],[-79.987213,40.429736],[-79.987202,40.429737],[-79.987142,40.429738],[-79.987124,40.429739],[-79.98707,40.42974],[-79.987047,40.429741],[-79.98697,40.429743],[-79.98678,40.429747],[-79.986782,40.429771],[-79.986802,40.430088],[-79.985928,40.430104],[-79.985927,40.43003],[-79.985916,40.42977]]]}},
{"type":"Feature","properties":{"historic_name":"Deutschtown","type":"CHD"},"geometry":{"type":"MultiPolygon","coordinates":[[[[-80.001068,40.451663],[-80.001507,40.452997],[-79.998168,40.45361],[-79.997727,40.452306],[-80.001068,40.451663]]],[[[-80.00169,40.453538],[-80.001856,40.454017],[-80.001908,40.454175],[-80.002119,40.454824],[-80.002143,40.454969],[-80.002354,40.455633],[-80.002401,40.455805],[-80.002519,40.456176],[-80.002067,40.456256],[-80.001949,40.455888],[-80.00191,40.455705],[-80.001678,40.455061],[-80.001635,40.454925],[-80.001412,40.454277],[-80.001367,40.454117],[-80.001209,40.453632],[-80.00169,40.453538]]]]}},
{"type":"Feature","properties":{"historic_name":"Alpha Terrace","type":"CHD"},"geometry":{"type":"Polygon","coordinates":[[[-79.922423,40.469524],[-79.922257,40.469466],[-79.922226,40.469516],[-79.921904,40.469402],[-79.922276,40.468789],[-79.922602,40.4689],[-79.922767,40.468959],[-79.92318,40.469106],[-79.922836,40.46967],[-79.922423,40.469524]]]}},
{"type":"Feature","properties":{"historic_name":"Allegheny West","type":"CHD"},"geometry":{"type":"Polygon","coordinates":[[[-80.018929,40.453125],[-80.018837,40.452857],[-80.018831,40.45284],[-80.017737,40.453039],[-80.017742,40.453057],[-80.017825,40.453323],[-80.017847,40.453393],[-80.017067,40.453538],[-80.016933,40.453186],[-80.015364,40.453487],[-80.015103,40.452691],[-80.015066,40.452698],[-80.014292,40.452834],[-80.014235,40.452843],[-80.013513,40.450595],[-80.015935,40.450146],[-80.015901,40.450045],[-80.015717,40.449487],[-80.015808,40.449477],[-80.016193,40.449433],[-80.016127,40.449234],[-80.016515,40.449201],[-80.016752,40.449891],[-80.01678,40.449975],[-80.01722,40.449888],[-80.017248,40.449987],[-80.01737,40.450358],[-80.017504,40.450745],[-80.017529,40.450821],[-80.018056,40.450725],[-80.018075,40.450791],[-80.018197,40.451159],[-80.018269,40.451209],[-80.018373,40.451536],[-80.018452,40.451685],[-80.018551,40.452008],[-80.018557,40.452027],[-80.01899,40.451947],[-80.019488,40.45347],[-80.018272,40.453693],[-80.018264,40.453673],[-80.018178,40.453411],[-80.018155,40.453342],[-80.018952,40.453196],[-80.018929,40.453125]]]}},
{"type":"Feature","properties":{"historic_name":"Allegheny Commons Park","type":"CHD"},"geometry":{"type":"Polygon","coordinates":[[[-80.002699,40.456158],[-80.001817,40.453415],[-80.001754,40.453198],[-80.001588,40.452745],[-80.000984,40.450924],[-80.001846,40.450749],[-80.002504,40.452745],[-80.002449,40.452745],[-80.002547,40.453045],[-80.002501,40.453054],[-80.003283,40.455463],[-80.009578,40.454259],[-80.009096,40.452746],[-80.008863,40.452086],[-80.008801,40.451869],[-80.008432,40.450753],[-80.00738,40.450955],[-80.00715,40.450262],[-80.007061,40.449993],[-80.007006,40.449828],[-80.007457,40.449742],[-80.007717,40.449694],[-80.007926,40.449681],[-80.00814,40.449708],[-80.008188,40.449718],[-80.00833,40.44975],[-80.008514,40.449811],[-80.00872,40.449892],[-80.00889,40.449975],[-80.009038,40.450056],[-80.009123,40.450099],[-80.009205,40.450161],[-80.009357,40.450281],[-80.009439,40.45036],[-80.009511,40.450442],[-80.009643,40.450594],[-80.009917,40.45091],[-80.010123,40.451149],[-80.01024,40.4513],[-80.013372,40.450702],[-80.014419,40.453934],[-80.008713,40.455011],[-80.002699,40.456158]]]}},
{"type":"Feature","properties":{"historic_name":"Frick Park","type":"CHD"},"geometry":{"type":"MultiPolygon","coordinates":[[[[-79.897675,40.439477],[-79.896508,40.436765],[-79.8964,40.436513],[-79.896871,40.436398],[-79.897296,40.436295],[-79.897468,40.436253],[-79.897378,40.43605],[-79.897179,40.435599],[-79.897265,40.435577],[-79.898229,40.435324],[-79.897771,40.434248],[-79.897391,40.433716],[-79.897756,40.433559],[-79.897676,40.433446],[-79.897624,40.433371],[-79.897574,40.433301],[-79.897627,40.433301],[-79.897759,40.433482],[-79.89813,40.433325],[-79.898111,40.433301],[-79.898166,40.433301],[-79.898218,40.433301],[-79.898007,40.433017],[-79.899057,40.432573],[-79.898104,40.43124],[-79.899084,40.430821],[-79.898295,40.429719],[-79.899273,40.429299],[-79.899561,40.429177],[-79.899493,40.429107],[-79.89947,40.429082],[-79.899413,40.42902],[-79.899346,40.42895],[-79.899267,40.428867],[-79.899184,40.428779],[-79.899088,40.428678],[-79.898975,40.42856],[-79.898797,40.428641],[-79.898199,40.427813],[-79.897297,40.427628],[-79.897238,40.427643],[-79.897159,40.427626],[-79.89713,40.427621],[-79.897001,40.427594],[-79.896829,40.427559],[-79.896664,40.427526],[-79.896637,40.42752],[-79.896633,40.427519],[-79.896491,40.42758],[-79.896384,40.427626],[-79.896276,40.427672],[-79.89617,40.427717],[-79.89609,40.427751],[-79.896009,40.427785],[-79.89593,40.427819],[-79.895836,40.427859],[-79.8957,40.427917],[-79.89555,40.427981],[-79.895468,40.428016],[-79.895324,40.428077],[-79.895225,40.428119],[-79.8951,40.428174],[-79.895024,40.428069],[-79.894958,40.427981],[-79.894887,40.427884],[-79.894814,40.427786],[-79.894742,40.427687],[-79.894689,40.427615],[-79.894643,40.427553],[-79.894596,40.427488],[-79.894544,40.427418],[-79.894486,40.427339],[-79.894439,40.427274],[-79.894388,40.427205],[-79.894255,40.427024],[-79.893831,40.426939],[-79.893766,40.42693],[-79.893734,40.426988],[-79.892938,40.428187],[-79.892913,40.428224],[-79.892881,40.428272],[-79.892867,40.428267],[-79.892315,40.428064],[-79.892295,40.428043],[-79.892332,40.427981],[-79.892304,40.427958],[-79.892274,40.427934],[-79.891908,40.427765],[-79.891461,40.427558],[-79.891147,40.427397],[-79.89106,40.427326],[-79.891015,40.427249],[-79.891009,40.427205],[-79.891159,40.427087],[-79.891232,40.427017],[-79.892088,40.426299],[-79.8934,40.425649],[-79.894198,40.425562],[-79.894697,40.425672],[-79.895249,40.426048],[-79.896054,40.42625],[-79.896223,40.426293],[-79.896743,40.426478],[-79.896743,40.426447],[-79.896743,40.42642],[-79.896803,40.426442],[-79.89678,40.426263],[-79.896874,40.426225],[-79.896955,40.426192],[-79.897026,40.426189],[-79.897399,40.426169],[-79.897809,40.426146],[-79.898067,40.426132],[-79.898838,40.426098],[-79.89927,40.426075],[-79.899279,40.426096],[-79.899609,40.426058],[-79.902026,40.425944],[-79.903275,40.425885],[-79.905366,40.425786],[-79.905732,40.425765],[-79.905972,40.425751],[-79.906244,40.426065],[-79.906287,40.426114],[-79.906333,40.426167],[-79.906362,40.4262],[-79.906397,40.42624],[-79.906402,40.426246],[-79.906397,40.426257],[-79.906391,40.426272],[-79.9063,40.426489],[-79.906289,40.426515],[-79.906193,40.426737],[-79.906171,40.426788],[-79.906142,40.426858],[-79.906031,40.427126],[-79.90593,40.427371],[-79.905846,40.427576],[-79.90596,40.427722],[-79.90622,40.427755],[-79.906383,40.427759],[-79.906633,40.427719],[-79.906803,40.427627],[-79.906821,40.427607],[-79.906937,40.427475],[-79.907042,40.42722],[-79.907109,40.426955],[-79.907153,40.426839],[-79.907155,40.426834],[-79.907187,40.426748],[-79.907198,40.426731],[-79.907314,40.426542],[-79.907365,40.426469],[-79.907681,40.42654],[-79.907934,40.426598],[-79.908139,40.42669],[-79.908182,40.426709],[-79.908223,40.426728],[-79.908237,40.426734],[-79.908526,40.426865],[-79.909198,40.427168],[-79.909371,40.427246],[-79.909469,40.42729],[-79.909469,40.42729],[-79.909869,40.427471],[-79.91006,40.427557],[-79.910238,40.427637],[-79.910462,40.427738],[-79.910665,40.42783],[-79.91089,40.427932],[-79.911078,40.428017],[-79.911273,40.428105],[-79.911469,40.428193],[-79.911658,40.428278],[-79.911846,40.428361],[-79.912039,40.428441],[-79.912363,40.428574],[-79.912548,40.42865],[-79.912727,40.428724],[-79.912963,40.428821],[-79.913162,40.428903],[-79.913405,40.429003],[-79.913737,40.429146],[-79.914093,40.4293],[-79.914248,40.429366],[-79.914404,40.429438],[-79.914722,40.429576],[-79.915253,40.429807],[-79.915093,40.430432],[-79.91505,40.431497],[-79.914603,40.43174],[-79.914511,40.43179],[-79.914157,40.431983],[-79.914134,40.431996],[-79.913971,40.432084],[-79.913689,40.432238],[-79.913617,40.432278],[-79.913098,40.432562],[-79.912697,40.432782],[-79.91256,40.432853],[-79.91212,40.433082],[-79.911618,40.432978],[-79.911563,40.43299],[-79.911395,40.433026],[-79.911323,40.432903],[-79.910609,40.433265],[-79.910256,40.433444],[-79.909779,40.433685],[-79.90972,40.433715],[-79.909339,40.433908],[-79.90935,40.433959],[-79.909357,40.433996],[-79.909399,40.434202],[-79.909443,40.434415],[-79.909483,40.434613],[-79.909514,40.434762],[-79.909558,40.434982],[-79.90961,40.435235],[-79.909646,40.435442],[-79.909679,40.435631],[-79.909168,40.435796],[-79.90884,40.436078],[-79.908682,40.436484],[-79.908736,40.436756],[-79.908751,40.436834],[-79.908947,40.437089],[-79.909259,40.437297],[-79.911157,40.437903],[-79.911187,40.437948],[-79.908681,40.43798],[-79.905445,40.438022],[-79.904882,40.438135],[-79.904651,40.438214],[-79.90441,40.438295],[-79.904302,40.438339],[-79.901976,40.439276],[-79.901436,40.439359],[-79.900113,40.439434],[-79.900108,40.43941],[-79.900079,40.439277],[-79.900048,40.43924],[-79.899949,40.439121],[-79.899471,40.438677],[-79.89947,40.439341],[-79.89947,40.439469],[-79.897857,40.43957],[-79.897784,40.439565],[-79.897741,40.439549],[-79.897718,40.439535],[-79.897695,40.439511],[-79.897675,40.439477]]],[[[-79.916045,40.414625],[-79.916995,40.414021],[-79.917151,40.414153],[-79.916748,40.414398],[-79.916094,40.414904],[-79.916045,40.414625]]],[[[-79.904135,40.423516],[-79.904202,40.423509],[-79.904266,40.423511],[-79.904292,40.423519],[-79.904323,40.423553],[-79.90433,40.423579],[-79.904636,40.424312],[-79.904727,40.424531],[-79.904915,40.42475],[-79.905513,40.425444],[-79.900891,40.425682],[-79.902223,40.425487],[-79.902252,40.425483],[-79.901961,40.425009],[-79.901871,40.424862],[-79.901781,40.424714],[-79.901688,40.424562],[-79.901596,40.424411],[-79.90216,40.424209],[-79.902369,40.424134],[-79.902667,40.424027],[-79.902886,40.423948],[-79.903074,40.423881],[-79.903273,40.42381],[-79.903917,40.423579],[-79.904081,40.423521],[-79.904135,40.423516]]],[[[-79.897773,40.425802],[-79.898485,40.425433],[-79.898587,40.425548],[-79.898587,40.425548],[-79.898898,40.425429],[-79.898994,40.425393],[-79.899115,40.425689],[-79.899149,40.425773],[-79.897773,40.425802]]],[[[-79.909148,40.425324],[-79.908529,40.425297],[-79.907564,40.425332],[-79.907142,40.425357],[-79.906952,40.425368],[-79.905931,40.425428],[-79.905757,40.425437],[-79.905087,40.42464],[-79.905065,40.424613],[-79.904912,40.424427],[-79.904859,40.424275],[-79.904713,40.42392],[-79.904484,40.423324],[-79.905223,40.423034],[-79.905758,40.423099],[-79.906159,40.42315],[-79.906398,40.423182],[-79.906635,40.423212],[-79.90687,40.423241],[-79.907045,40.423263],[-79.907062,40.423344],[-79.907314,40.42333],[-79.907214,40.422918],[-79.907328,40.422902],[-79.907328,40.422902],[-79.907399,40.422892],[-79.907229,40.422194],[-79.907157,40.422199],[-79.907122,40.422062],[-79.907064,40.421794],[-79.907,40.421529],[-79.906486,40.41939],[-79.906471,40.419324],[-79.90624,40.418363],[-79.911476,40.417561],[-79.91277,40.417021],[-79.913896,40.416386],[-79.915027,40.417209],[-79.915213,40.417345],[-79.915268,40.417382],[-79.915397,40.417265],[-79.915558,40.41712],[-79.915562,40.417117],[-79.915621,40.417064],[-79.915734,40.416959],[-79.915855,40.416848],[-79.915902,40.416805],[-79.916005,40.416711],[-79.916155,40.416592],[-79.916175,40.416576],[-79.916176,40.416565],[-79.916248,40.416499],[-79.915843,40.416198],[-79.915843,40.416092],[-79.915848,40.415916],[-79.91586,40.415916],[-79.916214,40.415749],[-79.916842,40.415516],[-79.916887,40.4155],[-79.917104,40.415526],[-79.917112,40.415493],[-79.916615,40.415412],[-79.91641,40.415327],[-79.916178,40.415393],[-79.915858,40.415511],[-79.915843,40.415566],[-79.915832,40.41541],[-79.91565,40.41522],[-79.915354,40.415077],[-79.915352,40.415076],[-79.915218,40.415011],[-79.915196,40.415],[-79.915805,40.414641],[-79.915858,40.414761],[-79.916004,40.415085],[-79.916109,40.415185],[-79.916239,40.415229],[-79.916562,40.415339],[-79.916853,40.415418],[-79.917169,40.415504],[-79.917115,40.415685],[-79.917123,40.415722],[-79.917152,40.41586],[-79.917122,40.416029],[-79.917127,40.416191],[-79.917914,40.415622],[-79.918641,40.415743],[-79.918734,40.415794],[-79.918803,40.415827],[-79.918876,40.415855],[-79.918953,40.415876],[-79.919033,40.41589],[-79.919114,40.415898],[-79.919195,40.415899],[-79.919277,40.415893],[-79.919357,40.41588],[-79.919434,40.41586],[-79.919508,40.415834],[-79.919579,40.415802],[-79.919644,40.415764],[-79.919703,40.415721],[-79.919755,40.415674],[-79.919801,40.415622],[-79.919839,40.415566],[-79.920109,40.415094],[-79.920169,40.415004],[-79.920237,40.414917],[-79.920313,40.414833],[-79.920397,40.414754],[-79.920487,40.41468],[-79.920584,40.414611],[-79.920688,40.414547],[-79.920796,40.414489],[-79.92091,40.414437],[-79.921029,40.414392],[-79.921152,40.414352],[-79.921277,40.41432],[-79.921406,40.414294],[-79.920939,40.414706],[-79.920849,40.414791],[-79.920767,40.41488],[-79.920692,40.414973],[-79.920625,40.41507],[-79.920566,40.415169],[-79.920516,40.415272],[-79.920474,40.415376],[-79.920441,40.415482],[-79.920416,40.41559],[-79.920413,40.415616],[-79.920233,40.415925],[-79.920195,40.415967],[-79.92013,40.416032],[-79.920058,40.416093],[-79.91998,40.416149],[-79.919896,40.416199],[-79.919807,40.416244],[-79.919713,40.416283],[-79.919614,40.416316],[-79.919513,40.416342],[-79.919409,40.416362],[-79.919304,40.416375],[-79.919197,40.41638],[-79.91909,40.416379],[-79.918983,40.416371],[-79.918588,40.416328],[-79.918523,40.416324],[-79.918458,40.416326],[-79.918393,40.416335],[-79.918331,40.416349],[-79.918271,40.416368],[-79.918214,40.416394],[-79.918162,40.416424],[-79.918038,40.416506],[-79.917991,40.416541],[-79.917947,40.416578],[-79.917908,40.416618],[-79.917881,40.416652],[-79.917858,40.416687],[-79.917766,40.416833],[-79.917722,40.41691],[-79.917672,40.416978],[-79.917554,40.417112],[-79.917689,40.417256],[-79.917681,40.417318],[-79.917682,40.417379],[-79.917691,40.41744],[-79.91771,40.4175],[-79.917737,40.417558],[-79.917772,40.417613],[-79.917815,40.417665],[-79.917821,40.417671],[-79.917676,40.417768],[-79.917543,40.417866],[-79.917352,40.418038],[-79.917164,40.418245],[-79.916979,40.418471],[-79.916927,40.418533],[-79.916923,40.418539],[-79.916834,40.418644],[-79.916661,40.418839],[-79.916534,40.418971],[-79.916494,40.419014],[-79.916265,40.419237],[-79.916191,40.419289],[-79.916168,40.419301],[-79.916013,40.419432],[-79.915816,40.419576],[-79.915257,40.420004],[-79.914832,40.420284],[-79.914433,40.420479],[-79.914066,40.420576],[-79.913799,40.420631],[-79.913586,40.420703],[-79.913407,40.42077],[-79.913172,40.420897],[-79.912936,40.421078],[-79.91273,40.421306],[-79.912588,40.421452],[-79.912535,40.421503],[-79.911971,40.422128],[-79.912035,40.422189],[-79.91205,40.422203],[-79.912085,40.42225],[-79.912112,40.422299],[-79.912132,40.422351],[-79.912144,40.422404],[-79.912147,40.422458],[-79.912143,40.422512],[-79.912129,40.422566],[-79.912108,40.422617],[-79.912079,40.422667],[-79.912042,40.422714],[-79.911998,40.422757],[-79.911948,40.422795],[-79.911893,40.422829],[-79.911832,40.422858],[-79.911768,40.422881],[-79.9117,40.422898],[-79.911631,40.422909],[-79.91156,40.422913],[-79.911494,40.422912],[-79.91143,40.422905],[-79.911366,40.422892],[-79.911305,40.422875],[-79.910236,40.424076],[-79.909741,40.424648],[-79.909647,40.424757],[-79.909746,40.424791],[-79.909753,40.424793],[-79.909874,40.424834],[-79.910062,40.424858],[-79.910379,40.424898],[-79.910387,40.424899],[-79.910855,40.424963],[-79.91159,40.425064],[-79.911592,40.425064],[-79.911576,40.424972],[-79.911568,40.424918],[-79.911567,40.424912],[-79.911564,40.424898],[-79.911566,40.424898],[-79.911912,40.424875],[-79.91192,40.424874],[-79.911921,40.424874],[-79.911932,40.424948],[-79.911947,40.425022],[-79.911998,40.425192],[-79.912067,40.425344],[-79.91217,40.425524],[-79.912231,40.42562],[-79.912281,40.425729],[-79.910894,40.425559],[-79.9099,40.425426],[-79.909881,40.425424],[-79.909371,40.425354],[-79.909148,40.425324]]],[[[-79.907285,40.423533],[-79.907098,40.423521],[-79.907163,40.423813],[-79.907299,40.424441],[-79.907514,40.42412],[-79.907595,40.423999],[-79.907541,40.423776],[-79.907488,40.423562],[-79.907366,40.423542],[-79.907285,40.423533]]],[[[-79.911306,40.418658],[-79.911217,40.41862],[-79.908496,40.418976],[-79.908071,40.419038],[-79.908116,40.419092],[-79.908154,40.419165],[-79.908433,40.419751],[-79.908519,40.419844],[-79.908625,40.419918],[-79.908755,40.419974],[-79.908952,40.42001],[-79.909131,40.420004],[-79.90921,40.419984],[-79.909886,40.419788],[-79.910693,40.41955],[-79.911045,40.419449],[-79.911143,40.419402],[-79.911232,40.419333],[-79.911317,40.419237],[-79.911366,40.419135],[-79.911378,40.419031],[-79.911376,40.418949],[-79.911306,40.418658]]],[[[-79.90783,40.425658],[-79.908509,40.425635],[-79.908872,40.425657],[-79.908349,40.425822],[-79.907595,40.426256],[-79.907519,40.425875],[-79.907483,40.425695],[-79.90783,40.425658]]],[[[-79.899777,40.441261],[-79.899822,40.44113],[-79.900046,40.44117],[-79.900283,40.44099],[-79.900259,40.440878],[-79.89994,40.440814],[-79.899926,40.440811],[-79.899957,40.440705],[-79.899921,40.440505],[-79.899863,40.440372],[-79.899795,40.440257],[-79.899793,40.440252],[-79.899678,40.440063],[-79.899632,40.439885],[-79.89958,40.439761],[-79.899514,40.439749],[-79.899512,40.439682],[-79.901918,40.439499],[-79.901946,40.439602],[-79.901465,40.439717],[-79.90134,40.439929],[-79.900684,40.440428],[-79.900685,40.440821],[-79.901089,40.441192],[-79.901742,40.442079],[-79.901991,40.443023],[-79.90203,40.443134],[-79.902075,40.443265],[-79.902091,40.443351],[-79.902102,40.443455],[-79.902105,40.443559],[-79.902095,40.44363],[-79.901982,40.444321],[-79.902074,40.444605],[-79.90222,40.444858],[-79.902677,40.445358],[-79.903805,40.445812],[-79.903755,40.446001],[-79.903363,40.44627],[-79.903243,40.446272],[-79.903158,40.446285],[-79.903067,40.446319],[-79.899635,40.4452],[-79.89996,40.4447],[-79.899904,40.44468],[-79.90014,40.44432],[-79.899894,40.444235],[-79.899762,40.444189],[-79.899651,40.44415],[-79.899566,40.444121],[-79.89946,40.444084],[-79.899355,40.444048],[-79.899285,40.444024],[-79.899155,40.443979],[-79.899004,40.443926],[-79.898745,40.44387],[-79.89923,40.442761],[-79.899264,40.442673],[-79.899304,40.442562],[-79.899352,40.442432],[-79.899314,40.442319],[-79.89932,40.442067],[-79.899326,40.441807],[-79.899438,40.441718],[-79.899471,40.44164],[-79.899555,40.441457],[-79.899595,40.441423],[-79.8997,40.441366],[-79.899754,40.441292],[-79.899777,40.441261]]]]}},
{"type":"Feature","properties":{"historic_name":"Beth Abraham Cemetery","type":"CHD"},"geometry":{"type":"MultiPolygon","coordinates":[[[[-79.989503,40.380749],[-79.987542,40.380326],[-79.987971,40.379992],[-79.987153,40.379374],[-79.987426,40.379],[-79.987668,40.378512],[-79.988386,40.378645],[-79.988902,40.378754],[-79.989305,40.378827],[-79.98918,40.379221],[-79.989627,40.379279],[-79.989656,40.378902],[-79.989823,40.378961],[-79.990313,40.379133],[-79.990273,40.379669],[-79.990156,40.379662],[-79.99013,40.379973],[-79.990089,40.380449],[-79.989524,40.380416],[-79.989504,40.380732],[-79.989503,40.380749]]],[[[-79.985381,40.38032],[-79.984882,40.379499],[-79.98517,40.379117],[-79.985618,40.378524],[-79.985824,40.378211],[-79.98624,40.378358],[-79.986345,40.378372],[-79.986346,40.378372],[-79.986675,40.378414],[-79.986736,40.378458],[-79.986905,40.37858],[-79.986966,40.378582],[-79.987226,40.378589],[-79.987499,40.378579],[-79.987363,40.378934],[-79.987057,40.379367],[-79.985959,40.380306],[-79.985533,40.380118],[-79.985444,40.380236],[-79.985381,40.38032]]]]}},
{"type":"Feature","properties":{"historic_name":"Mexican War Streets","type":"CHD"},"geometry":{"type":"Polygon","coordinates":[[[-80.009618,40.455023],[-80.009676,40.455012],[-80.009745,40.454998],[-80.010355,40.454879],[-80.010538,40.454843],[-80.010539,40.454861],[-80.010726,40.454814],[-80.011057,40.454749],[-80.011142,40.454732],[-80.011399,40.454682],[-80.011548,40.454653],[-80.011708,40.45462],[-80.011813,40.454602],[-80.011917,40.454582],[-80.012209,40.454527],[-80.012294,40.454511],[-80.012551,40.45446],[-80.012713,40.454425],[-80.012973,40.45438],[-80.013009,40.454373],[-80.013169,40.454341],[-80.013553,40.454274],[-80.013703,40.454717],[-80.013717,40.454768],[-80.013889,40.454728],[-80.014268,40.454661],[-80.014285,40.454711],[-80.014303,40.454763],[-80.014321,40.454816],[-80.014358,40.454919],[-80.014375,40.454971],[-80.014395,40.455025],[-80.014414,40.455077],[-80.01443,40.455127],[-80.014447,40.455177],[-80.014466,40.455233],[-80.014485,40.455288],[-80.014503,40.455339],[-80.014706,40.455957],[-80.014727,40.456021],[-80.01425,40.456107],[-80.014341,40.456431],[-80.010335,40.457195],[-80.009618,40.455023]]]}},
{"type":"Feature","properties":{"historic_name":"Winter Homes","type":"CHD"},"geometry":{"type":"Polygon","coordinates":[[[-79.985263,40.388752],[-79.98522,40.388669],[-79.985174,40.388577],[-79.985513,40.388375],[-79.985575,40.388472],[-79.985638,40.388573],[-79.985263,40.388752]]]}}
]}
