{"type":"FeatureCollection","features":[
{"type":"Feature","properties":{"HOOD":"Central Lawrenceville"},"geometry":{"type":"MultiPolygon","coordinates":[[[[-79.958893,40.447741],[-79.958844,40.44797],[-79.958796,40.448065],[-79.958722,40.448176],[-79.95865,40.448268],[-79.958477,40.448457],[-79.958327,40.448552],[-79.95807,40.448736],[-79.957869,40.448881],[-79.957815,40.448921],[-79.957713,40.44898],[-79.957528,40.449113],[-79.957356,40.449238],[-79.956981,40.449486],[-79.956965,40.449497],[-79.956781,40.449631],[-79.956398,40.44989],[-79.956279,40.449972],[-79.955482,40.450526],[-79.955272,40.450701],[-79.955239,40.45073],[-79.95498,40.450919],[-79.954907,40.450984],[-79.954807,40.451229],[-79.954508,40.451964],[-79.954409,40.45221],[-79.954358,40.452332],[-79.954206,40.452701],[-79.954156,40.452824],[-79.954133,40.452894],[-79.954111,40.452965],[-79.954074,40.453106],[-79.954073,40.45318],[-79.954071,40.453228],[-79.95409,40.453334],[-79.954098,40.453373],[-79.954134,40.453489],[-79.954186,40.453612],[-79.954263,40.453712],[-79.954308,40.4538],[-79.954406,40.454057],[-79.954477,40.454329],[-79.954539,40.454594],[-79.95462,40.454879],[-79.954988,40.456249],[-79.955049,40.456473],[-79.955112,40.456751],[-79.955187,40.456978],[-79.955282,40.457162],[-79.955277,40.457308],[-79.955538,40.457713],[-79.955666,40.457913],[-79.955793,40.458085],[-79.95595,40.458212],[-79.956182,40.45831],[-79.956448,40.458398],[-79.956952,40.458564],[-79.957223,40.458662],[-79.95722,40.458616],[-79.957198,40.458551],[-79.957077,40.458321],[-79.957431,40.458392],[-79.957831,40.458497],[-79.957916,40.458519],[-79.957982,40.458516],[-79.958104,40.458449],[-79.958381,40.458278],[-79.958514,40.458197],[-79.958556,40.45817],[-79.958683,40.458091],[-79.958726,40.458065],[-79.958856,40.457983],[-79.959247,40.457738],[-79.959378,40.457657],[-79.959511,40.457572],[-79.959913,40.457321],[-79.960047,40.457237],[-79.960122,40.457186],[-79.960347,40.457037],[-79.960423,40.456988],[-79.960969,40.456845],[-79.961449,40.45672],[-79.962608,40.456411],[-79.963155,40.456266],[-79.963382,40.456205],[-79.964067,40.456023],[-79.964295,40.455963],[-79.964591,40.455848],[-79.965687,40.455372],[-79.96593,40.455273],[-79.966008,40.455199],[-79.966047,40.455456],[-79.966013,40.455668],[-79.966076,40.455648],[-79.967421,40.455219],[-79.968305,40.455005],[-79.968968,40.454747],[-79.970034,40.454351],[-79.971462,40.453762],[-79.972566,40.453347],[-79.97367,40.452851],[-79.97374,40.452923],[-79.973998,40.45319],[-79.974185,40.453384],[-79.974156,40.453417],[-79.974073,40.453513],[-79.973982,40.45362],[-79.973619,40.453963],[-79.97354,40.454027],[-79.97335,40.454185],[-79.973379,40.454238],[-79.973466,40.454399],[-79.973496,40.454453],[-79.973547,40.454527],[-79.973573,40.454565],[-79.973711,40.454655],[-79.973761,40.454691],[-79.973835,40.454745],[-79.973648,40.454918],[-79.973611,40.454953],[-79.973161,40.455381],[-79.973093,40.455445],[-79.972908,40.455621],[-79.972932,40.455641],[-79.973004,40.455701],[-79.973028,40.455722],[-79.973043,40.455734],[-79.973088,40.455773],[-79.973104,40.455786],[-79.973632,40.45623],[-79.973784,40.456358],[-79.973902,40.45643],[-79.973974,40.456457],[-79.974042,40.456471],[-79.974136,40.456482],[-79.974229,40.456478],[-79.974325,40.456463],[-79.974412,40.456434],[-79.974725,40.456244],[-79.974765,40.456216],[-79.974842,40.456208],[-79.97495,40.456302],[-79.974691,40.456487],[-79.973535,40.457282],[-79.97325,40.457477],[-79.972397,40.458061],[-79.972113,40.458257],[-79.971828,40.458451],[-79.970973,40.459035],[-79.970689,40.45923],[-79.970405,40.459423],[-79.969554,40.460002],[-79.969271,40.460196],[-79.969032,40.460361],[-79.968317,40.460857],[-79.968186,40.460948],[-79.968077,40.46102],[-79.968352,40.46125],[-79.968422,40.461308],[-79.968493,40.461364],[-79.968706,40.461535],[-79.968778,40.461592],[-79.968852,40.461659],[-79.968903,40.461705],[-79.969079,40.461856],[-79.969156,40.461922],[-79.969237,40.461992],[-79.969482,40.462202],[-79.969564,40.462272],[-79.969643,40.462337],[-79.969881,40.462535],[-79.969961,40.462601],[-79.970247,40.462845],[-79.970312,40.462906],[-79.971658,40.464017],[-79.971925,40.464237],[-79.972423,40.46467],[-79.972648,40.464865],[-79.972636,40.464925],[-79.972625,40.464962],[-79.972617,40.464983],[-79.972508,40.46514],[-79.972502,40.465147],[-79.972443,40.46521],[-79.972383,40.465272],[-79.972323,40.465331],[-79.972263,40.465389],[-79.97219,40.465464],[-79.972119,40.465541],[-79.972045,40.465625],[-79.971973,40.46571],[-79.971892,40.465807],[-79.971811,40.465903],[-79.971787,40.465926],[-79.97165,40.46607],[-79.971615,40.466118],[-79.971555,40.466201],[-79.97148,40.466301],[-79.971405,40.466402],[-79.971322,40.466508],[-79.97124,40.466613],[-79.971163,40.466718],[-79.971085,40.466822],[-79.971017,40.466901],[-79.970888,40.467049],[-79.970857,40.467086],[-79.97078,40.467176],[-79.97071,40.467263],[-79.970639,40.46735],[-79.970594,40.467402],[-79.970547,40.467453],[-79.970546,40.467454],[-79.970545,40.467457],[-79.970544,40.46746],[-79.970544,40.467466],[-79.970543,40.46747],[-79.970542,40.467472],[-79.970534,40.467482],[-79.970524,40.467492],[-79.970518,40.4675],[-79.970508,40.467521],[-79.970506,40.467525],[-79.970503,40.467528],[-79.970489,40.467542],[-79.970474,40.467557],[-79.970459,40.467574],[-79.970453,40.467583],[-79.970441,40.467613],[-79.97043,40.467642],[-79.970417,40.467669],[-79.970404,40.467696],[-79.970387,40.467727],[-79.970366,40.467756],[-79.970361,40.467761],[-79.970354,40.467766],[-79.97034,40.467775],[-79.970332,40.467782],[-79.970319,40.467796],[-79.970308,40.46781],[-79.970294,40.467833],[-79.970187,40.467971],[-79.970155,40.468011],[-79.970144,40.468027],[-79.970133,40.468042],[-79.970118,40.468059],[-79.970102,40.468075],[-79.970076,40.468095],[-79.970068,40.468102],[-79.970057,40.468115],[-79.970047,40.468129],[-79.970017,40.468174],[-79.969987,40.46822],[-79.969958,40.46826],[-79.96993,40.468301],[-79.969921,40.468316],[-79.969912,40.468332],[-79.969903,40.468345],[-79.969893,40.468359],[-79.96987,40.468389],[-79.969846,40.468418],[-79.969832,40.468432],[-79.969818,40.468446],[-79.969806,40.46846],[-79.969796,40.468474],[-79.969779,40.468503],[-79.969762,40.468531],[-79.969747,40.468546],[-79.969732,40.468562],[-79.969711,40.468591],[-79.969689,40.46862],[-79.969675,40.468636],[-79.969661,40.468651],[-79.969653,40.468662],[-79.969648,40.468674],[-79.969639,40.468699],[-79.969628,40.468716],[-79.969529,40.468858],[-79.969516,40.468895],[-79.969509,40.468909],[-79.969502,40.468923],[-79.969442,40.468998],[-79.969381,40.469073],[-79.969372,40.469089],[-79.969364,40.469105],[-79.96935,40.469122],[-79.969335,40.469138],[-79.969298,40.469158],[-79.969295,40.469161],[-79.969266,40.469203],[-79.96925,40.469228],[-79.969239,40.469245],[-79.969219,40.469272],[-79.969199,40.469299],[-79.969192,40.469306],[-79.969184,40.469313],[-79.969169,40.469327],[-79.96912,40.469384],[-79.969072,40.469441],[-79.969059,40.469452],[-79.969045,40.469462],[-79.969038,40.46947],[-79.969033,40.469477],[-79.96903,40.469485],[-79.969022,40.469499],[-79.969004,40.469526],[-79.968985,40.469553],[-79.96897,40.469582],[-79.968962,40.469597],[-79.968846,40.469728],[-79.968834,40.469733],[-79.968814,40.469743],[-79.968791,40.469755],[-79.968769,40.469768],[-79.968758,40.469777],[-79.968748,40.469787],[-79.968729,40.469808],[-79.968715,40.469821],[-79.968708,40.469826],[-79.968699,40.469831],[-79.968681,40.469839],[-79.968671,40.469847],[-79.968666,40.469853],[-79.968661,40.46986],[-79.968651,40.469874],[-79.968638,40.469887],[-79.968625,40.4699],[-79.968622,40.469905],[-79.968619,40.46991],[-79.968614,40.469921],[-79.96861,40.469928],[-79.9686,40.469939],[-79.968587,40.469949],[-79.968563,40.469969],[-79.96855,40.469984],[-79.968533,40.470016],[-79.968515,40.470047],[-79.968507,40.470062],[-79.968499,40.470075],[-79.96849,40.470089],[-79.96848,40.470102],[-79.968469,40.470114],[-79.968457,40.470125],[-79.96843,40.470146],[-79.968415,40.470162],[-79.968405,40.470175],[-79.968396,40.470189],[-79.968372,40.470217],[-79.968344,40.470243],[-79.968338,40.470247],[-79.968331,40.47025],[-79.968317,40.470256],[-79.968308,40.470261],[-79.968304,40.470264],[-79.968299,40.47027],[-79.968297,40.470274],[-79.968288,40.470291],[-79.968279,40.470316],[-79.968277,40.470319],[-79.968235,40.470382],[-79.968204,40.47042],[-79.968096,40.470557],[-79.968091,40.47056],[-79.968062,40.470579],[-79.968053,40.470587],[-79.968046,40.470597],[-79.968037,40.470615],[-79.968032,40.47063],[-79.968026,40.470644],[-79.968018,40.470657],[-79.968009,40.470671],[-79.967998,40.470694],[-79.967996,40.470698],[-79.967982,40.470715],[-79.967967,40.470731],[-79.967952,40.470745],[-79.967938,40.47076],[-79.967917,40.470789],[-79.967896,40.470818],[-79.967883,40.470832],[-79.96787,40.470846],[-79.967852,40.470861],[-79.967833,40.470876],[-79.967814,40.470896],[-79.967796,40.470917],[-79.967782,40.470939],[-79.967768,40.47096],[-79.967722,40.471023],[-79.967673,40.471083],[-79.967637,40.471118],[-79.967597,40.471151],[-79.967575,40.471175],[-79.967561,40.471197],[-79.967552,40.47122],[-79.967535,40.471267],[-79.967518,40.471298],[-79.967413,40.471448],[-79.96738,40.471495],[-79.967355,40.471524],[-79.967329,40.471553],[-79.967318,40.471567],[-79.967309,40.471582],[-79.967286,40.471648],[-79.967266,40.471715],[-79.96726,40.47173],[-79.967253,40.471744],[-79.967245,40.471759],[-79.967236,40.471772],[-79.967224,40.471788],[-79.967212,40.471804],[-79.967195,40.471824],[-79.967177,40.471844],[-79.967146,40.471873],[-79.967132,40.471887],[-79.967108,40.471907],[-79.967045,40.471957],[-79.967043,40.471959],[-79.967041,40.471962],[-79.967039,40.471964],[-79.967037,40.471967],[-79.967035,40.471969],[-79.967034,40.471972],[-79.967032,40.471975],[-79.967031,40.471977],[-79.967029,40.47198],[-79.967028,40.471983],[-79.967025,40.471988],[-79.967022,40.471992],[-79.967019,40.471997],[-79.967017,40.472002],[-79.967014,40.472007],[-79.967011,40.472012],[-79.967009,40.472016],[-79.967006,40.472021],[-79.967003,40.472026],[-79.967,40.47203],[-79.966994,40.472039],[-79.966988,40.472047],[-79.966982,40.472055],[-79.966975,40.472063],[-79.966969,40.472071],[-79.966962,40.472079],[-79.966955,40.472087],[-79.966949,40.472096],[-79.966943,40.472104],[-79.966934,40.472115],[-79.966927,40.472126],[-79.966919,40.472138],[-79.966912,40.472149],[-79.966904,40.472161],[-79.966895,40.472171],[-79.966889,40.472177],[-79.966881,40.472185],[-79.966872,40.472195],[-79.966866,40.472201],[-79.96686,40.472208],[-79.966853,40.472215],[-79.966847,40.472221],[-79.966837,40.472231],[-79.966824,40.472242],[-79.966814,40.472249],[-79.966804,40.472256],[-79.966791,40.472267],[-79.966779,40.472279],[-79.96677,40.47229],[-79.96676,40.472303],[-79.966753,40.472311],[-79.966747,40.472317],[-79.96674,40.472325],[-79.96673,40.472337],[-79.966724,40.472346],[-79.966717,40.472355],[-79.966711,40.472364],[-79.966704,40.472373],[-79.966698,40.472382],[-79.966692,40.472391],[-79.966685,40.4724],[-79.966678,40.472409],[-79.966671,40.472418],[-79.966662,40.47243],[-79.966652,40.472442],[-79.966641,40.472454],[-79.966631,40.472466],[-79.966621,40.472478],[-79.96661,40.472489],[-79.9666,40.472501],[-79.96659,40.472513],[-79.966579,40.472525],[-79.966567,40.47254],[-79.966557,40.472551],[-79.966547,40.472565],[-79.966533,40.472587],[-79.966523,40.472605],[-79.966513,40.472623],[-79.966504,40.472641],[-79.966495,40.472659],[-79.966487,40.472678],[-79.96648,40.472696],[-79.966472,40.472715],[-79.966465,40.472733],[-79.966457,40.472755],[-79.966451,40.472769],[-79.966446,40.472783],[-79.966445,40.472787],[-79.966405,40.47283],[-79.966361,40.472888],[-79.96633,40.472915],[-79.966278,40.47298],[-79.966251,40.473071],[-79.966224,40.473166],[-79.966189,40.473257],[-79.966141,40.473334],[-79.966075,40.473423],[-79.966009,40.473506],[-79.96594,40.473594],[-79.965888,40.473661],[-79.965829,40.473747],[-79.965768,40.473823],[-79.965667,40.473908],[-79.965609,40.473965],[-79.965572,40.474043],[-79.965578,40.474116],[-79.965618,40.474198],[-79.965654,40.474273],[-79.965668,40.474341],[-79.965637,40.474398],[-79.965571,40.474455],[-79.965473,40.474519],[-79.96541,40.474565],[-79.965358,40.474616],[-79.965171,40.47491],[-79.964923,40.47528],[-79.964874,40.475386],[-79.964841,40.475497],[-79.964814,40.475578],[-79.964757,40.475625],[-79.964653,40.475666],[-79.96455,40.475722],[-79.964455,40.475777],[-79.964368,40.475931],[-79.964195,40.476172],[-79.964041,40.476431],[-79.963985,40.476553],[-79.963831,40.476741],[-79.963611,40.477043],[-79.963374,40.477366],[-79.963086,40.477812],[-79.96294,40.478121],[-79.962808,40.478417],[-79.962636,40.478676],[-79.962446,40.478947],[-79.962238,40.479246],[-79.961873,40.479706],[-79.961577,40.479929],[-79.961188,40.480295],[-79.960842,40.480569],[-79.960692,40.480635],[-79.960555,40.480741],[-79.960444,40.480788],[-79.9605,40.480833],[-79.960497,40.480835],[-79.960172,40.481119],[-79.960143,40.481106],[-79.96008,40.481078],[-79.960078,40.481077],[-79.959882,40.48125],[-79.959847,40.481282],[-79.95981,40.481323],[-79.959736,40.481408],[-79.959616,40.481585],[-79.959524,40.481725],[-79.959429,40.481804],[-79.959339,40.481864],[-79.959196,40.48194],[-79.959087,40.482022],[-79.959031,40.482063],[-79.958884,40.482209],[-79.958743,40.48233],[-79.958598,40.482424],[-79.958456,40.482511],[-79.958281,40.482571],[-79.95815,40.482653],[-79.957976,40.482756],[-79.957822,40.482835],[-79.957619,40.482942],[-79.957376,40.483026],[-79.957183,40.483116],[-79.956863,40.48326],[-79.956681,40.483381],[-79.956365,40.483566],[-79.956103,40.483724],[-79.955864,40.483816],[-79.955768,40.483845],[-79.955711,40.48385],[-79.955672,40.483873],[-79.955647,40.483925],[-79.955536,40.484018],[-79.955413,40.484102],[-79.955173,40.484259],[-79.954719,40.484557],[-79.954441,40.484714],[-79.954281,40.484804],[-79.954132,40.484881],[-79.953992,40.484939],[-79.953866,40.484971],[-79.953769,40.485004],[-79.953675,40.485065],[-79.953449,40.485179],[-79.95315,40.485316],[-79.952882,40.485443],[-79.952719,40.485526],[-79.952613,40.485558],[-79.952505,40.485557],[-79.952427,40.485546],[-79.952354,40.485536],[-79.952273,40.485586],[-79.952113,40.485685],[-79.951885,40.485816],[-79.951548,40.485948],[-79.951316,40.486062],[-79.951034,40.486189],[-79.950726,40.486282],[-79.950443,40.486403],[-79.95026,40.486449],[-79.94997,40.486502],[-79.949778,40.486552],[-79.949704,40.486571],[-79.949594,40.486611],[-79.949424,40.486671],[-79.949196,40.486716],[-79.948969,40.486801],[-79.94885,40.486824],[-79.948753,40.48687],[-79.948558,40.486971],[-79.948495,40.487007],[-79.948456,40.487006],[-79.948398,40.486993],[-79.948369,40.487002],[-79.948363,40.487032],[-79.948343,40.487084],[-79.948281,40.487124],[-79.948039,40.487192],[-79.947756,40.487285],[-79.947577,40.487361],[-79.947442,40.487423],[-79.947289,40.487453],[-79.947138,40.487468],[-79.946991,40.487488],[-79.946883,40.487517],[-79.946675,40.487568],[-79.946476,40.487619],[-79.946236,40.48769],[-79.945971,40.487756],[-79.945673,40.487831],[-79.945342,40.487894],[-79.945053,40.48795],[-79.944778,40.488006],[-79.944651,40.488043],[-79.944635,40.488048],[-79.944511,40.488084],[-79.944426,40.488108],[-79.944152,40.488171],[-79.943909,40.48825],[-79.943692,40.48835],[-79.943583,40.488402],[-79.943521,40.488447],[-79.94336,40.488519],[-79.943271,40.488542],[-79.943216,40.488555],[-79.943016,40.488601],[-79.942549,40.488716],[-79.942062,40.48882],[-79.941649,40.488936],[-79.941175,40.489048],[-79.94064,40.489196],[-79.940416,40.489265],[-79.940247,40.489335],[-79.940129,40.489371],[-79.94008,40.489393],[-79.940048,40.489412],[-79.940008,40.489423],[-79.93997,40.489419],[-79.939938,40.489433],[-79.939879,40.489468],[-79.939832,40.489504],[-79.939791,40.489515],[-79.939673,40.489519],[-79.939573,40.489511],[-79.939479,40.48952],[-79.939439,40.489533],[-79.939131,40.489624],[-79.938741,40.489729],[-79.938536,40.489797],[-79.938443,40.489829],[-79.938271,40.489896],[-79.938069,40.489946],[-79.937901,40.489983],[-79.937789,40.489997],[-79.937766,40.49],[-79.937677,40.490012],[-79.937544,40.489598],[-79.937515,40.489506],[-79.937317,40.48891],[-79.937159,40.488437],[-79.937767,40.488222],[-79.938031,40.488124],[-79.938655,40.487901],[-79.940295,40.487317],[-79.941327,40.486952],[-79.942219,40.486638],[-79.942272,40.486618],[-79.942432,40.486562],[-79.942486,40.486544],[-79.94275,40.486452],[-79.942903,40.486397],[-79.944152,40.485951],[-79.944569,40.485803],[-79.944721,40.485749],[-79.944916,40.485678],[-79.945626,40.48542],[-79.945955,40.485295],[-79.946301,40.485166],[-79.945952,40.484879],[-79.945897,40.484828],[-79.945733,40.484675],[-79.945679,40.484625],[-79.945447,40.484419],[-79.944754,40.483802],[-79.944741,40.48379],[-79.944522,40.483598],[-79.94447,40.483582],[-79.944291,40.483581],[-79.944237,40.483586],[-79.944109,40.483598],[-79.943522,40.483344],[-79.943435,40.483305],[-79.943173,40.483188],[-79.943265,40.483036],[-79.943281,40.483019],[-79.943317,40.482997],[-79.943371,40.482981],[-79.94345,40.482978],[-79.943616,40.483006],[-79.94373,40.483022],[-79.94378,40.483019],[-79.943865,40.482997],[-79.943925,40.482998],[-79.943956,40.483],[-79.944118,40.48301],[-79.944153,40.483013],[-79.944514,40.483044],[-79.944567,40.483049],[-79.944604,40.483055],[-79.944765,40.483083],[-79.94486,40.483099],[-79.945147,40.483148],[-79.945243,40.483165],[-79.945194,40.483121],[-79.94505,40.482992],[-79.945003,40.482949],[-79.945139,40.482842],[-79.945469,40.482587],[-79.94555,40.482525],[-79.945689,40.482422],[-79.945556,40.482308],[-79.945337,40.48212],[-79.945158,40.481971],[-79.945095,40.481919],[-79.945027,40.481857],[-79.945064,40.481825],[-79.945179,40.481731],[-79.945217,40.4817],[-79.945442,40.481515],[-79.94612,40.48096],[-79.946346,40.480776],[-79.94646,40.480683],[-79.946676,40.480511],[-79.946807,40.48061],[-79.946925,40.480699],[-79.947049,40.480576],[-79.947192,40.480437],[-79.947428,40.480211],[-79.947457,40.480184],[-79.947549,40.480085],[-79.947463,40.480007],[-79.94745,40.479995],[-79.947204,40.479775],[-79.947118,40.479698],[-79.947026,40.479642],[-79.946753,40.479474],[-79.946663,40.479418],[-79.946866,40.479259],[-79.947006,40.479151],[-79.947276,40.478948],[-79.947486,40.478797],[-79.947696,40.478647],[-79.947625,40.478594],[-79.947414,40.478436],[-79.947344,40.478384],[-79.947055,40.478172],[-79.946976,40.47811],[-79.947149,40.478005],[-79.947369,40.477979],[-79.947743,40.477969],[-79.948048,40.478057],[-79.948725,40.478268],[-79.94887,40.478354],[-79.948887,40.478321],[-79.948896,40.478287],[-79.948947,40.478181],[-79.947943,40.477883],[-79.947061,40.47762],[-79.946893,40.477588],[-79.946765,40.477581],[-79.946574,40.477598],[-79.946423,40.477634],[-79.946257,40.477704],[-79.944537,40.478591],[-79.944417,40.478653],[-79.944036,40.478392],[-79.942896,40.477609],[-79.942719,40.477487],[-79.942517,40.477348],[-79.941617,40.476648],[-79.938918,40.474548],[-79.938374,40.474125],[-79.93821,40.474103],[-79.937943,40.474165],[-79.936532,40.474276],[-79.936522,40.474109],[-79.93494,40.47255],[-79.935078,40.472568],[-79.93537,40.47261],[-79.935456,40.47257],[-79.93562,40.472621],[-79.9358,40.472669],[-79.935892,40.472687],[-79.93606,40.472725],[-79.936564,40.472842],[-79.936653,40.472863],[-79.936733,40.472879],[-79.936804,40.472893],[-79.93702,40.472936],[-79.937092,40.472951],[-79.937465,40.473017],[-79.937819,40.473064],[-79.938239,40.473087],[-79.938286,40.47309],[-79.938645,40.473101],[-79.939085,40.473089],[-79.939416,40.473052],[-79.939743,40.473],[-79.940153,40.472905],[-79.940338,40.472852],[-79.941608,40.472404],[-79.941731,40.472361],[-79.942061,40.472266],[-79.942732,40.472137],[-79.943286,40.472035],[-79.943708,40.471953],[-79.94399,40.471867],[-79.944156,40.471807],[-79.944498,40.471642],[-79.944795,40.471453],[-79.944841,40.471417],[-79.945017,40.471284],[-79.945286,40.47107],[-79.945672,40.470761],[-79.945908,40.470554],[-79.94623,40.470247],[-79.946466,40.470005],[-79.946673,40.469781],[-79.946778,40.469656],[-79.946879,40.469509],[-79.946958,40.469395],[-79.947215,40.468925],[-79.947336,40.468687],[-79.947375,40.468541],[-79.947385,40.468455],[-79.94736,40.468222],[-79.947349,40.468181],[-79.947297,40.46806],[-79.947246,40.467981],[-79.947067,40.467767],[-79.946927,40.467625],[-79.946811,40.467518],[-79.946749,40.467461],[-79.946391,40.46715],[-79.946198,40.467024],[-79.946119,40.466972],[-79.946144,40.466875],[-79.946163,40.466803],[-79.946206,40.466609],[-79.94622,40.466532],[-79.946265,40.466304],[-79.94628,40.466228],[-79.946312,40.466076],[-79.946362,40.46585],[-79.946414,40.465624],[-79.946449,40.465474],[-79.946205,40.46544],[-79.945477,40.465338],[-79.945234,40.465305],[-79.945013,40.465274],[-79.944351,40.465181],[-79.944131,40.465151],[-79.943877,40.465116],[-79.943115,40.465011],[-79.942861,40.464976],[-79.942516,40.464931],[-79.941482,40.464797],[-79.941138,40.464753],[-79.940917,40.464727],[-79.940257,40.464649],[-79.940037,40.464624],[-79.939752,40.464587],[-79.939385,40.464541],[-79.93933,40.464538],[-79.938897,40.464557],[-79.938611,40.46457],[-79.938316,40.464585],[-79.937683,40.464618],[-79.937433,40.464631],[-79.937139,40.464647],[-79.936999,40.464654],[-79.936582,40.464676],[-79.936444,40.464684],[-79.936177,40.464695],[-79.935377,40.46473],[-79.935111,40.464742],[-79.935148,40.464646],[-79.93526,40.464358],[-79.935298,40.464263],[-79.935352,40.464126],[-79.935514,40.463718],[-79.935569,40.463582],[-79.93562,40.463451],[-79.935775,40.463059],[-79.935828,40.462929],[-79.935877,40.46294],[-79.936027,40.462973],[-79.936077,40.462984],[-79.936122,40.462741],[-79.936259,40.462013],[-79.936305,40.461771],[-79.936391,40.461307],[-79.936651,40.459917],[-79.936739,40.459454],[-79.936796,40.459139],[-79.936969,40.458193],[-79.937027,40.457879],[-79.937043,40.457782],[-79.937061,40.457683],[-79.937037,40.45754],[-79.937011,40.457501],[-79.936978,40.457452],[-79.936951,40.457425],[-79.936904,40.457348],[-79.936795,40.45717],[-79.936768,40.457117],[-79.936729,40.457038],[-79.936493,40.456573],[-79.936568,40.456523],[-79.936858,40.456438],[-79.937723,40.456173],[-79.938309,40.456001],[-79.938594,40.455918],[-79.938883,40.455837],[-79.939058,40.455783],[-79.939213,40.455737],[-79.940448,40.455363],[-79.940536,40.455337],[-79.940912,40.455224],[-79.941028,40.455188],[-79.941379,40.455083],[-79.941496,40.455048],[-79.941587,40.455231],[-79.941822,40.455702],[-79.941872,40.455777],[-79.941988,40.455947],[-79.942165,40.455893],[-79.9427,40.455733],[-79.942878,40.45568],[-79.943157,40.455595],[-79.943995,40.455342],[-79.944275,40.455258],[-79.944161,40.455185],[-79.944046,40.455104],[-79.943999,40.455071],[-79.943367,40.454711],[-79.943332,40.454694],[-79.943085,40.454574],[-79.943119,40.454563],[-79.943221,40.454533],[-79.943256,40.454523],[-79.943292,40.454511],[-79.943402,40.454479],[-79.943439,40.454469],[-79.943641,40.454408],[-79.944249,40.454228],[-79.944452,40.454168],[-79.94484,40.454051],[-79.946004,40.453703],[-79.946393,40.453587],[-79.946584,40.453529],[-79.947157,40.453356],[-79.947349,40.453299],[-79.947696,40.453195],[-79.948744,40.452886],[-79.949084,40.452778],[-79.949205,40.45274],[-79.949691,40.452593],[-79.949677,40.452508],[-79.949616,40.452369],[-79.949332,40.451718],[-79.949238,40.451502],[-79.949141,40.451281],[-79.94885,40.45062],[-79.948754,40.4504],[-79.947694,40.447984],[-79.947474,40.447448],[-79.947433,40.447348],[-79.947364,40.447114],[-79.947339,40.447061],[-79.947282,40.44695],[-79.947148,40.446655],[-79.947054,40.446506],[-79.946937,40.446258],[-79.946819,40.445983],[-79.946772,40.445877],[-79.946631,40.44556],[-79.946591,40.445469],[-79.946576,40.445434],[-79.947868,40.445343],[-79.947877,40.44539],[-79.947916,40.4456],[-79.947713,40.445617],[-79.947694,40.445619],[-79.947724,40.445894],[-79.947818,40.445889],[-79.947827,40.445947],[-79.947857,40.446165],[-79.947887,40.446382],[-79.947895,40.446439],[-79.94831,40.446407],[-79.948164,40.445317],[-79.948095,40.444892],[-79.948087,40.444825],[-79.948101,40.444824],[-79.948082,40.444572],[-79.948075,40.444491],[-79.948665,40.444469],[-79.948874,40.444409],[-79.948915,40.444494],[-79.949028,40.44473],[-79.949253,40.444714],[-79.949267,40.444833],[-79.949285,40.444968],[-79.949299,40.445084],[-79.949312,40.445184],[-79.949319,40.445244],[-79.949564,40.44522],[-79.949572,40.44528],[-79.949631,40.445717],[-79.94964,40.445768],[-79.949414,40.445781],[-79.949482,40.446332],[-79.949604,40.446325],[-79.949666,40.446878],[-79.950512,40.446817],[-79.95116,40.447899],[-79.951241,40.447871],[-79.951603,40.447747],[-79.951818,40.447673],[-79.95186,40.447753],[-79.952255,40.447647],[-79.952359,40.447619],[-79.952694,40.448388],[-79.953258,40.447982],[-79.955871,40.4461],[-79.955936,40.446153],[-79.956225,40.446392],[-79.956313,40.446327],[-79.956559,40.446524],[-79.956917,40.446273],[-79.956988,40.446225],[-79.958252,40.44722],[-79.958822,40.447681],[-79.958893,40.447741]]],[[[-79.962211,40.439812],[-79.962266,40.439775],[-79.962,40.439552],[-79.962052,40.439513],[-79.962206,40.439396],[-79.962252,40.439432],[-79.962293,40.439464],[-79.96233,40.439493],[-79.96236,40.439517],[-79.962399,40.439548],[-79.962435,40.439576],[-79.962467,40.439601],[-79.962507,40.439633],[-79.962548,40.439665],[-79.962582,40.439692],[-79.962618,40.43972],[-79.962651,40.439746],[-79.962674,40.439764],[-79.962688,40.439775],[-79.962723,40.439803],[-79.962754,40.439827],[-79.962794,40.439858],[-79.962836,40.439891],[-79.962872,40.43992],[-79.962905,40.439946],[-79.96294,40.439973],[-79.962976,40.440001],[-79.963012,40.440029],[-79.963047,40.440057],[-79.963088,40.44009],[-79.963127,40.44012],[-79.963163,40.440148],[-79.963185,40.440165],[-79.963199,40.440177],[-79.963232,40.440202],[-79.963264,40.440227],[-79.963298,40.440255],[-79.963329,40.440279],[-79.963366,40.440308],[-79.963402,40.440337],[-79.963442,40.440368],[-79.963475,40.440393],[-79.963517,40.440427],[-79.963552,40.440454],[-79.963585,40.440481],[-79.963622,40.440509],[-79.963663,40.440542],[-79.963709,40.440577],[-79.963741,40.440602],[-79.963778,40.440632],[-79.963811,40.440658],[-79.963849,40.440688],[-79.963879,40.440711],[-79.963918,40.440742],[-79.963957,40.440772],[-79.964028,40.440831],[-79.963647,40.441215],[-79.963581,40.441161],[-79.963519,40.441115],[-79.963491,40.441094],[-79.963478,40.441084],[-79.963448,40.441061],[-79.963406,40.441029],[-79.963373,40.441005],[-79.963338,40.440979],[-79.963312,40.440959],[-79.963298,40.440949],[-79.963264,40.440922],[-79.963229,40.440896],[-79.963221,40.44089],[-79.96319,40.44086],[-79.963178,40.44085],[-79.963154,40.440831],[-79.963121,40.440805],[-79.963107,40.440795],[-79.963084,40.440776],[-79.963051,40.44075],[-79.96304,40.440742],[-79.963014,40.440721],[-79.962976,40.440692],[-79.962934,40.44066],[-79.962907,40.440638],[-79.962864,40.440603],[-79.962828,40.440573],[-79.962793,40.440546],[-79.962756,40.440516],[-79.962722,40.440489],[-79.962683,40.440458],[-79.962645,40.440428],[-79.962608,40.440398],[-79.96257,40.440369],[-79.962538,40.440343],[-79.9625,40.440313],[-79.962467,40.440287],[-79.96243,40.440257],[-79.962392,40.440228],[-79.962354,40.440198],[-79.962319,40.44017],[-79.962283,40.440142],[-79.962249,40.440114],[-79.962211,40.440084],[-79.962178,40.440058],[-79.962144,40.440031],[-79.962106,40.440001],[-79.962063,40.439967],[-79.962031,40.439941],[-79.962211,40.439812]]],[[[-79.96576,40.442827],[-79.96576,40.442827],[-79.965483,40.443028],[-79.965182,40.443263],[-79.964898,40.443098],[-79.964832,40.442795],[-79.964803,40.442665],[-79.964779,40.442556],[-79.96476,40.442469],[-79.964737,40.44237],[-79.964719,40.442288],[-79.964703,40.442218],[-79.964687,40.442146],[-79.964674,40.442084],[-79.96466,40.442024],[-79.964647,40.441964],[-79.964616,40.441927],[-79.964404,40.440512],[-79.965107,40.4404],[-79.965103,40.44033],[-79.965094,40.440225],[-79.965089,40.440158],[-79.965085,40.440088],[-79.965079,40.440019],[-79.965073,40.439951],[-79.965067,40.439882],[-79.965063,40.439814],[-79.96506,40.43977],[-79.965059,40.439744],[-79.965055,40.439701],[-79.965053,40.439675],[-79.965049,40.439608],[-79.965045,40.439538],[-79.965039,40.439471],[-79.965035,40.439402],[-79.965032,40.43937],[-79.965029,40.439334],[-79.965025,40.439265],[-79.965019,40.439196],[-79.965014,40.439128],[-79.965008,40.439041],[-79.964975,40.439045],[-79.964821,40.438729],[-79.964574,40.43844],[-79.964924,40.43842],[-79.964925,40.438403],[-79.964971,40.4384],[-79.964964,40.438297],[-79.965003,40.438295],[-79.964996,40.437968],[-79.965301,40.437954],[-79.965381,40.437952],[-79.965339,40.437671],[-79.965022,40.437705],[-79.964638,40.437757],[-79.964064,40.437827],[-79.964007,40.437837],[-79.9623,40.43647],[-79.961501,40.43583],[-79.959603,40.435881],[-79.958894,40.4359],[-79.958193,40.435918],[-79.958201,40.435961],[-79.95826,40.436047],[-79.958423,40.436195],[-79.958702,40.436423],[-79.958853,40.436546],[-79.958987,40.436653],[-79.959391,40.436977],[-79.95978,40.437289],[-79.959808,40.437312],[-79.96054,40.437904],[-79.960777,40.438096],[-79.960794,40.43811],[-79.960883,40.438182],[-79.961153,40.4384],[-79.961243,40.438473],[-79.961258,40.438485],[-79.962649,40.437463],[-79.962735,40.437528],[-79.963373,40.438041],[-79.963439,40.438096],[-79.963411,40.438114],[-79.963195,40.438296],[-79.963126,40.438355],[-79.963061,40.438404],[-79.962074,40.439139],[-79.962013,40.439183],[-79.961833,40.439317],[-79.961773,40.439362],[-79.961553,40.439524],[-79.961473,40.439582],[-79.960574,40.440244],[-79.960476,40.440317],[-79.960278,40.440468],[-79.960256,40.440485],[-79.960189,40.440537],[-79.960168,40.440555],[-79.960013,40.440671],[-79.959905,40.440753],[-79.959718,40.440885],[-79.959543,40.441008],[-79.959462,40.441066],[-79.959386,40.44112],[-79.95936,40.441139],[-79.959343,40.44115],[-79.959214,40.441243],[-79.959172,40.441274],[-79.959032,40.441374],[-79.958799,40.441542],[-79.958612,40.441675],[-79.958472,40.441776],[-79.958252,40.441934],[-79.95798,40.44213],[-79.957819,40.442246],[-79.957441,40.442522],[-79.957341,40.442466],[-79.957044,40.442299],[-79.956945,40.442244],[-79.956934,40.442238],[-79.956881,40.442277],[-79.95665,40.442445],[-79.956597,40.442485],[-79.95655,40.442519],[-79.956494,40.44256],[-79.95616,40.442281],[-79.956081,40.442214],[-79.956146,40.442168],[-79.956441,40.441957],[-79.956974,40.441572],[-79.956219,40.440963],[-79.954824,40.439838],[-79.954751,40.439891],[-79.954366,40.440171],[-79.954309,40.440127],[-79.95444,40.440025],[-79.954349,40.439954],[-79.954598,40.439767],[-79.954672,40.439716],[-79.954461,40.439546],[-79.954387,40.439597],[-79.954126,40.439778],[-79.954027,40.439702],[-79.95398,40.439732],[-79.953914,40.439779],[-79.953859,40.439819],[-79.95381,40.439854],[-79.953738,40.439906],[-79.953692,40.439939],[-79.953672,40.439956],[-79.953888,40.440077],[-79.953979,40.440128],[-79.954031,40.440157],[-79.954081,40.440185],[-79.954129,40.440212],[-79.95418,40.440244],[-79.954272,40.440312],[-79.953994,40.440519],[-79.953929,40.440568],[-79.953777,40.440483],[-79.952581,40.440477],[-79.952609,40.440541],[-79.952612,40.440549],[-79.953352,40.442252],[-79.953391,40.442242],[-79.953449,40.442377],[-79.953728,40.443028],[-79.95377,40.443126],[-79.953548,40.443183],[-79.952139,40.443544],[-79.951673,40.442513],[-79.951678,40.442416],[-79.951636,40.442399],[-79.9513,40.442302],[-79.950971,40.442187],[-79.950659,40.442096],[-79.950346,40.441964],[-79.950048,40.441811],[-79.949728,40.44163],[-79.949247,40.441353],[-79.949178,40.441313],[-79.948956,40.441188],[-79.949483,40.440582],[-79.949697,40.440244],[-79.949777,40.440048],[-79.949791,40.440016],[-79.949835,40.439825],[-79.949868,40.439525],[-79.949864,40.439318],[-79.949847,40.43911],[-79.949805,40.438598],[-79.949794,40.438472],[-79.949673,40.437313],[-79.949661,40.437209],[-79.949584,40.436513],[-79.94959,40.43635],[-79.949602,40.436029],[-79.949629,40.435832],[-79.949712,40.435244],[-79.949863,40.434438],[-79.949894,40.434047],[-79.949887,40.433617],[-79.94984,40.432693],[-79.94979,40.431869],[-79.94967,40.429687],[-79.949663,40.429309],[-79.949661,40.429199],[-79.949733,40.428833],[-79.949817,40.428589],[-79.949916,40.428353],[-79.950084,40.42807],[-79.950434,40.427606],[-79.950786,40.427521],[-79.951081,40.427461],[-79.951289,40.427442],[-79.951471,40.427426],[-79.951671,40.427413],[-79.951828,40.427402],[-79.952374,40.427401],[-79.952564,40.427416],[-79.953061,40.427471],[-79.9535,40.42756],[-79.953536,40.427567],[-79.953754,40.427622],[-79.953877,40.427653],[-79.953922,40.427667],[-79.953976,40.427685],[-79.954415,40.427845],[-79.954574,40.427918],[-79.954629,40.427942],[-79.954717,40.427982],[-79.954794,40.428023],[-79.954848,40.428052],[-79.954893,40.428075],[-79.955079,40.428174],[-79.955138,40.428214],[-79.955259,40.428295],[-79.95528,40.428309],[-79.955431,40.428412],[-79.955783,40.428659],[-79.956125,40.42897],[-79.956275,40.429121],[-79.956332,40.429085],[-79.95637,40.42906],[-79.956437,40.429016],[-79.95653,40.428955],[-79.956564,40.42892],[-79.956581,40.428909],[-79.956628,40.428876],[-79.957131,40.429364],[-79.957523,40.429745],[-79.957742,40.429958],[-79.958064,40.429787],[-79.958438,40.429569],[-79.958689,40.429417],[-79.958932,40.429277],[-79.959205,40.429121],[-79.959446,40.428982],[-79.95947,40.428998],[-79.959538,40.429041],[-79.959558,40.429054],[-79.9596,40.429081],[-79.959667,40.429134],[-79.959756,40.429215],[-79.959871,40.429307],[-79.959973,40.42937],[-79.960069,40.429437],[-79.960154,40.429488],[-79.96022,40.429537],[-79.960284,40.429602],[-79.960303,40.429637],[-79.960361,40.429681],[-79.960484,40.429768],[-79.960567,40.429814],[-79.960637,40.429856],[-79.960676,40.429903],[-79.960699,40.429938],[-79.960801,40.429976],[-79.960908,40.430035],[-79.961024,40.4301],[-79.961142,40.430181],[-79.961229,40.430243],[-79.961318,40.430304],[-79.961391,40.430349],[-79.961509,40.430421],[-79.961588,40.430481],[-79.961699,40.430542],[-79.961799,40.430596],[-79.961921,40.430666],[-79.962023,40.430724],[-79.962139,40.430793],[-79.962217,40.430849],[-79.962332,40.430919],[-79.962402,40.430973],[-79.962477,40.431016],[-79.962602,40.431073],[-79.962729,40.43115],[-79.962863,40.431227],[-79.96308,40.431327],[-79.963315,40.431456],[-79.963474,40.431545],[-79.963636,40.431632],[-79.96381,40.431706],[-79.963983,40.431789],[-79.964156,40.431871],[-79.964313,40.431939],[-79.964467,40.432006],[-79.964621,40.432077],[-79.964782,40.432149],[-79.964929,40.432226],[-79.965014,40.432261],[-79.965133,40.432296],[-79.965283,40.432354],[-79.965494,40.432427],[-79.965608,40.432461],[-79.965773,40.432531],[-79.965895,40.432565],[-79.966047,40.432623],[-79.966185,40.43267],[-79.966382,40.432732],[-79.966431,40.432769],[-79.966579,40.432815],[-79.966957,40.432943],[-79.967068,40.432989],[-79.967763,40.433253],[-79.96804,40.433342],[-79.968132,40.433366],[-79.968311,40.433411],[-79.968504,40.433458],[-79.969195,40.433557],[-79.969799,40.433673],[-79.970436,40.433759],[-79.97131,40.433913],[-79.97198,40.434039],[-79.972702,40.434193],[-79.973018,40.434219],[-79.973115,40.434234],[-79.973138,40.434237],[-79.973297,40.434261],[-79.973345,40.434268],[-79.973408,40.434279],[-79.973386,40.434411],[-79.973336,40.434604],[-79.973021,40.435824],[-79.973,40.435931],[-79.972984,40.436015],[-79.972972,40.436073],[-79.972794,40.436953],[-79.972759,40.437127],[-79.970315,40.436538],[-79.970122,40.436887],[-79.971364,40.437291],[-79.971183,40.43762],[-79.971849,40.437857],[-79.972123,40.438025],[-79.972737,40.438282],[-79.973054,40.438966],[-79.973006,40.43929],[-79.973101,40.439299],[-79.973474,40.439333],[-79.973486,40.439302],[-79.973571,40.439248],[-79.974021,40.439295],[-79.973997,40.439417],[-79.974078,40.439485],[-79.974277,40.439509],[-79.974284,40.439469],[-79.974287,40.439452],[-79.974298,40.439393],[-79.974307,40.43934],[-79.974317,40.439284],[-79.974327,40.43923],[-79.974337,40.439175],[-79.974346,40.439121],[-79.974357,40.439062],[-79.974367,40.439008],[-79.974377,40.438949],[-79.97438,40.438932],[-79.974609,40.438938],[-79.974668,40.438939],[-79.974696,40.438813],[-79.974786,40.438722],[-79.974856,40.438726],[-79.975071,40.438737],[-79.975202,40.438747],[-79.975274,40.438752],[-79.975367,40.438762],[-79.975422,40.438766],[-79.975994,40.438815],[-79.976083,40.438823],[-79.976141,40.438828],[-79.976198,40.438898],[-79.975904,40.439009],[-79.975376,40.43921],[-79.974983,40.43936],[-79.974677,40.439477],[-79.974533,40.439554],[-79.974481,40.439664],[-79.974471,40.439752],[-79.973894,40.439703],[-79.973512,40.43964],[-79.973285,40.43955],[-79.972985,40.439402],[-79.972991,40.439633],[-79.973023,40.439788],[-79.973115,40.439988],[-79.973153,40.440043],[-79.973212,40.440128],[-79.973374,40.440307],[-79.973543,40.440453],[-79.973768,40.440641],[-79.973817,40.440682],[-79.973951,40.440862],[-79.973849,40.440906],[-79.973821,40.440916],[-79.973779,40.440932],[-79.973687,40.440966],[-79.973635,40.440979],[-79.973581,40.440987],[-79.973527,40.44099],[-79.973418,40.440982],[-79.973339,40.440964],[-79.973277,40.440939],[-79.973242,40.440925],[-79.97287,40.440676],[-79.972687,40.440553],[-79.972436,40.440378],[-79.972281,40.440271],[-79.972149,40.440148],[-79.972078,40.440071],[-79.971999,40.439925],[-79.971976,40.439865],[-79.971907,40.43976],[-79.971853,40.439703],[-79.971838,40.439691],[-79.97178,40.439646],[-79.971687,40.439597],[-79.971609,40.439571],[-79.971506,40.439549],[-79.971412,40.439544],[-79.971388,40.439543],[-79.971369,40.439542],[-79.971325,40.439545],[-79.971267,40.439551],[-79.97114,40.439575],[-79.971079,40.439588],[-79.970791,40.439645],[-79.970688,40.439666],[-79.970491,40.439714],[-79.970441,40.43965],[-79.97031,40.439524],[-79.970159,40.439411],[-79.970081,40.439352],[-79.970526,40.438735],[-79.967779,40.437793],[-79.967437,40.437701],[-79.966916,40.437633],[-79.966609,40.437764],[-79.966323,40.438055],[-79.966251,40.438321],[-79.966377,40.438534],[-79.96648,40.438697],[-79.966524,40.439006],[-79.966553,40.439003],[-79.966907,40.438955],[-79.966921,40.43902],[-79.966932,40.439069],[-79.966944,40.439117],[-79.966957,40.439166],[-79.96697,40.439218],[-79.966982,40.439268],[-79.966993,40.439317],[-79.967006,40.439365],[-79.967018,40.439413],[-79.967029,40.439461],[-79.967041,40.439511],[-79.967053,40.439559],[-79.967064,40.439607],[-79.967076,40.439655],[-79.96709,40.439713],[-79.967097,40.439739],[-79.967554,40.439672],[-79.967552,40.439708],[-79.967563,40.439762],[-79.967578,40.439809],[-79.967584,40.439857],[-79.967596,40.439908],[-79.967608,40.439957],[-79.967622,40.440031],[-79.967664,40.440197],[-79.967794,40.440695],[-79.967838,40.440861],[-79.967855,40.440921],[-79.967904,40.441087],[-79.967914,40.441102],[-79.967949,40.441155],[-79.968005,40.441204],[-79.968013,40.441214],[-79.968069,40.441289],[-79.96814,40.441444],[-79.968177,40.441525],[-79.968218,40.441637],[-79.968336,40.441834],[-79.968424,40.442055],[-79.967968,40.442193],[-79.967995,40.442243],[-79.96812,40.442475],[-79.968092,40.442513],[-79.967702,40.442599],[-79.967711,40.442626],[-79.967815,40.442888],[-79.967838,40.442952],[-79.967816,40.442957],[-79.967209,40.443097],[-79.967172,40.443106],[-79.967007,40.443144],[-79.966817,40.443188],[-79.966444,40.443276],[-79.966251,40.443329],[-79.966111,40.443368],[-79.966066,40.443385],[-79.965872,40.443085],[-79.96576,40.442827]]]]}}
]}
