{"type":"FeatureCollection","features":[
{"type":"Feature","properties":{},"geometry":{"type":"Polygon","coordinates":[[[-80.066997,40.426284],[-80.067,40.426014],[-80.067025,40.425746],[-80.067073,40.425479],[-80.067144,40.425215],[-80.067238,40.424955],[-80.067353,40.4247],[-80.06749,40.424452],[-80.067507,40.424424],[-80.067593,40.424284],[-80.067615,40.424239],[-80.067752,40.423991],[-80.06791,40.42375],[-80.068089,40.423518],[-80.068286,40.423295],[-80.068503,40.423082],[-80.068737,40.422881],[-80.068988,40.422691],[-80.069254,40.422515],[-80.069536,40.422352],[-80.06983,40.422204],[-80.070136,40.422071],[-80.070454,40.421953],[-80.07078,40.421852],[-80.071115,40.421767],[-80.071456,40.421699],[-80.071802,40.421648],[-80.072152,40.421614],[-80.072504,40.421599],[-80.072856,40.4216],[-80.073208,40.42162],[-80.073557,40.421656],[-80.073903,40.421711],[-80.074243,40.421782],[-80.074576,40.42187],[-80.0749,40.421975],[-80.075216,40.422096],[-80.075464,40.422205],[-80.075483,40.422214],[-80.075539,40.422241],[-80.075831,40.422392],[-80.076109,40.422557],[-80.076193,40.422612],[-80.076318,40.422695],[-80.076497,40.422819],[-80.076745,40.42301],[-80.076975,40.423214],[-80.077188,40.423429],[-80.077382,40.423654],[-80.077557,40.423888],[-80.07771,40.424131],[-80.077843,40.42438],[-80.077954,40.424636],[-80.078044,40.424897],[-80.07811,40.425161],[-80.078154,40.425428],[-80.078175,40.425697],[-80.078173,40.425967],[-80.078147,40.426236],[-80.078099,40.426503],[-80.078028,40.426766],[-80.077935,40.427026],[-80.077819,40.427281],[-80.077682,40.427529],[-80.077524,40.42777],[-80.077346,40.428002],[-80.077148,40.428226],[-80.076932,40.428438],[-80.076918,40.42845],[-80.076513,40.42882],[-80.076292,40.429009],[-80.076041,40.429199],[-80.075775,40.429375],[-80.075494,40.429538],[-80.075199,40.429686],[-80.074893,40.429819],[-80.074575,40.429937],[-80.074249,40.430038],[-80.073914,40.430123],[-80.073573,40.430191],[-80.073227,40.430242],[-80.072877,40.430276],[-80.072525,40.430292],[-80.072172,40.43029],[-80.071821,40.430271],[-80.071471,40.430234],[-80.071126,40.430179],[-80.070786,40.430108],[-80.070453,40.43002],[-80.070128,40.429915],[-80.069813,40.429794],[-80.069509,40.429658],[-80.069217,40.429507],[-80.068938,40.429342],[-80.068675,40.429163],[-80.068427,40.428971],[-80.068196,40.428767],[-80.067984,40.428552],[-80.06779,40.428327],[-80.067615,40.428093],[-80.067461,40.427851],[-80.067329,40.427601],[-80.067217,40.427345],[-80.067128,40.427085],[-80.067062,40.42682],[-80.067018,40.426553],[-80.066997,40.426284]]]}},
{"type":"Feature","properties":{},"geometry":{"type":"MultiPolygon","coordinates":[[[[-80.013942,40.45066],[-80.013797,40.450533],[-80.013647,40.450659],[-80.01349,40.450781],[-80.013327,40.450897],[-80.013158,40.451007],[-80.012983,40.451113],[-80.012802,40.451213],[-80.012616,40.451307],[-80.012425,40.451395],[-80.012229,40.451476],[-80.01203,40.451552],[-80.011826,40.451621],[-80.011619,40.451684],[-80.011408,40.45174],[-80.011195,40.45179],[-80.010979,40.451832],[-80.010761,40.451868],[-80.010541,40.451897],[-80.01032,40.451919],[-80.010098,40.451934],[-80.009875,40.451942],[-80.00965,40.451943],[-80.009426,40.451936],[-80.009202,40.451923],[-80.008979,40.451902],[-80.008757,40.451875],[-80.008537,40.45184],[-80.00832,40.451798],[-80.008104,40.45175],[-80.007892,40.451694],[-80.007682,40.451632],[-80.007477,40.451564],[-80.007275,40.451488],[-80.007077,40.451407],[-80.006884,40.451319],[-80.006696,40.451225],[-80.006513,40.451126],[-80.006336,40.45102],[-80.006165,40.450909],[-80.006,40.450793],[-80.005841,40.450671],[-80.00569,40.450545],[-80.005545,40.450414],[-80.005407,40.450278],[-80.005277,40.450138],[-80.005155,40.449994],[-80.005041,40.449846],[-80.004935,40.449695],[-80.004837,40.449541],[-80.004748,40.449383],[-80.004667,40.449223],[-80.004595,40.449061],[-80.004533,40.448896],[-80.004479,40.44873],[-80.004434,40.448561],[-80.004399,40.448392],[-80.004372,40.448222],[-80.004355,40.448051],[-80.004348,40.447879],[-80.00435,40.447708],[-80.004361,40.447536],[-80.004381,40.447365],[-80.004411,40.447195],[-80.00445,40.447026],[-80.004498,40.446859],[-80.004555,40.446693],[-80.004622,40.446529],[-80.004697,40.446367],[-80.004781,40.446208],[-80.004873,40.446052],[-80.004974,40.445899],[-80.005083,40.445749],[-80.005201,40.445602],[-80.005326,40.44546],[-80.005426,40.445356],[-80.005105,40.445371],[-80.005003,40.445374],[-80.004833,40.445372],[-80.004766,40.445373],[-80.004681,40.445374],[-80.00425,40.445361],[-80.004196,40.445358],[-80.004032,40.445346],[-80.003869,40.44533],[-80.003706,40.44531],[-80.003544,40.445286],[-80.003394,40.445395],[-80.003238,40.4455],[-80.003077,40.4456],[-80.002911,40.445696],[-80.00274,40.445786],[-80.002564,40.445871],[-80.002385,40.445951],[-80.002201,40.446025],[-80.002014,40.446093],[-80.001823,40.446156],[-80.00163,40.446214],[-80.001328,40.446298],[-80.001191,40.446335],[-80.00109,40.446361],[-80.000878,40.446412],[-80.000663,40.446456],[-80.000446,40.446493],[-80.000227,40.446524],[-80.000007,40.446547],[-79.999786,40.446564],[-79.999564,40.446573],[-79.999342,40.446576],[-79.999119,40.446571],[-79.998897,40.44656],[-79.998676,40.446542],[-79.998457,40.446516],[-79.998238,40.446484],[-79.998022,40.446445],[-79.997808,40.446399],[-79.997596,40.446346],[-79.997388,40.446287],[-79.997183,40.446221],[-79.996982,40.446149],[-79.996866,40.446103],[-79.996771,40.446218],[-79.996642,40.446358],[-79.996506,40.446495],[-79.996363,40.446627],[-79.996213,40.446754],[-79.996056,40.446876],[-79.995893,40.446993],[-79.995723,40.447105],[-79.995547,40.447212],[-79.995366,40.447312],[-79.995179,40.447407],[-79.994987,40.447496],[-79.994791,40.447579],[-79.99459,40.447655],[-79.994386,40.447725],[-79.994177,40.447789],[-79.993966,40.447846],[-79.993751,40.447895],[-79.993534,40.447939],[-79.993315,40.447975],[-79.993094,40.448004],[-79.992872,40.448026],[-79.992648,40.448041],[-79.992424,40.448049],[-79.9922,40.44805],[-79.991976,40.448043],[-79.991752,40.44803],[-79.99153,40.448009],[-79.991308,40.447982],[-79.991089,40.447947],[-79.990871,40.447906],[-79.990656,40.447857],[-79.990444,40.447802],[-79.990235,40.44774],[-79.990029,40.447671],[-79.989828,40.447596],[-79.98963,40.447515],[-79.989437,40.447428],[-79.98925,40.447334],[-79.989067,40.447234],[-79.98889,40.447129],[-79.988719,40.447018],[-79.988554,40.446902],[-79.988396,40.446781],[-79.988244,40.446655],[-79.988099,40.446524],[-79.987962,40.446389],[-79.987832,40.446249],[-79.987709,40.446106],[-79.987595,40.445958],[-79.987489,40.445807],[-79.987391,40.445653],[-79.987302,40.445496],[-79.987221,40.445336],[-79.987149,40.445174],[-79.987086,40.44501],[-79.987031,40.444843],[-79.986986,40.444676],[-79.986951,40.444506],[-79.986924,40.444336],[-79.986907,40.444166],[-79.986899,40.443994],[-79.9869,40.443823],[-79.986911,40.443652],[-79.986931,40.443481],[-79.98696,40.443311],[-79.986998,40.443143],[-79.987046,40.442975],[-79.987103,40.442809],[-79.987168,40.442646],[-79.987243,40.442484],[-79.987326,40.442325],[-79.987418,40.442169],[-79.987518,40.442015],[-79.987627,40.441866],[-79.987743,40.441719],[-79.987868,40.441577],[-79.988,40.441438],[-79.988139,40.441304],[-79.988286,40.441175],[-79.98844,40.44105],[-79.9886,40.44093],[-79.988767,40.440815],[-79.988939,40.440706],[-79.989118,40.440603],[-79.989302,40.440505],[-79.98943,40.440443],[-79.989425,40.440363],[-79.989422,40.440194],[-79.989429,40.440025],[-79.989445,40.439856],[-79.98947,40.439688],[-79.989504,40.439521],[-79.989547,40.439355],[-79.989599,40.439191],[-79.98966,40.439028],[-79.989729,40.438867],[-79.989786,40.43874],[-79.989839,40.438613],[-79.989964,40.438357],[-79.990007,40.438286],[-79.990173,40.438006],[-79.990319,40.437741],[-79.990403,40.437602],[-79.990494,40.437465],[-79.990591,40.437332],[-79.990695,40.437201],[-79.990806,40.437074],[-79.990923,40.43695],[-79.991046,40.436829],[-79.991175,40.436712],[-79.991309,40.436599],[-79.991264,40.436439],[-79.991226,40.436279],[-79.991197,40.436118],[-79.991176,40.435955],[-79.991164,40.435793],[-79.991161,40.43563],[-79.991166,40.435467],[-79.991179,40.435304],[-79.991201,40.435142],[-79.991232,40.43498],[-79.991271,40.43482],[-79.991318,40.434661],[-79.991373,40.434504],[-79.991437,40.434348],[-79.991509,40.434195],[-79.991589,40.434044],[-79.991676,40.433895],[-79.991772,40.433749],[-79.991875,40.433606],[-79.992049,40.433378],[-79.992092,40.433312],[-79.992207,40.433165],[-79.992331,40.433021],[-79.992462,40.432882],[-79.9926,40.432747],[-79.992746,40.432617],[-79.992899,40.432491],[-79.993058,40.432371],[-79.993224,40.432255],[-79.993396,40.432145],[-79.993574,40.432041],[-79.993758,40.431942],[-79.993946,40.43185],[-79.99414,40.431763],[-79.994338,40.431683],[-79.994541,40.431609],[-79.994747,40.431541],[-79.994957,40.43148],[-79.99517,40.431426],[-79.995385,40.431379],[-79.995603,40.431339],[-79.995823,40.431305],[-79.996045,40.431279],[-79.996268,40.43126],[-79.996492,40.431248],[-79.996716,40.431243],[-79.99694,40.431245],[-79.997164,40.431254],[-79.997388,40.431271],[-79.997399,40.431104],[-79.99742,40.430937],[-79.997449,40.430771],[-79.997488,40.430607],[-79.997535,40.430443],[-79.997592,40.430282],[-79.997657,40.430122],[-79.99773,40.429964],[-79.997812,40.429809],[-79.997903,40.429657],[-79.998001,40.429507],[-79.998108,40.429361],[-79.998173,40.429276],[-79.998263,40.429162],[-79.998359,40.429051],[-79.99846,40.428942],[-79.998567,40.428837],[-79.998637,40.428754],[-79.998972,40.428465],[-79.99934,40.428202],[-79.99974,40.427965],[-80.000167,40.427759],[-80.000617,40.427584],[-80.001086,40.427442],[-80.001571,40.427334],[-80.002067,40.427261],[-80.00257,40.427224],[-80.003075,40.427223],[-80.003578,40.427258],[-80.004037,40.427325],[-80.004072,40.427324],[-80.004278,40.427274],[-80.004487,40.42723],[-80.004698,40.427192],[-80.00491,40.427162],[-80.005124,40.427137],[-80.005339,40.42712],[-80.005555,40.427109],[-80.005771,40.427104],[-80.005987,40.427107],[-80.006203,40.427116],[-80.006419,40.427132],[-80.006633,40.427154],[-80.006846,40.427183],[-80.007057,40.427219],[-80.007266,40.427261],[-80.007473,40.427309],[-80.007677,40.427364],[-80.007878,40.427425],[-80.008075,40.427493],[-80.008269,40.427566],[-80.008459,40.427645],[-80.008644,40.42773],[-80.008825,40.427821],[-80.009371,40.428106],[-80.009553,40.428206],[-80.00973,40.428311],[-80.009902,40.428422],[-80.010067,40.428539],[-80.010225,40.42866],[-80.010377,40.428787],[-80.010522,40.428918],[-80.010659,40.429054],[-80.010789,40.429194],[-80.010911,40.429338],[-80.011025,40.429485],[-80.011131,40.429637],[-80.011229,40.429791],[-80.011318,40.429949],[-80.011399,40.430109],[-80.011471,40.430271],[-80.011533,40.430436],[-80.011587,40.430603],[-80.011632,40.430771],[-80.011667,40.43094],[-80.011693,40.431111],[-80.01171,40.431282],[-80.011718,40.431453],[-80.011716,40.431625],[-80.011705,40.431796],[-80.011684,40.431967],[-80.011654,40.432137],[-80.011615,40.432306],[-80.011567,40.432474],[-80.01151,40.43264],[-80.011443,40.432804],[-80.011368,40.432966],[-80.011284,40.433125],[-80.011192,40.433281],[-80.011091,40.433434],[-80.010981,40.433584],[-80.010864,40.43373],[-80.010739,40.433873],[-80.010592,40.434032],[-80.01046,40.434169],[-80.010321,40.434302],[-80.010175,40.434431],[-80.010022,40.434554],[-80.009862,40.434673],[-80.009695,40.434786],[-80.009523,40.434894],[-80.009345,40.434996],[-80.009161,40.435093],[-80.009034,40.435217],[-80.008899,40.435337],[-80.008759,40.435454],[-80.008613,40.435565],[-80.008461,40.435673],[-80.008303,40.435775],[-80.00814,40.435873],[-80.007972,40.435965],[-80.007799,40.436052],[-80.007622,40.436134],[-80.007718,40.436162],[-80.007893,40.436225],[-80.008435,40.436428],[-80.008634,40.436507],[-80.008828,40.436591],[-80.009018,40.436682],[-80.009203,40.436779],[-80.009382,40.436881],[-80.009555,40.43699],[-80.009723,40.437103],[-80.009884,40.437222],[-80.010038,40.437346],[-80.010186,40.437474],[-80.010326,40.437607],[-80.01046,40.437745],[-80.010585,40.437886],[-80.010703,40.438032],[-80.010813,40.438181],[-80.010914,40.438333],[-80.011008,40.438489],[-80.011092,40.438647],[-80.011168,40.438808],[-80.011235,40.438971],[-80.011294,40.439136],[-80.011343,40.439303],[-80.011383,40.439471],[-80.011414,40.439641],[-80.011436,40.439811],[-80.011448,40.439982],[-80.011451,40.440153],[-80.011445,40.440323],[-80.01143,40.440494],[-80.011405,40.440664],[-80.011371,40.440833],[-80.011328,40.441001],[-80.011276,40.441167],[-80.011263,40.441336],[-80.011241,40.441504],[-80.011209,40.441672],[-80.011169,40.441838],[-80.01112,40.442003],[-80.011062,40.442166],[-80.010995,40.442327],[-80.01092,40.442486],[-80.010836,40.442642],[-80.010743,40.442796],[-80.010643,40.442946],[-80.010534,40.443094],[-80.010418,40.443237],[-80.010294,40.443377],[-80.010163,40.443513],[-80.010024,40.443645],[-80.009948,40.443712],[-80.009959,40.443712],[-80.010183,40.443722],[-80.010407,40.44374],[-80.010629,40.443765],[-80.010849,40.443797],[-80.011068,40.443836],[-80.011285,40.443882],[-80.011498,40.443934],[-80.011709,40.443994],[-80.011916,40.44406],[-80.01212,40.444132],[-80.012319,40.444211],[-80.012514,40.444297],[-80.012704,40.444388],[-80.012889,40.444486],[-80.013068,40.444589],[-80.013242,40.444698],[-80.013409,40.444812],[-80.01357,40.444931],[-80.013725,40.445056],[-80.013872,40.445185],[-80.014024,40.445058],[-80.014182,40.444936],[-80.014347,40.444819],[-80.014518,40.444707],[-80.014695,40.444601],[-80.014878,40.4445],[-80.015066,40.444406],[-80.01526,40.444317],[-80.015457,40.444235],[-80.015659,40.444159],[-80.015866,40.44409],[-80.016075,40.444027],[-80.016288,40.443972],[-80.016416,40.443943],[-80.016375,40.443936],[-80.01616,40.443892],[-80.015947,40.443842],[-80.015737,40.443785],[-80.01553,40.443721],[-80.015327,40.443651],[-80.015128,40.443575],[-80.014933,40.443492],[-80.014743,40.443404],[-80.014558,40.443309],[-80.014378,40.443209],[-80.014294,40.443159],[-80.014214,40.443113],[-80.013823,40.442861],[-80.013469,40.442585],[-80.01315,40.442286],[-80.01287,40.441965],[-80.01263,40.441625],[-80.012433,40.44127],[-80.012281,40.440902],[-80.012174,40.440524],[-80.012114,40.440141],[-80.012101,40.439755],[-80.012135,40.43937],[-80.012216,40.438989],[-80.012344,40.438616],[-80.012517,40.438253],[-80.012568,40.438184],[-80.012659,40.438031],[-80.012758,40.437881],[-80.012864,40.437735],[-80.012979,40.437592],[-80.013042,40.437515],[-80.013084,40.437468],[-80.013338,40.437201],[-80.013647,40.436777],[-80.013761,40.43663],[-80.013883,40.436486],[-80.014013,40.436347],[-80.01415,40.436211],[-80.014294,40.43608],[-80.014445,40.435954],[-80.014604,40.435833],[-80.014768,40.435716],[-80.014939,40.435605],[-80.015116,40.4355],[-80.015298,40.4354],[-80.015485,40.435307],[-80.015678,40.435219],[-80.015875,40.435137],[-80.016076,40.435062],[-80.016281,40.434993],[-80.01649,40.434931],[-80.016702,40.434876],[-80.016917,40.434827],[-80.017134,40.434785],[-80.017354,40.43475],[-80.017575,40.434722],[-80.017795,40.434702],[-80.018015,40.434688],[-80.018237,40.434681],[-80.018458,40.434681],[-80.01868,40.434688],[-80.0189,40.434703],[-80.01912,40.434723],[-80.019338,40.434751],[-80.019555,40.434786],[-80.01977,40.434828],[-80.019982,40.434876],[-80.020192,40.43493],[-80.020398,40.434992],[-80.020601,40.43506],[-80.0208,40.435134],[-80.020995,40.435214],[-80.02104,40.435233],[-80.021122,40.435269],[-80.021315,40.435356],[-80.021503,40.43545],[-80.021686,40.435549],[-80.021863,40.435655],[-80.022035,40.435765],[-80.0222,40.435882],[-80.022359,40.436003],[-80.022511,40.436129],[-80.022656,40.43626],[-80.022793,40.436396],[-80.022923,40.436535],[-80.023046,40.436679],[-80.02316,40.436827],[-80.023267,40.436978],[-80.023365,40.437132],[-80.023454,40.437289],[-80.023535,40.437449],[-80.023607,40.437612],[-80.023671,40.437776],[-80.023725,40.437943],[-80.02377,40.438111],[-80.023806,40.43828],[-80.023832,40.43845],[-80.023849,40.438621],[-80.023857,40.438793],[-80.023856,40.438964],[-80.023845,40.439136],[-80.023825,40.439307],[-80.023796,40.439477],[-80.023757,40.439646],[-80.023709,40.439813],[-80.023652,40.439979],[-80.023587,40.440143],[-80.023512,40.440305],[-80.023428,40.440464],[-80.023336,40.44062],[-80.023236,40.440774],[-80.023127,40.440924],[-80.022609,40.441603],[-80.022446,40.441818],[-80.022418,40.441855],[-80.022304,40.442005],[-80.022188,40.44215],[-80.022064,40.442292],[-80.021932,40.442429],[-80.021794,40.442563],[-80.021648,40.442691],[-80.021495,40.442815],[-80.021336,40.442934],[-80.021171,40.443048],[-80.020999,40.443157],[-80.020822,40.44326],[-80.020639,40.443358],[-80.020452,40.443449],[-80.020259,40.443535],[-80.020062,40.443615],[-80.019861,40.443688],[-80.019656,40.443754],[-80.019448,40.443815],[-80.019236,40.443868],[-80.019163,40.443884],[-80.019177,40.443887],[-80.019395,40.44393],[-80.019611,40.44398],[-80.019823,40.444037],[-80.020032,40.4441],[-80.020238,40.444171],[-80.020439,40.444248],[-80.020636,40.444331],[-80.020829,40.44442],[-80.021016,40.444516],[-80.021198,40.444617],[-80.021374,40.444724],[-80.021544,40.444837],[-80.021708,40.444954],[-80.021866,40.445078],[-80.022016,40.445205],[-80.02216,40.445338],[-80.022295,40.445475],[-80.022424,40.445617],[-80.022544,40.445762],[-80.022657,40.445911],[-80.022761,40.446063],[-80.022857,40.446219],[-80.022944,40.446378],[-80.023023,40.446539],[-80.023092,40.446702],[-80.023153,40.446868],[-80.023204,40.447036],[-80.023246,40.447205],[-80.023279,40.447375],[-80.023303,40.447546],[-80.023317,40.447717],[-80.023322,40.447889],[-80.023318,40.448061],[-80.023304,40.448233],[-80.023281,40.448404],[-80.023248,40.448574],[-80.023206,40.448743],[-80.023155,40.448911],[-80.023095,40.449077],[-80.023025,40.44924],[-80.022947,40.449402],[-80.02286,40.44956],[-80.022765,40.449716],[-80.022661,40.449869],[-80.022549,40.450018],[-80.022429,40.450163],[-80.022301,40.450305],[-80.022165,40.450442],[-80.022022,40.450575],[-80.021872,40.450703],[-80.021715,40.450826],[-80.021551,40.450944],[-80.021381,40.451057],[-80.021205,40.451165],[-80.021023,40.451266],[-80.020836,40.451362],[-80.020644,40.451451],[-80.020447,40.451535],[-80.020245,40.451612],[-80.02004,40.451682],[-80.019831,40.451746],[-80.019619,40.451804],[-80.019403,40.451854],[-80.019185,40.451897],[-80.018965,40.451934],[-80.018744,40.451963],[-80.01852,40.451986],[-80.018296,40.452001],[-80.018071,40.452009],[-80.017851,40.45201],[-80.01763,40.452004],[-80.01741,40.451991],[-80.017191,40.451971],[-80.016973,40.451944],[-80.016757,40.451911],[-80.016543,40.451871],[-80.016331,40.451824],[-80.016122,40.451771],[-80.015916,40.451711],[-80.015713,40.451645],[-80.015514,40.451572],[-80.015319,40.451494],[-80.015128,40.451409],[-80.014942,40.451318],[-80.014762,40.451222],[-80.014586,40.45112],[-80.014416,40.451013],[-80.014252,40.4509],[-80.014094,40.450783],[-80.013942,40.45066]]],[[[-80.002461,40.436268],[-80.002111,40.436117],[-80.002075,40.436262],[-80.002031,40.436406],[-80.00198,40.436549],[-80.00192,40.43669],[-80.001853,40.436828],[-80.001779,40.436965],[-80.001909,40.436868],[-80.002044,40.436776],[-80.002183,40.436688],[-80.002328,40.436604],[-80.002476,40.436524],[-80.002628,40.436449],[-80.002784,40.436378],[-80.002461,40.436268]]],[[[-79.995059,40.380614],[-79.995561,40.380577],[-79.995825,40.380572],[-79.996194,40.380572],[-79.996419,40.380576],[-79.996643,40.380587],[-79.996867,40.380605],[-79.99709,40.38063],[-79.997311,40.380662],[-79.99753,40.380701],[-79.997747,40.380748],[-79.997961,40.380801],[-79.998172,40.380861],[-79.99838,40.380927],[-79.998583,40.381],[-79.998783,40.38108],[-79.998978,40.381166],[-79.999168,40.381258],[-79.999353,40.381356],[-79.999533,40.38146],[-79.999706,40.38157],[-79.999874,40.381685],[-80.000035,40.381805],[-80.000189,40.38193],[-80.000336,40.38206],[-80.000476,40.382195],[-80.000609,40.382334],[-80.000734,40.382477],[-80.000851,40.382624],[-80.00096,40.382775],[-80.00106,40.382929],[-80.001152,40.383086],[-80.001236,40.383246],[-80.00131,40.383409],[-80.001376,40.383573],[-80.001432,40.38374],[-80.001479,40.383908],[-80.001517,40.384078],[-80.001546,40.384249],[-80.001566,40.38442],[-80.001576,40.384592],[-80.001707,40.384738],[-80.001827,40.384869],[-80.002081,40.385191],[-80.002181,40.385332],[-80.002309,40.385502],[-80.002483,40.385749],[-80.002678,40.386051],[-80.002754,40.386174],[-80.002878,40.386383],[-80.002961,40.386532],[-80.003102,40.386797],[-80.003204,40.387004],[-80.003343,40.387314],[-80.003426,40.387515],[-80.00354,40.387815],[-80.003635,40.388109],[-80.003723,40.388427],[-80.003799,40.388778],[-80.003855,40.389129],[-80.003885,40.389384],[-80.003919,40.389839],[-80.003923,40.389885],[-80.003948,40.390291],[-80.004048,40.391891],[-80.004168,40.393526],[-80.004176,40.393685],[-80.004175,40.393844],[-80.004167,40.394003],[-80.00415,40.394161],[-80.004126,40.394319],[-80.004093,40.394476],[-80.004052,40.394632],[-80.004003,40.394787],[-80.003946,40.39494],[-80.003882,40.395091],[-80.00381,40.39524],[-80.00373,40.395387],[-80.003631,40.395745],[-80.003415,40.396382],[-80.003728,40.396923],[-80.003813,40.397079],[-80.00389,40.397238],[-80.003959,40.397398],[-80.004018,40.397561],[-80.004069,40.397726],[-80.004127,40.397935],[-80.004171,40.398094],[-80.004229,40.398291],[-80.004268,40.398425],[-80.004311,40.398572],[-80.00435,40.398704],[-80.004371,40.398777],[-80.00439,40.398843],[-80.00441,40.398921],[-80.004595,40.398983],[-80.004776,40.399051],[-80.004954,40.399124],[-80.005129,40.399202],[-80.005299,40.399285],[-80.005465,40.399373],[-80.005626,40.399466],[-80.005783,40.399563],[-80.005935,40.399665],[-80.005984,40.399699],[-80.006127,40.399803],[-80.006266,40.39991],[-80.006399,40.400021],[-80.006527,40.400135],[-80.006649,40.400254],[-80.00672,40.400325],[-80.00685,40.400461],[-80.006972,40.400601],[-80.007087,40.400745],[-80.007194,40.400893],[-80.007293,40.401043],[-80.007384,40.401197],[-80.007467,40.401353],[-80.007541,40.401512],[-80.007607,40.401673],[-80.007664,40.401835],[-80.007712,40.402],[-80.007751,40.402166],[-80.007782,40.402333],[-80.007803,40.4025],[-80.007816,40.402669],[-80.007819,40.402837],[-80.007814,40.403006],[-80.007799,40.403174],[-80.007776,40.403342],[-80.007743,40.403508],[-80.007702,40.403674],[-80.007652,40.403838],[-80.007593,40.404],[-80.007525,40.404161],[-80.007449,40.404319],[-80.007364,40.404475],[-80.007271,40.404628],[-80.007171,40.404778],[-80.007062,40.404924],[-80.007209,40.40504],[-80.007351,40.405161],[-80.007485,40.405286],[-80.007614,40.405414],[-80.007735,40.405547],[-80.007849,40.405684],[-80.007956,40.405823],[-80.008056,40.405966],[-80.008148,40.406112],[-80.008232,40.40626],[-80.00832,40.406398],[-80.008402,40.406539],[-80.008476,40.406682],[-80.008543,40.406826],[-80.008602,40.406973],[-80.008654,40.407121],[-80.008699,40.407271],[-80.008736,40.407422],[-80.008765,40.407574],[-80.008778,40.407649],[-80.008878,40.40779],[-80.009053,40.407874],[-80.009224,40.407963],[-80.009389,40.408057],[-80.00955,40.408156],[-80.009705,40.40826],[-80.009855,40.408368],[-80.009999,40.408481],[-80.010137,40.408599],[-80.010269,40.40872],[-80.010394,40.408845],[-80.010513,40.408974],[-80.010625,40.409106],[-80.010956,40.40939],[-80.011163,40.409597],[-80.011183,40.409619],[-80.011299,40.409749],[-80.011408,40.409882],[-80.011511,40.410018],[-80.011607,40.410157],[-80.011695,40.410298],[-80.011776,40.410442],[-80.01185,40.410589],[-80.011916,40.410738],[-80.011975,40.410888],[-80.012026,40.41104],[-80.012081,40.411113],[-80.012222,40.411302],[-80.012351,40.411476],[-80.012449,40.411612],[-80.012539,40.411752],[-80.012622,40.411894],[-80.012698,40.412038],[-80.012765,40.412185],[-80.013605,40.412752],[-80.013649,40.412782],[-80.013814,40.412898],[-80.013972,40.413019],[-80.014123,40.413145],[-80.014268,40.413276],[-80.014405,40.413411],[-80.014534,40.41355],[-80.014656,40.413693],[-80.014771,40.41384],[-80.014877,40.413991],[-80.014974,40.414145],[-80.015064,40.414302],[-80.015144,40.414461],[-80.015216,40.414623],[-80.01531,40.414765],[-80.015396,40.414909],[-80.015475,40.415057],[-80.015545,40.415206],[-80.015607,40.415358],[-80.015661,40.415511],[-80.016021,40.416604],[-80.016071,40.41677],[-80.016112,40.416937],[-80.016144,40.417106],[-80.016167,40.417276],[-80.01618,40.417446],[-80.016185,40.417617],[-80.01618,40.417787],[-80.016165,40.417957],[-80.016142,40.418127],[-80.016109,40.418296],[-80.016068,40.418463],[-80.016017,40.418629],[-80.015957,40.418793],[-80.015849,40.419071],[-80.01578,40.419232],[-80.015703,40.419392],[-80.015618,40.419548],[-80.015524,40.419702],[-80.015422,40.419853],[-80.015312,40.42],[-80.015194,40.420144],[-80.015069,40.420284],[-80.014936,40.42042],[-80.014796,40.420552],[-80.014648,40.420679],[-80.014492,40.420809],[-80.014214,40.421023],[-80.014152,40.421063],[-80.014071,40.421203],[-80.013983,40.42134],[-80.013888,40.421475],[-80.013787,40.421606],[-80.013679,40.421735],[-80.013565,40.42186],[-80.013444,40.421982],[-80.013318,40.422101],[-80.013185,40.422215],[-80.013047,40.422326],[-80.012858,40.422473],[-80.012712,40.422583],[-80.01256,40.422688],[-80.012403,40.422789],[-80.012241,40.422885],[-80.012075,40.422976],[-80.011904,40.423062],[-80.011729,40.423144],[-80.01155,40.42322],[-80.011367,40.423291],[-80.011181,40.423357],[-80.010826,40.423476],[-80.010645,40.423534],[-80.010376,40.423604],[-80.010238,40.423735],[-80.010092,40.423862],[-80.00994,40.423984],[-80.009781,40.424101],[-80.009616,40.424213],[-80.009446,40.42432],[-80.009269,40.424421],[-80.009088,40.424517],[-80.008901,40.424606],[-80.00871,40.42469],[-80.008514,40.424768],[-80.008314,40.424839],[-80.008111,40.424905],[-80.007904,40.424963],[-80.007694,40.425015],[-80.007482,40.425061],[-80.007267,40.4251],[-80.007051,40.425131],[-80.006833,40.425157],[-80.00661,40.425179],[-80.00639,40.425197],[-80.006168,40.425209],[-80.005947,40.425214],[-80.005725,40.425211],[-80.005503,40.425202],[-80.005282,40.425186],[-80.005063,40.425163],[-80.004844,40.425132],[-80.004628,40.425095],[-80.004413,40.425052],[-80.004201,40.425001],[-80.003993,40.424944],[-80.003787,40.424881],[-80.003585,40.424811],[-80.003387,40.424734],[-80.003193,40.424652],[-80.003004,40.424563],[-80.002819,40.424469],[-80.00264,40.424369],[-80.002467,40.424263],[-80.002299,40.424152],[-80.002137,40.424036],[-80.001982,40.423915],[-80.001834,40.423789],[-80.001692,40.423658],[-80.001558,40.423523],[-80.001431,40.423384],[-80.001311,40.423241],[-80.0012,40.423095],[-80.001096,40.422945],[-80.001,40.422792],[-80.000913,40.422636],[-80.000835,40.422477],[-80.000764,40.422316],[-80.000703,40.422153],[-80.000678,40.422082],[-80.00063,40.421933],[-80.00059,40.421783],[-80.000557,40.421632],[-80.000533,40.421479],[-80.000516,40.421327],[-80.000507,40.421173],[-80.000487,40.421006],[-80.000475,40.420838],[-80.000472,40.42067],[-80.000479,40.420502],[-80.000494,40.420334],[-80.000518,40.420167],[-80.000552,40.42],[-80.000594,40.419835],[-80.000645,40.419672],[-80.000705,40.41951],[-80.000774,40.41935],[-80.000851,40.419192],[-80.000936,40.419037],[-80.00103,40.418885],[-80.001132,40.418736],[-80.001241,40.41859],[-80.001359,40.418448],[-80.001484,40.418309],[-80.001616,40.418175],[-80.001756,40.418045],[-80.001902,40.417919],[-80.002055,40.417798],[-80.002214,40.417682],[-80.00238,40.417571],[-80.002551,40.417466],[-80.002728,40.417366],[-80.00291,40.417271],[-80.003097,40.417182],[-80.003288,40.417099],[-80.003484,40.417023],[-80.003337,40.416909],[-80.002982,40.416609],[-80.002652,40.416299],[-80.00254,40.416178],[-80.002433,40.416059],[-80.002266,40.415859],[-80.002241,40.415825],[-80.002184,40.415755],[-80.002108,40.415657],[-80.002053,40.415584],[-80.001996,40.415508],[-80.001932,40.415419],[-80.001891,40.415361],[-80.001854,40.415308],[-80.001775,40.415188],[-80.001729,40.415118],[-80.001607,40.414913],[-80.001529,40.414778],[-80.001423,40.414583],[-80.001313,40.414367],[-80.001245,40.414231],[-80.001166,40.414151],[-80.001134,40.414118],[-80.000886,40.413861],[-80.000607,40.413541],[-80.000485,40.413368],[-80.000365,40.413256],[-80.000251,40.41314],[-80.000143,40.41302],[-80.000043,40.412897],[-79.99995,40.412771],[-79.999863,40.412642],[-79.999797,40.412541],[-79.999775,40.412508],[-79.999694,40.412385],[-79.999502,40.412098],[-79.99932,40.412001],[-79.999144,40.411897],[-79.998973,40.411789],[-79.998808,40.411675],[-79.99865,40.411555],[-79.998498,40.411431],[-79.998353,40.411303],[-79.998216,40.411169],[-79.998085,40.411032],[-79.997962,40.410891],[-79.997847,40.410745],[-79.997739,40.410597],[-79.99764,40.410445],[-79.997549,40.41029],[-79.997467,40.410132],[-79.997393,40.409972],[-79.997328,40.40981],[-79.997272,40.409645],[-79.997224,40.409479],[-79.997186,40.409312],[-79.997157,40.409144],[-79.997136,40.408975],[-79.997125,40.408805],[-79.997124,40.408635],[-79.997131,40.408466],[-79.997147,40.408296],[-79.997173,40.408128],[-79.997208,40.40796],[-79.997251,40.407793],[-79.997304,40.407628],[-79.997366,40.407465],[-79.997238,40.407401],[-79.996908,40.407191],[-79.996841,40.407145],[-79.996551,40.406929],[-79.996475,40.406868],[-79.99634,40.406756],[-79.996211,40.40664],[-79.996087,40.406521],[-79.99597,40.406398],[-79.995858,40.406272],[-79.995752,40.406143],[-79.995731,40.406116],[-79.995637,40.406003],[-79.995574,40.405925],[-79.995444,40.405754],[-79.995349,40.405623],[-79.995258,40.405495],[-79.995201,40.405412],[-79.995133,40.405313],[-79.995113,40.405281],[-79.995049,40.405185],[-79.994857,40.404861],[-79.994793,40.404739],[-79.994706,40.40456],[-79.994654,40.404446],[-79.994577,40.404264],[-79.994543,40.404176],[-79.994496,40.404064],[-79.994392,40.403775],[-79.994353,40.403649],[-79.994296,40.40344],[-79.994258,40.403284],[-79.99423,40.403171],[-79.994192,40.402992],[-79.994179,40.402925],[-79.994153,40.402796],[-79.994053,40.402316],[-79.993938,40.401922],[-79.993652,40.401291],[-79.993589,40.401143],[-79.993533,40.400992],[-79.993484,40.400841],[-79.993444,40.400687],[-79.993411,40.400533],[-79.993386,40.400378],[-79.993369,40.400222],[-79.993359,40.400066],[-79.993358,40.39991],[-79.993364,40.399753],[-79.992835,40.398711],[-79.992735,40.39856],[-79.992643,40.398407],[-79.992559,40.39825],[-79.992484,40.398092],[-79.992417,40.397931],[-79.992358,40.397768],[-79.992309,40.397603],[-79.992268,40.397437],[-79.992236,40.39727],[-79.992213,40.397102],[-79.992199,40.396933],[-79.992194,40.396765],[-79.992198,40.396596],[-79.992211,40.396427],[-79.992232,40.396259],[-79.992263,40.396092],[-79.992303,40.395926],[-79.992351,40.395761],[-79.992409,40.395598],[-79.992474,40.395436],[-79.992549,40.395277],[-79.992632,40.395121],[-79.992638,40.395049],[-79.992656,40.394892],[-79.992682,40.394736],[-79.992716,40.394581],[-79.992758,40.394427],[-79.992808,40.394274],[-79.992866,40.394124],[-79.992932,40.393975],[-79.992903,40.393785],[-79.992832,40.3936],[-79.992733,40.39322],[-79.992698,40.393094],[-79.992583,40.392718],[-79.992524,40.392344],[-79.992505,40.39215],[-79.992469,40.39181],[-79.99245,40.391441],[-79.992454,40.391115],[-79.992467,40.390889],[-79.992457,40.39082],[-79.992445,40.390634],[-79.992426,40.390099],[-79.992328,40.390016],[-79.992184,40.38989],[-79.992048,40.389759],[-79.991919,40.389625],[-79.991797,40.389486],[-79.991683,40.389343],[-79.991577,40.389197],[-79.991479,40.389048],[-79.991389,40.388896],[-79.991235,40.388681],[-79.991043,40.388383],[-79.990875,40.388125],[-79.990782,40.387973],[-79.990697,40.387819],[-79.99062,40.387662],[-79.990552,40.387503],[-79.990492,40.387341],[-79.990441,40.387178],[-79.990399,40.387014],[-79.990365,40.386848],[-79.99034,40.386682],[-79.990323,40.386537],[-79.990318,40.386502],[-79.990287,40.386239],[-79.990272,40.386084],[-79.990265,40.385929],[-79.990266,40.385773],[-79.990274,40.385618],[-79.99029,40.385463],[-79.990297,40.38541],[-79.99035,40.384991],[-79.990368,40.384861],[-79.990376,40.384796],[-79.990403,40.384576],[-79.990433,40.384404],[-79.990449,40.384322],[-79.990471,40.384215],[-79.990495,40.3841],[-79.990506,40.384044],[-79.990545,40.383878],[-79.990593,40.383713],[-79.99065,40.38355],[-79.990715,40.383389],[-79.990789,40.38323],[-79.990872,40.383074],[-79.990963,40.38292],[-79.991062,40.382769],[-79.991169,40.382621],[-79.991283,40.382477],[-79.991406,40.382337],[-79.991536,40.3822],[-79.991673,40.382068],[-79.991817,40.38194],[-79.991967,40.381817],[-79.992125,40.381698],[-79.992288,40.381585],[-79.992457,40.381477],[-79.992632,40.381374],[-79.992813,40.381277],[-79.992998,40.381185],[-79.993188,40.3811],[-79.993383,40.38102],[-79.993582,40.380947],[-79.993784,40.380879],[-79.99399,40.380819],[-79.994199,40.380764],[-79.994411,40.380717],[-79.994625,40.380676],[-79.994841,40.380642],[-79.995059,40.380614]]],[[[-79.916797,40.461687],[-79.916776,40.461636],[-79.91667,40.461195],[-79.916646,40.460683],[-79.916674,40.460245],[-79.916782,40.459807],[-79.916927,40.459375],[-79.917061,40.45898],[-79.917325,40.458469],[-79.918205,40.457219],[-79.918469,40.456922],[-79.918886,40.456556],[-79.919305,40.456245],[-79.919749,40.455986],[-79.920161,40.455778],[-79.92034,40.455681],[-79.920524,40.45559],[-79.920712,40.455505],[-79.920905,40.455425],[-79.921103,40.455352],[-79.921303,40.455285],[-79.921508,40.455224],[-79.921715,40.45517],[-79.921925,40.455122],[-79.922138,40.455081],[-79.922352,40.455046],[-79.922569,40.455019],[-79.922786,40.454998],[-79.923005,40.454984],[-79.923224,40.454976],[-79.923443,40.454976],[-79.923662,40.454982],[-79.923881,40.454996],[-79.924098,40.455016],[-79.924346,40.455042],[-79.924843,40.455114],[-79.924915,40.455127],[-79.92506,40.455155],[-79.925269,40.455199],[-79.925476,40.455249],[-79.925679,40.455305],[-79.92588,40.455368],[-79.926077,40.455437],[-79.926271,40.455512],[-79.92646,40.455593],[-79.926645,40.455679],[-79.926825,40.455772],[-79.927,40.455869],[-79.927169,40.455972],[-79.92719,40.455804],[-79.927221,40.455636],[-79.927261,40.455469],[-79.927309,40.455304],[-79.927367,40.45514],[-79.927434,40.454978],[-79.927509,40.454819],[-79.927593,40.454662],[-79.927685,40.454508],[-79.927786,40.454356],[-79.927895,40.454209],[-79.928012,40.454065],[-79.928137,40.453924],[-79.928269,40.453788],[-79.928409,40.453657],[-79.928555,40.453529],[-79.928709,40.453407],[-79.928869,40.453289],[-79.929035,40.453177],[-79.929208,40.45307],[-79.929386,40.452969],[-79.92947,40.452916],[-79.929503,40.452894],[-79.929543,40.452869],[-79.929704,40.452771],[-79.929899,40.452656],[-79.930077,40.452557],[-79.93026,40.452463],[-79.930448,40.452375],[-79.93064,40.452293],[-79.930837,40.452218],[-79.931038,40.452148],[-79.931242,40.452085],[-79.931449,40.452028],[-79.93166,40.451978],[-79.931873,40.451934],[-79.932088,40.451897],[-79.932304,40.451867],[-79.932523,40.451844],[-79.932742,40.451827],[-79.932962,40.451818],[-79.933182,40.451815],[-79.933403,40.451819],[-79.933622,40.45183],[-79.933842,40.451848],[-79.93406,40.451873],[-79.934276,40.451904],[-79.934491,40.451943],[-79.934703,40.451988],[-79.934913,40.452039],[-79.93512,40.452097],[-79.935323,40.452162],[-79.935523,40.452233],[-79.935719,40.45231],[-79.93591,40.452393],[-79.936098,40.452482],[-79.93628,40.452577],[-79.936456,40.452677],[-79.936628,40.452783],[-79.936793,40.452894],[-79.936953,40.453011],[-79.937106,40.453132],[-79.937252,40.453258],[-79.937392,40.453388],[-79.937524,40.453522],[-79.937649,40.453661],[-79.937767,40.453803],[-79.937876,40.453949],[-79.937978,40.454099],[-79.938072,40.454251],[-79.938135,40.454359],[-79.938217,40.454499],[-79.938303,40.454652],[-79.93838,40.454809],[-79.938449,40.454968],[-79.938509,40.455128],[-79.938561,40.455291],[-79.938604,40.455455],[-79.938639,40.45562],[-79.938664,40.455786],[-79.938681,40.455953],[-79.938689,40.45612],[-79.938688,40.456287],[-79.938678,40.456454],[-79.938659,40.456621],[-79.938632,40.456787],[-79.938595,40.456952],[-79.93855,40.457115],[-79.938496,40.457277],[-79.938434,40.457438],[-79.938363,40.457596],[-79.938284,40.457752],[-79.938196,40.457905],[-79.938101,40.458056],[-79.937997,40.458203],[-79.937886,40.458347],[-79.937767,40.458488],[-79.937641,40.458624],[-79.937508,40.458757],[-79.937367,40.458885],[-79.93722,40.459009],[-79.937067,40.459129],[-79.936907,40.459243],[-79.936742,40.459353],[-79.936247,40.459666],[-79.936155,40.459723],[-79.936041,40.459792],[-79.935864,40.459895],[-79.935682,40.459992],[-79.935494,40.460083],[-79.935302,40.460169],[-79.935106,40.460248],[-79.934905,40.460321],[-79.9347,40.460388],[-79.934492,40.460448],[-79.934281,40.460501],[-79.934067,40.460548],[-79.933851,40.460588],[-79.933633,40.460621],[-79.933413,40.460647],[-79.933192,40.460666],[-79.932971,40.460678],[-79.932748,40.460684],[-79.932526,40.460682],[-79.932304,40.460673],[-79.932083,40.460657],[-79.931862,40.460635],[-79.931643,40.460605],[-79.931426,40.460568],[-79.931211,40.460525],[-79.930999,40.460475],[-79.930789,40.460418],[-79.930583,40.460355],[-79.93038,40.460285],[-79.930181,40.460209],[-79.929987,40.460126],[-79.929797,40.460038],[-79.929612,40.459944],[-79.929432,40.459843],[-79.929258,40.459738],[-79.92909,40.459627],[-79.929061,40.459794],[-79.929023,40.45996],[-79.928976,40.460125],[-79.92892,40.460288],[-79.928856,40.460449],[-79.928782,40.460608],[-79.9287,40.460764],[-79.928609,40.460918],[-79.92851,40.461069],[-79.928403,40.461216],[-79.928288,40.46136],[-79.928165,40.4615],[-79.928034,40.461636],[-79.927896,40.461768],[-79.927752,40.461895],[-79.9276,40.462017],[-79.927498,40.462202],[-79.927262,40.462539],[-79.927239,40.462569],[-79.927133,40.462699],[-79.927021,40.462826],[-79.926903,40.46295],[-79.926779,40.46307],[-79.926649,40.463186],[-79.926514,40.463299],[-79.926373,40.463408],[-79.926227,40.463513],[-79.9262,40.463531],[-79.926041,40.463637],[-79.925877,40.463738],[-79.925708,40.463833],[-79.925534,40.463924],[-79.925356,40.464009],[-79.925173,40.46409],[-79.924987,40.464164],[-79.924796,40.464233],[-79.924603,40.464296],[-79.924406,40.464353],[-79.924207,40.464405],[-79.924005,40.46445],[-79.9238,40.46449],[-79.923766,40.464496],[-79.92356,40.464529],[-79.923354,40.464556],[-79.923146,40.464577],[-79.922937,40.464592],[-79.922728,40.4646],[-79.922518,40.464602],[-79.922309,40.464598],[-79.922099,40.464588],[-79.922056,40.464585],[-79.921855,40.46457],[-79.921655,40.464548],[-79.921457,40.464521],[-79.921412,40.464514],[-79.920969,40.464432],[-79.920909,40.464419],[-79.920865,40.464409],[-79.920617,40.464347],[-79.920583,40.464337],[-79.920554,40.46433],[-79.920473,40.464307],[-79.920308,40.464259],[-79.920275,40.464249],[-79.920143,40.464207],[-79.920017,40.464165],[-79.919976,40.464151],[-79.919758,40.46407],[-79.919401,40.46393],[-79.919204,40.46385],[-79.919012,40.463763],[-79.918825,40.46367],[-79.918643,40.463571],[-79.918467,40.463467],[-79.918296,40.463357],[-79.918132,40.463242],[-79.917974,40.463121],[-79.917822,40.462996],[-79.917678,40.462866],[-79.91754,40.462732],[-79.91741,40.462594],[-79.917288,40.462451],[-79.917174,40.462305],[-79.917067,40.462155],[-79.916969,40.462002],[-79.916879,40.461846],[-79.916797,40.461687]]],[[[-79.967165,40.454376],[-79.96739,40.45437],[-79.967615,40.45437],[-79.96784,40.454378],[-79.968065,40.454393],[-79.968288,40.454416],[-79.96851,40.454445],[-79.96873,40.454481],[-79.968948,40.454525],[-79.969164,40.454575],[-79.969376,40.454632],[-79.969586,40.454696],[-79.969791,40.454766],[-79.969993,40.454843],[-79.97019,40.454927],[-79.970382,40.455016],[-79.970569,40.455112],[-79.970751,40.455213],[-79.970928,40.455321],[-79.971098,40.455433],[-79.971262,40.455551],[-79.971419,40.455675],[-79.971569,40.455803],[-79.971713,40.455936],[-79.971848,40.456073],[-79.971977,40.456214],[-79.972097,40.45636],[-79.972202,40.456492],[-79.972312,40.456638],[-79.972414,40.456788],[-79.972508,40.45694],[-79.972594,40.457095],[-79.972671,40.457253],[-79.97274,40.457413],[-79.9728,40.457575],[-79.972852,40.457739],[-79.972894,40.457904],[-79.972928,40.45807],[-79.972953,40.458238],[-79.972969,40.458406],[-79.972976,40.458574],[-79.972974,40.458743],[-79.972963,40.458911],[-79.972943,40.459079],[-79.972914,40.459246],[-79.972876,40.459412],[-79.972829,40.459576],[-79.972773,40.459739],[-79.972709,40.4599],[-79.972636,40.460059],[-79.972555,40.460216],[-79.972465,40.46037],[-79.972367,40.460521],[-79.972261,40.460669],[-79.972148,40.460813],[-79.972026,40.460954],[-79.971898,40.46109],[-79.971762,40.461223],[-79.971619,40.461351],[-79.971469,40.461475],[-79.971313,40.461594],[-79.97115,40.461708],[-79.970982,40.461817],[-79.970808,40.46192],[-79.970628,40.462018],[-79.970444,40.46211],[-79.970254,40.462197],[-79.969481,40.462534],[-79.969063,40.462759],[-79.968893,40.462837],[-79.968854,40.462855],[-79.968812,40.462874],[-79.968616,40.462957],[-79.968416,40.463034],[-79.968211,40.463104],[-79.968003,40.463168],[-79.967792,40.463225],[-79.967578,40.463276],[-79.967361,40.463319],[-79.967142,40.463356],[-79.966921,40.463386],[-79.966699,40.463409],[-79.966476,40.463424],[-79.966252,40.463433],[-79.966028,40.463434],[-79.965804,40.463428],[-79.96558,40.463416],[-79.965358,40.463396],[-79.965136,40.463369],[-79.964917,40.463335],[-79.964699,40.463294],[-79.964484,40.463246],[-79.964271,40.463192],[-79.964062,40.46313],[-79.963856,40.463062],[-79.963654,40.462988],[-79.963456,40.462907],[-79.963263,40.46282],[-79.963075,40.462727],[-79.962892,40.462629],[-79.962715,40.462524],[-79.962543,40.462414],[-79.962377,40.462298],[-79.962218,40.462178],[-79.962066,40.462052],[-79.961921,40.461922],[-79.961782,40.461787],[-79.961652,40.461648],[-79.961529,40.461505],[-79.961414,40.461358],[-79.961307,40.461207],[-79.961208,40.461054],[-79.961118,40.460897],[-79.961036,40.460738],[-79.960942,40.460541],[-79.96087,40.460381],[-79.960806,40.460218],[-79.960752,40.460053],[-79.960706,40.459887],[-79.960669,40.45972],[-79.960642,40.459551],[-79.960623,40.459382],[-79.960614,40.459212],[-79.960614,40.459042],[-79.960623,40.458873],[-79.960641,40.458703],[-79.960668,40.458535],[-79.960705,40.458367],[-79.96075,40.458201],[-79.960805,40.458036],[-79.960868,40.457873],[-79.96094,40.457713],[-79.96102,40.457554],[-79.961109,40.457399],[-79.961207,40.457246],[-79.961312,40.457097],[-79.961426,40.45695],[-79.961547,40.456808],[-79.961676,40.45667],[-79.961812,40.456536],[-79.961956,40.456406],[-79.962106,40.45628],[-79.962263,40.45616],[-79.962426,40.456045],[-79.962595,40.455935],[-79.962771,40.45583],[-79.962951,40.455731],[-79.963137,40.455638],[-79.963328,40.45555],[-79.963464,40.455491],[-79.964246,40.45515],[-79.964565,40.455012],[-79.964639,40.454982],[-79.964901,40.454877],[-79.965003,40.454838],[-79.965182,40.454768],[-79.965365,40.454703],[-79.96555,40.454644],[-79.965739,40.45459],[-79.965931,40.454542],[-79.966124,40.454501],[-79.96632,40.454465],[-79.966518,40.454435],[-79.966717,40.454411],[-79.96694,40.45439],[-79.967165,40.454376]]],[[[-80.017195,40.422073],[-80.017416,40.422066],[-80.017636,40.422066],[-80.017857,40.422073],[-80.018077,40.422087],[-80.018296,40.422108],[-80.018513,40.422135],[-80.018729,40.42217],[-80.018943,40.422211],[-80.019155,40.422259],[-80.019364,40.422313],[-80.01957,40.422374],[-80.019772,40.422441],[-80.019971,40.422515],[-80.020165,40.422594],[-80.020355,40.42268],[-80.020541,40.422772],[-80.020721,40.422869],[-80.020896,40.422972],[-80.021065,40.42308],[-80.021228,40.423194],[-80.021386,40.423312],[-80.021536,40.423435],[-80.02168,40.423563],[-80.021817,40.423695],[-80.021947,40.423832],[-80.022069,40.423972],[-80.022183,40.424116],[-80.02229,40.424264],[-80.022474,40.424531],[-80.022574,40.424683],[-80.022665,40.424838],[-80.022748,40.424996],[-80.022823,40.425156],[-80.022888,40.425319],[-80.022945,40.425483],[-80.022993,40.425649],[-80.023031,40.425817],[-80.023061,40.425985],[-80.023082,40.426155],[-80.023093,40.426325],[-80.023095,40.426495],[-80.023088,40.426665],[-80.023071,40.426834],[-80.023046,40.427003],[-80.023011,40.427172],[-80.022968,40.427338],[-80.022915,40.427504],[-80.022853,40.427667],[-80.022783,40.427828],[-80.022704,40.427988],[-80.022616,40.428144],[-80.02252,40.428297],[-80.022416,40.428448],[-80.022303,40.428595],[-80.022183,40.428738],[-80.022055,40.428877],[-80.02192,40.429012],[-80.021777,40.429143],[-80.021628,40.429269],[-80.021472,40.42939],[-80.021309,40.429506],[-80.02114,40.429617],[-80.020993,40.429753],[-80.020847,40.429881],[-80.020695,40.430005],[-80.020536,40.430123],[-80.020371,40.430237],[-80.0202,40.430345],[-80.020023,40.430448],[-80.019841,40.430545],[-80.019653,40.430636],[-80.019461,40.430721],[-80.019264,40.4308],[-80.019064,40.430873],[-80.018859,40.430939],[-80.018651,40.430999],[-80.018441,40.431052],[-80.018227,40.431099],[-80.018011,40.431138],[-80.017793,40.431171],[-80.017574,40.431197],[-80.017353,40.431216],[-80.017131,40.431228],[-80.016909,40.431233],[-80.016687,40.431231],[-80.016465,40.431222],[-80.016244,40.431206],[-80.016024,40.431183],[-80.015805,40.431154],[-80.015589,40.431117],[-80.015374,40.431073],[-80.015162,40.431023],[-80.014953,40.430966],[-80.014747,40.430902],[-80.014544,40.430832],[-80.014346,40.430756],[-80.014152,40.430673],[-80.013962,40.430585],[-80.013778,40.43049],[-80.013685,40.430446],[-80.013473,40.430333],[-80.013294,40.430233],[-80.01312,40.430128],[-80.012951,40.430017],[-80.012789,40.429901],[-80.012633,40.42978],[-80.012484,40.429655],[-80.012342,40.429525],[-80.012207,40.42939],[-80.012079,40.429251],[-80.011959,40.429108],[-80.011847,40.428962],[-80.011742,40.428812],[-80.011646,40.428659],[-80.011558,40.428504],[-80.011479,40.428345],[-80.011408,40.428184],[-80.011347,40.428021],[-80.011293,40.427857],[-80.011249,40.42769],[-80.011214,40.427523],[-80.011188,40.427354],[-80.011171,40.427185],[-80.011163,40.427016],[-80.011164,40.426846],[-80.011175,40.426676],[-80.011195,40.426507],[-80.011223,40.426339],[-80.011261,40.426172],[-80.011308,40.426006],[-80.011363,40.425842],[-80.011428,40.42568],[-80.011501,40.425519],[-80.011583,40.425362],[-80.011673,40.425207],[-80.011772,40.425055],[-80.011878,40.424906],[-80.011993,40.42476],[-80.012115,40.424619],[-80.012245,40.424481],[-80.012382,40.424348],[-80.012526,40.424219],[-80.012677,40.424095],[-80.01365,40.423321],[-80.013807,40.423201],[-80.013971,40.423087],[-80.014141,40.422978],[-80.014317,40.422874],[-80.014498,40.422776],[-80.014684,40.422683],[-80.014875,40.422597],[-80.015071,40.422517],[-80.01527,40.422443],[-80.015474,40.422375],[-80.015681,40.422313],[-80.015891,40.422259],[-80.016104,40.422211],[-80.01632,40.422169],[-80.016537,40.422135],[-80.016756,40.422107],[-80.016975,40.422087],[-80.017195,40.422073]]],[[[-80.050964,40.447521],[-80.051188,40.447514],[-80.051412,40.447515],[-80.051636,40.447522],[-80.051859,40.447537],[-80.052082,40.447558],[-80.052303,40.447587],[-80.052522,40.447623],[-80.052583,40.447634],[-80.053071,40.44774],[-80.053379,40.447828],[-80.053488,40.447862],[-80.05356,40.447883],[-80.053792,40.447958],[-80.054135,40.448085],[-80.054199,40.448112],[-80.054277,40.448142],[-80.054622,40.448288],[-80.054755,40.448349],[-80.054943,40.44844],[-80.055127,40.448537],[-80.055305,40.448639],[-80.055478,40.448748],[-80.055644,40.448861],[-80.055805,40.44898],[-80.055958,40.449104],[-80.056105,40.449232],[-80.056245,40.449365],[-80.056377,40.449502],[-80.056502,40.449644],[-80.056619,40.449789],[-80.056729,40.449937],[-80.05683,40.45009],[-80.056922,40.450245],[-80.057006,40.450403],[-80.057082,40.450563],[-80.057149,40.450726],[-80.057207,40.45089],[-80.057256,40.451057],[-80.057295,40.451225],[-80.057326,40.451394],[-80.057348,40.451563],[-80.05736,40.451734],[-80.057363,40.451904],[-80.057357,40.452075],[-80.057342,40.452245],[-80.057317,40.452414],[-80.057283,40.452583],[-80.05724,40.45275],[-80.057189,40.452916],[-80.057043,40.453342],[-80.056981,40.453508],[-80.056911,40.453671],[-80.056832,40.453831],[-80.056744,40.45399],[-80.056648,40.454145],[-80.056543,40.454297],[-80.05643,40.454445],[-80.056309,40.45459],[-80.05618,40.454731],[-80.056044,40.454867],[-80.0559,40.454999],[-80.055749,40.455127],[-80.055592,40.455249],[-80.055427,40.455366],[-80.055257,40.455478],[-80.055081,40.455585],[-80.054899,40.455686],[-80.054711,40.45578],[-80.054519,40.455869],[-80.054322,40.455952],[-80.05412,40.456028],[-80.053915,40.456098],[-80.053706,40.456161],[-80.053494,40.456218],[-80.053278,40.456267],[-80.053061,40.45631],[-80.052841,40.456346],[-80.052619,40.456375],[-80.052396,40.456396],[-80.052172,40.456411],[-80.051947,40.456418],[-80.051723,40.456418],[-80.051498,40.456411],[-80.051274,40.456397],[-80.051051,40.456376],[-80.050829,40.456348],[-80.050609,40.456313],[-80.050391,40.45627],[-80.049642,40.456112],[-80.049428,40.456063],[-80.049217,40.456008],[-80.04901,40.455946],[-80.048805,40.455877],[-80.048605,40.455802],[-80.048409,40.45572],[-80.048217,40.455633],[-80.048031,40.45554],[-80.047849,40.45544],[-80.047674,40.455335],[-80.047504,40.455225],[-80.04734,40.455109],[-80.047182,40.454989],[-80.047031,40.454863],[-80.046888,40.454733],[-80.046751,40.454598],[-80.046622,40.454459],[-80.0465,40.454316],[-80.046386,40.45417],[-80.046281,40.454019],[-80.046183,40.453866],[-80.046094,40.45371],[-80.046013,40.453551],[-80.045941,40.45339],[-80.045878,40.453226],[-80.045824,40.453061],[-80.045779,40.452894],[-80.045743,40.452726],[-80.045716,40.452556],[-80.045698,40.452387],[-80.04569,40.452216],[-80.04569,40.452046],[-80.0457,40.451876],[-80.045719,40.451706],[-80.045748,40.451537],[-80.045785,40.451369],[-80.045832,40.451202],[-80.045964,40.450771],[-80.046075,40.450489],[-80.046134,40.450349],[-80.0462,40.45021],[-80.046272,40.450074],[-80.046351,40.44994],[-80.046437,40.449808],[-80.046475,40.449748],[-80.046578,40.449604],[-80.046688,40.449463],[-80.046806,40.449325],[-80.046931,40.449192],[-80.047063,40.449062],[-80.047201,40.448937],[-80.047347,40.448816],[-80.047498,40.448699],[-80.047656,40.448588],[-80.047819,40.448481],[-80.047855,40.448459],[-80.048024,40.448357],[-80.048198,40.44826],[-80.048377,40.448169],[-80.048561,40.448083],[-80.048749,40.448003],[-80.048941,40.447929],[-80.049137,40.447861],[-80.049336,40.447798],[-80.049539,40.447742],[-80.050021,40.447629],[-80.050518,40.447556],[-80.05074,40.447535],[-80.050964,40.447521]]],[[[-79.898512,40.448764],[-79.898735,40.448758],[-79.898957,40.448758],[-79.89918,40.448766],[-79.899402,40.448781],[-79.899623,40.448802],[-79.899842,40.448831],[-79.90006,40.448866],[-79.900276,40.448908],[-79.900489,40.448957],[-79.900699,40.449013],[-79.900907,40.449075],[-79.90111,40.449144],[-79.90131,40.449219],[-79.901951,40.449473],[-79.902115,40.449541],[-79.902277,40.449613],[-79.902435,40.44969],[-79.902589,40.44977],[-79.902645,40.4498],[-79.902822,40.4499],[-79.902993,40.450006],[-79.903158,40.450116],[-79.903318,40.450232],[-79.903471,40.450352],[-79.903618,40.450478],[-79.903757,40.450607],[-79.90389,40.450741],[-79.904016,40.450879],[-79.904134,40.451021],[-79.904244,40.451166],[-79.904346,40.451315],[-79.904441,40.451467],[-79.904527,40.451621],[-79.904605,40.451778],[-79.904674,40.451938],[-79.904735,40.452099],[-79.904787,40.452262],[-79.90483,40.452427],[-79.904865,40.452593],[-79.90489,40.45276],[-79.904907,40.452927],[-79.904915,40.453095],[-79.904913,40.453263],[-79.904903,40.453431],[-79.904884,40.453598],[-79.904856,40.453765],[-79.904819,40.45393],[-79.904773,40.454095],[-79.904718,40.454257],[-79.904655,40.454418],[-79.904583,40.454577],[-79.904503,40.454733],[-79.904414,40.454887],[-79.904317,40.455038],[-79.904213,40.455187],[-79.904197,40.455215],[-79.903958,40.455556],[-79.903679,40.455877],[-79.903362,40.456178],[-79.903009,40.456454],[-79.902624,40.456704],[-79.90221,40.456925],[-79.90177,40.457116],[-79.90131,40.457274],[-79.900832,40.457399],[-79.90034,40.457489],[-79.89984,40.457544],[-79.899335,40.457562],[-79.89883,40.457544],[-79.89833,40.457491],[-79.897838,40.457401],[-79.89736,40.457277],[-79.896903,40.457107],[-79.896801,40.457073],[-79.896505,40.456959],[-79.896438,40.456935],[-79.896186,40.456831],[-79.896003,40.456752],[-79.895759,40.456651],[-79.895344,40.45643],[-79.894959,40.456181],[-79.894605,40.455905],[-79.894287,40.455605],[-79.894007,40.455284],[-79.893768,40.454944],[-79.893572,40.454588],[-79.89342,40.45422],[-79.893313,40.453843],[-79.893254,40.453459],[-79.893242,40.453074],[-79.893277,40.452689],[-79.893359,40.452308],[-79.893487,40.451934],[-79.893661,40.451572],[-79.893877,40.451226],[-79.893945,40.451128],[-79.894032,40.450998],[-79.894139,40.450847],[-79.894253,40.4507],[-79.894375,40.450556],[-79.894505,40.450417],[-79.894643,40.450282],[-79.894787,40.450151],[-79.894939,40.450025],[-79.895097,40.449904],[-79.895262,40.449788],[-79.895433,40.449678],[-79.89561,40.449573],[-79.895792,40.449473],[-79.89598,40.44938],[-79.896172,40.449292],[-79.896369,40.449211],[-79.896571,40.449136],[-79.896776,40.449068],[-79.896985,40.449006],[-79.897197,40.448951],[-79.897412,40.448902],[-79.897629,40.448861],[-79.897848,40.448826],[-79.898069,40.448798],[-79.89829,40.448778],[-79.898512,40.448764]]]]}},
{"type":"Feature","properties":{},"geometry":{"type":"Polygon","coordinates":[[[-79.963172,40.433774],[-79.963394,40.433753],[-79.963616,40.43374],[-79.96384,40.433733],[-79.964064,40.433734],[-79.964287,40.433741],[-79.96451,40.433756],[-79.964732,40.433777],[-79.964952,40.433806],[-79.965171,40.433842],[-79.965387,40.433884],[-79.965601,40.433934],[-79.965813,40.43399],[-79.96602,40.434053],[-79.966225,40.434122],[-79.966425,40.434198],[-79.966621,40.43428],[-79.966813,40.434368],[-79.967,40.434463],[-79.967181,40.434563],[-79.967357,40.434668],[-79.967526,40.434779],[-79.96769,40.434896],[-79.967847,40.435018],[-79.967998,40.435144],[-79.968141,40.435275],[-79.968277,40.435411],[-79.968406,40.43555],[-79.968527,40.435694],[-79.96864,40.435841],[-79.968745,40.435992],[-79.968842,40.436146],[-79.96893,40.436303],[-79.96901,40.436463],[-79.969081,40.436625],[-79.969143,40.436789],[-79.969196,40.436955],[-79.96924,40.437123],[-79.969275,40.437292],[-79.9693,40.437461],[-79.969317,40.437632],[-79.969324,40.437803],[-79.969322,40.437973],[-79.969311,40.438144],[-79.96929,40.438314],[-79.96926,40.438484],[-79.969221,40.438652],[-79.969173,40.438819],[-79.969116,40.438984],[-79.96905,40.439147],[-79.968975,40.439308],[-79.968891,40.439467],[-79.968799,40.439622],[-79.968699,40.439775],[-79.96859,40.439924],[-79.968473,40.44007],[-79.968349,40.440212],[-79.968217,40.44035],[-79.968077,40.440484],[-79.967931,40.440613],[-79.967777,40.440737],[-79.967617,40.440856],[-79.96745,40.44097],[-79.967278,40.441079],[-79.9671,40.441182],[-79.966916,40.44128],[-79.966662,40.441475],[-79.966607,40.441516],[-79.966363,40.441696],[-79.966275,40.441761],[-79.966015,40.441954],[-79.965831,40.442092],[-79.965561,40.442292],[-79.965514,40.442326],[-79.965252,40.44252],[-79.964991,40.442712],[-79.964731,40.442902],[-79.964473,40.443093],[-79.964247,40.443258],[-79.964122,40.443354],[-79.964051,40.44341],[-79.963953,40.443486],[-79.96369,40.443684],[-79.96355,40.443786],[-79.963315,40.443951],[-79.963069,40.444127],[-79.962861,40.444275],[-79.962602,40.444462],[-79.962486,40.444545],[-79.962248,40.444715],[-79.962165,40.444775],[-79.961898,40.444967],[-79.961633,40.44516],[-79.961516,40.445242],[-79.961282,40.445412],[-79.961178,40.445488],[-79.960917,40.445681],[-79.960658,40.445871],[-79.960399,40.446062],[-79.96037,40.446083],[-79.960282,40.446147],[-79.960243,40.446174],[-79.95998,40.446361],[-79.959722,40.446546],[-79.959459,40.446733],[-79.959368,40.446798],[-79.959103,40.446988],[-79.958839,40.447176],[-79.958762,40.44723],[-79.958494,40.447413],[-79.958428,40.447458],[-79.958323,40.447528],[-79.958137,40.447653],[-79.957961,40.447781],[-79.957705,40.447968],[-79.957676,40.447989],[-79.957402,40.44819],[-79.95714,40.448383],[-79.956897,40.448561],[-79.95661,40.448769],[-79.956332,40.448969],[-79.956096,40.449137],[-79.955819,40.449334],[-79.955578,40.449504],[-79.955412,40.449617],[-79.955239,40.449725],[-79.955061,40.449827],[-79.954878,40.449923],[-79.954689,40.450014],[-79.954496,40.450099],[-79.954298,40.450177],[-79.954096,40.450249],[-79.953891,40.450315],[-79.953682,40.450374],[-79.95347,40.450427],[-79.953255,40.450472],[-79.953038,40.450511],[-79.95282,40.450543],[-79.952599,40.450568],[-79.952378,40.450587],[-79.952156,40.450598],[-79.951933,40.450602],[-79.95171,40.450599],[-79.951488,40.450589],[-79.951266,40.450572],[-79.951045,40.450548],[-79.950826,40.450517],[-79.950609,40.450479],[-79.950394,40.450435],[-79.950182,40.450383],[-79.949972,40.450325],[-79.949766,40.450261],[-79.949564,40.45019],[-79.949365,40.450112],[-79.949171,40.450029],[-79.948982,40.449939],[-79.948797,40.449844],[-79.948618,40.449742],[-79.948445,40.449635],[-79.948278,40.449523],[-79.948116,40.449406],[-79.947961,40.449283],[-79.947813,40.449156],[-79.947672,40.449024],[-79.947539,40.448888],[-79.947412,40.448748],[-79.947294,40.448604],[-79.947183,40.448456],[-79.94708,40.448305],[-79.946986,40.448151],[-79.9469,40.447994],[-79.946823,40.447835],[-79.946754,40.447673],[-79.946694,40.447509],[-79.946643,40.447343],[-79.946601,40.447176],[-79.946568,40.447008],[-79.946545,40.446838],[-79.94653,40.446669],[-79.946525,40.446498],[-79.946529,40.446328],[-79.946542,40.446158],[-79.946564,40.445989],[-79.946595,40.445821],[-79.946636,40.445653],[-79.946685,40.445487],[-79.946744,40.445323],[-79.946811,40.445161],[-79.946887,40.445001],[-79.946971,40.444843],[-79.947064,40.444689],[-79.947166,40.444537],[-79.947275,40.444389],[-79.947392,40.444244],[-79.947517,40.444103],[-79.94765,40.443966],[-79.94779,40.443834],[-79.947937,40.443706],[-79.94809,40.443583],[-79.94825,40.443465],[-79.948489,40.443296],[-79.948753,40.443108],[-79.948963,40.442959],[-79.949208,40.442783],[-79.949457,40.442602],[-79.949675,40.442442],[-79.949931,40.442255],[-79.950212,40.442048],[-79.950252,40.442019],[-79.950515,40.441826],[-79.950777,40.441636],[-79.950946,40.441518],[-79.951235,40.441324],[-79.951325,40.441264],[-79.95152,40.44113],[-79.951743,40.440971],[-79.95201,40.440781],[-79.952101,40.440716],[-79.952364,40.440528],[-79.952631,40.440338],[-79.952883,40.440158],[-79.952938,40.440118],[-79.953183,40.439939],[-79.953441,40.439748],[-79.953704,40.439555],[-79.953832,40.439461],[-79.954142,40.439235],[-79.954253,40.439158],[-79.954475,40.438996],[-79.954503,40.438976],[-79.95478,40.438777],[-79.954868,40.438714],[-79.955109,40.438541],[-79.95522,40.438461],[-79.955483,40.438272],[-79.955705,40.438114],[-79.955975,40.437921],[-79.956008,40.437898],[-79.956189,40.437771],[-79.956334,40.437661],[-79.956396,40.437612],[-79.956473,40.437552],[-79.956672,40.437401],[-79.95674,40.43735],[-79.956998,40.43716],[-79.957257,40.436969],[-79.957515,40.43678],[-79.957772,40.436591],[-79.958033,40.436398],[-79.958068,40.436372],[-79.958318,40.436187],[-79.958494,40.436056],[-79.958749,40.435866],[-79.958847,40.435793],[-79.958876,40.435772],[-79.959107,40.435602],[-79.959237,40.435503],[-79.959289,40.435459],[-79.959383,40.43538],[-79.959423,40.435346],[-79.959551,40.435242],[-79.959876,40.435007],[-79.959938,40.434966],[-79.9601,40.434863],[-79.960266,40.434765],[-79.960437,40.434672],[-79.960565,40.434605],[-79.960668,40.434551],[-79.960764,40.434501],[-79.961143,40.43432],[-79.961407,40.434212],[-79.961534,40.434164],[-79.961729,40.434094],[-79.961927,40.434029],[-79.962128,40.433971],[-79.962333,40.433919],[-79.962539,40.433873],[-79.962748,40.433834],[-79.962959,40.433801],[-79.963172,40.433774]]]}}
]}
